fullname,Сайт,Отчёт,Год отчёта,учащихся,Английский_егэ,,Французский_егэ,,Немецкий_егэ,,Русский_егэ,,География_егэ,,Обществознание_егэ,,Литература_егэ,,История_егэ,,Информатика_егэ,,Математика_егэ,,Химия_егэ,,Биология_егэ,,Физика_егэ,,address,lng,lat
Государственное бюджетное образовательное учреждение города Москвы лицей № 1535,http://lyc1535.mskobr.ru/,http://lyc1535.mskobr.ru/files/doklad_correct.pdf,2015,1108,89,,95,,78,,88,,84,,75,,77,,72,,83,,72,,81,,81,,76,,"119048 г. Москва, ул. Усачева, д.50",37.564931,55.725803
"Государственное образовательное учреждение специализированный учебно-научный центр-факультет Московского государственного университета имени М.В.Ломоносова, школа имени А.Н.Колмогорова",http://internat.msu.ru,x,,,,,,,,,,,,,,,,,,,,,,,,,,,,,"121357, Москва, ул.Кременчугская, д.11",37.464508,55.719576
"Государственное бюджетное образовательное учреждение города Москвы центр образования № 57 ""Пятьдесят седьмая школа""",http://coc57.mskobr.ru,http://coc57.mskobr.ru/images/cms/data/osnovnye_principy_organizacii_deyatel_nosti.pdf,2014,1396,73.1,,90,,,,80.4,,76,,68.9,,71.7,,73,,78.4,,77.8,,67.8,,78.3,,73.7,,"119019 г. Москва, М.Знаменский пер.,д.7/10, стр.5",37.604987,55.748615
"Государственное бюджетное общеобразовательное учреждение города Москвы ""Многопрофильный лицей № 1501""",http://lycc1501.mskobr.ru,http://lycc1501.mskobr.ru/files/public_report_2014_2015.pdf,2015,3356,74.4,45,78,19,74.5,20,77.1,331,76,2,62.9,96,64.9,14,56.1,34,64.7,38,59.1,219,72.9,115,72.9,125,62.6,80,"127055 г. Москва, Тихвинский пер., д. 3",37.595761,55.787705
"Государственное бюджетное образовательное учреждение города Москвы лицей ""Вторая школа""",http://lycuz2.mskobr.ru,http://lycuz2.mskobr.ru/report/,2014,453,84,10,,,,,85.1,78,,,64,18,50,2,66.5,4,80,34,86,79,75,4,80.5,2,78,64,"119333 Москва, улица Фотиевой д.18",37.556442,55.69798
"Государственное бюджетное общеобразовательное учреждение города Москвы ""Школа-интернат ""Интеллектуал""",http://int.mskobr.ru,http://int.mskobr.ru/report/,2014,279,,,,,,,83,37,,,74,8,69,2,77,6,83,4,68,37,83,16,86,14,77,14,"121357 Москва, Кременчугская улица д.13",37.464607,55.718253
Средняя общеобразовательная школа № 179,http://schc179.mskobr.ru,http://schc179.mskobr.ru/files/Documents/publichnyj_doklad_rukovoditelya_sosh_179_mioo_2015.pdf,2015,468,77,30,92,1,,,83,125,81,1,66,26,57,4,60,8,81,56,80,109,70,10,78,10,75,65,"125009 Москва, Дмитровка Б. ул. д.5/6 стр.7",37.614734,55.759653
"Государственное бюджетное общеобразовательное учреждение города Москвы ""Лицей № 1580 при МГТУ имени Н.Э.Баумана""",http://lycu1580.mskobr.ru,http://lycu1580.mskobr.ru/files/publichnyj_doklad_direktora_gbou_liceya_1580_28_08_15.pdf,2015,1159,74,50,,,,,82.41,352,78,4,69,25,68,1,77,4,72,144,79.15,352,69,9,66,8,77.34,348,"117639 г. Москва, Балаклавский проспект д. 6А",37.613018,55.641524
Государственное бюджетное образовательное учреждение города Москвы Центр образования № 1329,http://sch1329.mskobr.ru,http://www.youblisher.com/p/1167967-%D0%9F%D1%83%D0%B1%D0%BB%D0%B8%D1%87%D0%BD%D1%8B%D0%B9-%D0%B4%D0%BE%D0%BA%D0%BB%D0%B0%D0%B4-%D0%B7%D0%B0-2014-2015-%D1%83%D1%87%D0%B5%D0%B1%D0%BD%D1%8B%D0%B9-%D0%B3%D0%BE%D0%B4/,2015,463,82,30,94,1,58,1,73,72,,,70,36,72,5,69,9,73,9,60,72,68,7,70,7,70,6,"119602, г. Москва, ул. Никулинская, д.10",37.465002,55.668935
"Государственное бюджетное общеобразовательное учреждение города Москвы ""Лицейско-гимназический комплекс на Юго-Востоке""",http://gym1599uv.mskobr.ru,http://lgkuv.mskobr.ru/files/%20%D0%B4%D0%BE%D0%BA%D0%BB%D0%B0%D0%B4%201599.pptx,2015,1868,82,38,,,,,80,77,,,73,38,73,6,71,10,62,12,58,57,61,11,61,14,65,11,"109457 Москва, Зеленодольская улица д.32 к.6",37.766738,55.711584
"Государственное бюджетное общеобразовательное учреждение города Москвы ""Лицей № 1502 при МЭИ""",http://lycg1502.mskobr.ru,http://lycg1502.mskobr.ru/files/pdf/public_report_2014_15.pdf.pdf,2015,1654,,,,,,,81,,,,,,,,,,,,62,,,,,,,,"111555, г. Москва, ул. Молостовых, д. 10А",37.830204,55.760282
Государственное бюджетное образовательное учреждение московская гимназия на Юго-Западе № 1543,http://gym1543.mskobr.ru,http://gym1543.mskobr.ru/files/samootchet_gimnazii_1543_v_2015.pdf,2015,669,84,34,80,1,,,85,75,,,74,26,67,9,77,17,81,15,73,75,83,23,85,23,74,21,"119571 г.Москва, 26 Бакинских комиссаров, д. 3, корпус 5",37.486158,55.656016
Государственное бюджетное образовательное учреждение города Москвы гимназия № 1514,http://gym1514uz.mskobr.ru,http://gym1514uz.mskobr.ru/files/Public_doclad/%D0%9F%D1%83%D0%B1%D0%BB%D0%B8%D1%87%D0%BD%D1%8B%D0%B9%20%D0%B4%D0%BE%D0%BA%D0%BB%D0%B0%D0%B4%202015.pdf,2015,1046,85,8,,,,,88,93,,,76,36,70,10,67,25,79,25,84,63,77,8,87,6,79,27,"119311, г.Москва, ул.Крупской, д.12",37.526816,55.685056
"Государственное бюджетное общеобразовательное учреждение города Москвы ""Многопрофильный лицей № 1799""",http://lic1799.mskobr.ru,http://lic1799.mskobr.ru/files/%20%D0%B4%D0%BE%D0%BA%D0%BB%D0%B0%D0%B4%20-%202015.pdf,2015,2913,x,,,,,,,,,,,,,,,,,,,,,,,,,,"115035 Москва, 1-й Кадашёвский переулок д.3 стр.1",37.621435,55.744171
"Государственное бюджетное общеобразовательное учреждение города Москвы ""Курчатовская школа""",http://kurchat.mskobr.ru,http://st.educom.ru//eduoffices/gateways/get_file.php?id={F3AFCEF1-38F0-405A-BBBF-E068753E0090}&name=kurchat_samoobsledovanie_2014-2015.pdf,2015,2448,66,,,,98,,74,,54,,54,,54,,52,,69,,58,,69,,69,,71,,"123060 Москва, улица Маршала Конева д.10",37.488395,55.797194
"Государственное автономное общеобразовательное учреждение города Москвы ""Центр образования № 548 ""Царицыно""",http://cou548.mskobr.ru,http://cou548.mskobr.ru/files/publicreview2014.pdf,2014,1163,67,,,,,,74,,,,62,,63,,58,,67,,53,,69,,70,,62,,"115582 г.Москва, ул. Домодедовская д35, к.2",37.717115,55.601747
"Государственное бюджетное общеобразовательное учреждение города Москвы ""Школа № 171""",http://sch171c.mskobr.ru,http://sch171c.mskobr.ru/files/publichnyj_doklad_direktora.pdf,2014,1253,66,13,,,,,73,87,64,3,57,22,67,4,53,5,59,11,52,87,70,40,71,34,56,22,"119146 г.Москва, 2-ая Фрунзенская ул., д. 7А",37.57943,55.722223
Государственное бюджетное образовательное учреждение города Москвы лицей № 1568 имени Пабло Неруды,lyc1568sv-new.mskobr.ru,http://lyc1568.mskobr.ru/report/,2014,2229,,,,,,,79,,,,,,,,,,,,73,,,,,,,,"127221, г. Москва, проезд Шокальского, дом 7, корпус 2",37.642887,55.874511
Государственное бюджетное образовательное учреждение города Москвы средняя общеобразовательная школа с углубленным изучением физики и математики № 2007,http://schuuz2007.mskobr.ru,http://schuuz2007.mskobr.ru/report/,2014,489,70,9,,,,,83,44,,,65,6,,,,,75,23,85,44,,,,,81,36,"117042, г. Москва, ул. Горчакова, д. 9, корп. 1",37.532771,55.544749
Государственное бюджетное образовательное учреждение города Москвы средняя общеобразовательная школа № 962,http://sch962sv.mskobr.ru,http://sch962sv.mskobr.ru/files/dokumenty/otchet_za_2014-15_uchebnyj_god_5_08_2015.pdf,2015,2220,80,24,,,,,75,83,100,1,64,53,53,4,62,10,39,10,56,76,59,6,64,9,67,20,"127562, г. Москва, ул. Санникова, д.3, корп.3.",37.592923,55.859494
Федеральное государственное автономное образовательное учреждение высшего профессионального образования «Национальный Исследовательский Ядерный Университет «МИФИ». Предуниверситарий,http://mephi.mskobr.ru,x,,,,,,,,,,,,,,,,,,,,,,,,,,,,,"115409 г. Москва, Каширское ш., 31",37.664384,55.649865
"Государственное бюджетное общеобразовательное учреждение города Москвы ""Лицей № 1557""",http://lyc1557zg.mskobr.ru,http://lyc1557zg.mskobr.ru/files/%D0%9F%D1%83%D0%B1%D0%BB%D0%B8%D1%87%D0%BD%D1%8B%D0%B9%20%D0%B4%D0%BE%D0%BA%D0%BB%D0%B0%D0%B4/%D0%9F%D1%83%D0%B1%D0%BB%D0%B8%D1%87%D0%BD%D1%8B%D0%B9%20%D0%B4%D0%BE%D0%BA%D0%BB%D0%B0%D0%B4%202014-15_8.pdf,2015,1890,,,,,,,80,,,,,,,,,,,,66,,,,,,,,"124536, г. Москва, Зеленоград, корп. 509",37.231566,55.998
Федеральное государственное автономное образовательное учреждение высшего профессионального образования «Национальный Исследовательский Университет «Высшая Школа Экономики». Лицей «Национального Исследовательского Университета «Высшая Школа Экономики»,http://www.hse.ru,x,,,,,,,,,,,,,,,,,,,,,,,,,,,,,"Москва, Большой Харитоньевский переулок, д. 4",37.643758,55.763594
"Государственное бюджетное общеобразовательное учреждение города Москвы ""Школа № 192""",http://sch192uz.mskobr.ru,http://sch192uz.mskobr.ru/files/m-publ2014-2015-2.ppt,2015,1805,68,39,,,,,74,140,60,,58,56,56,12,46,30,69,15,60,109,72,35,73,38,67,36,"119334, г.Москва, Ленинский проспект, д. 34А",37.57484,55.706741
"Государственное бюджетное общеобразовательное учреждение города Москвы ""Школа № 218""",http://sch218.mskobr.ru,http://sch218.mskobr.ru/files/publ_otchet_201415.pdf,2015,903,81,,,,,,85,,62,,74,,74,,71,,73,,69,,80,,77,,73,,"127434, г. Москва, Дмитровское шоссе, дом 5 А",37.575298,55.812003
Государственное бюджетное образовательное учреждение города Москвы гимназия № 1518,http://gum1518.mskobr.ru,http://gum1518.mskobr.ru/files/2015_1518_otchet_o_samoobsledovanii.pdf,2015,976,84,,,,,,86,,,,84,,,,87,,75,,74,,71,,70,,76,,"129085, г. Москва, проспект Мира, д. 87",37.634577,55.803762
Государственное бюджетное образовательное учреждение города Москвы средняя общеобразовательная школа с углубленным изучением английского и немецкого языков № 1955,http://sch1955sv.mskobr.ru,http://sch1955sv.mskobr.ru/files/dokumenty/lokal/otchet1314.pdf,2014,2182,64,,,,61,,68.5,,60,,53,,57,,49,,56,,45,,52,,60,,53,,"129345, г. Москва, улица Тайнинская, дом 15, корпус 3",37.683266,55.884822
"Государственное бюджетное общеобразовательное учреждение города Москвы ""Школа № 1253 с углубленным изучением иностранного языка""",http://sch1253c.mskobr.ru,http://sch1253c.mskobr.ru/files/otchet-o-deyatelynosti-za-2012--2013-god.pdf,2013,1345,91,50,,,,,82,143,,,72,37,77,6,71,10,,,61,143,89,97,86,97,61,8,"119021 г.Москва, Зубовский бульвар, д.5, стр.1",37.592096,55.734471
"Государственное бюджетное общеобразовательное учреждение города Москвы ""Лицей № 1574""",http://lyc1574.mskobr.ru,http://lyc1574.mskobr.ru/files/pupl_doklad_1574-2013-2014.pdf,2014,1557,73,44,,,,,78,94,65,2,75,46,68,1,70,19,67,6,62,94,84,20,84,18,57,23,"125047 г. Москва, 1-я Миусская ул., д.4",37.596965,55.779737
"Государственное бюджетное общеобразовательное учреждение города Москвы ""Гимназия № 1528""",http://gym1528zg.mskobr.ru,http://gym1528zg.mskobr.ru/files/1528_samoobsledovanie14_15.pdf,2015,2318,78,,84,,,,75,,58,,61,,62,,54,,51,,50,,60,,56,,57,,"124527, г. Москва, Зеленоград, корп. 817",37.190765,55.976302
Государственное бюджетное образовательное учреждение города Москвы гимназия № 1534,http://gym1534uz.mskobr.ru,http://gym1534uz.mskobr.ru/report/,2014,2265,66.65,37,,,,,74.31,154,71.25,4,64.39,76,60.7,9,50.49,16,69.53,15,56.58,156,68.74,18,70.43,21,61.68,47,"117036, г.Москва, ул.Кедрова, д.11",37.574327,55.685092
Государственное бюджетное образовательное учреждение города Москвы средняя общеобразовательная школа № 2086,http://sch2086uz.mskobr.ru,http://sch2086uz.mskobr.ru/report/,2015,2270,74,91,77,1,45,2,77,220,63,7,63,107,58,12,53,32,66,32,62,220,63,23,64,34,59,44,"119296 Москва, Университетский проспект д.5",37.551367,55.695824
"Государственное бюджетное общеобразовательное учреждение города Москвы ""Гимназия № 1567""",http://gym1567.mskobr.ru,http://gym1567.mskobr.ru/files/dir_otchet_14.doc,2014,700,78.5,,,,,,84,,,,73.8,,72,,71.5,,74.3,,69.25,,81,,85,,66,,"121170 г.Москва, Кутузовский проезд, д.10, стр.1",37.523366,55.741409
Государственное бюджетное образовательное учреждение города Москвы средняя общеобразовательная школа № 654 имени А.Д. Фридмана,http://sch654.mskobr.ru,http://st.educom.ru//eduoffices/gateways/get_file.php?id={710DEE58-B2C1-45EE-AAC0-B8FF86877207}&name=%D0%A1amoobsledovanie.pdf,2014,2199,65.02,48,,,,,73.92,183,77.67,9,61.96,90,58.45,11,59.93,28,79.94,17,57.51,183,85,30,75.03,23,66.24,65,"109129, г. Москва, ул. Юных Ленинцев, д. 35, к.2",37.744648,55.700775
"Государственное бюджетное общеобразовательное учреждение города Москвы ""Школа № 109""",http://co109.mskobr.ru,http://st.educom.ru//eduoffices/gateways/get_file.php?id={10EF1ED4-D874-4B02-B428-F355CE02EBD4}&name=samoobsledovanie.pdf,2013,1774,73.7,30,95,1,68,6,77.6,,78.3,3,69,45,58.4,11,63.4,19,81,3,55.6,,72.4,9,71.6,10,66.9,7,"117513 г. Москва, ул. Академика Бакулева, д. 20",37.475701,55.640467
"Государственное бюджетное общеобразовательное учреждение города Москвы ""Гимназия № 1517""",http://gym1517sz.mskobr.ru,http://gym1517sz.mskobr.ru/report/,2015,x,x,,,,,,,,,,,,,,,,,,,,,,,,,,"123103, г. Москва, ул. Живописная, д. 11, корп. 1",37.453163,55.785078
"Государственное бюджетное общеобразовательное учреждение города Москвы ""Школа с углубленным изучением испанского языка № 1252 имени Сервантеса""",http://sch1252.mskobr.ru,http://sch1252.mskobr.ru/files/Doc/Main/pdokl1415.pdf,2015,830,70,10,,,,,79,54,68,2,67,25,70,14,66,13,62,4,55,26,52,6,66,8,54,4,"125080 г. Москва, ул. Дубосековская, д. 3",37.496515,55.809975
"Государственное бюджетное общеобразовательное учреждение города Москвы ""Школа № 627""",http://sch627.mskobr.ru,http://sch627.mskobr.ru/files/publichnyj_otchet_direktora_2014-2015gg_osnovnoj_variant.pdf,2015,2388,x,,,,,,,,,,,,,,,,,,,,,,,,,,"115054 г. Москва, ул. Дубининская, д. 42",37.635072,55.724489
Государственное бюджетное образовательное учреждение города Москвы гимназия № 1529 имени А.С. Грибоедова,http://gym1529c.mskobr.ru,http://gym1529c.mskobr.ru/files/pub_doklad2.pdf,2015,1239,88.6,,,,,,84.8,,,,72.6,,67,,63.5,,,,70.8,,75.5,,83.9,,,,"119034 г.Москва, 2-ой Обыденский пер, д.9",37.603505,55.741333
"Государственное бюджетное общеобразовательное учреждение города Москвы ""Гимназия № 1554""",http://gym1554.mskobr.ru,http://gym1554.mskobr.ru/files/%20%D0%B4%D0%BE%D0%BA%D0%BB%D0%B0%D0%B4%20%281%29.pdf,2014,1650,63.9,39,,,63,1,74.2,103,64.5,2,61.2,55,71.1,11,57.1,19,69.6,20,51.9,103,72.8,6,63.9,16,52.3,31,"127490, г. Москва, ул. Пестеля, д.5,9А",37.613485,55.864439
"Государственное бюджетное общеобразовательное учреждение города Москвы ""Гимназия № 1576""",http://gym1576s.mskobr.ru,http://gym1576s.mskobr.ru/files/publ_doklad/PUBL_2015_utver.pdf,2015,1542,74,,,,,,74,,63,,59,,63,,53,,62,,55,,68,,65,,62,,"125299, г. Москва, ул. Большая Академическая, д.22-А",37.529367,55.822883
"Государственное бюджетное общеобразовательное учреждение города Москвы ""Школа с углубленным изучением английского языка № 1359 имени авиаконструктора М.Л. Миля""",http://sch1359uv.mskobr.ru,http://sch1359uv.mskobr.ru/files/attach_files/1359yuvao1359.pdf,2015,785,82,38,,,,,82,43,,,70,32,63,5,61,14,,,53,35,65,5,72,6,54,4,"109145, г. Москва, Пронская ул., д. 4, кор. 1",37.84534,55.701501
"Государственное бюджетное общеобразовательное учреждение города Москвы ""Лицей № 1571""",http://lyc1571sz.mskobr.ru,http://st.educom.ru//eduoffices/gateways/get_file.php?id={CC11EB0B-6EAF-4F65-94AE-E90106958938}&name=%D0%A1amoobsledovanie-%D0%93%D0%91%D0%9E%D0%A3-%D0%9Bicey-3-1571.pdf,2015,1739,71,,,,,,72,,53,,61,,65,,57,,62,,51,,65,,65,,59,,"125481, г. Москва, ул. Фомичевой, д. 1, корп. 1",37.446883,55.857457
"Государственное бюджетное общеобразовательное учреждение города Москвы ""Школа с углубленным изучением отдельных предметов № 1363""",http://sch1363uv.mskobr.ru,http://sch1363uv.mskobr.ru/files/documents/2015-2016/%D0%A1%D0%90%D0%9C%D0%9E%D0%9E%D0%91%D0%A1%D0%9B%D0%95%D0%94%D0%9E%D0%92%D0%90%D0%9D%D0%98%D0%95.pdf,2015,3491,,,,,,,74,,,,,,,,,,,,55,,,,,,,,"109542, г.Москва, Рязанский проспект, д. 82, корп. 4",37.823745,55.707588
"Государственное бюджетное общеобразовательное учреждение города Москвы ""Школа № 1357 ""Многопрофильный комплекс ""Братиславский""",http://sch1357uv.mskobr.ru,http://sch1357uv.mskobr.ru/files/%20%D0%94%D0%9E%D0%9A%D0%9B%D0%90%D0%94%20%D0%94%D0%98%D0%A0%D0%95%D0%9A%D0%A2%D0%9E%D0%A0%D0%90%20%D0%93%D0%91%D0%9E%D0%A3%20%D0%A1%D0%9E%D0%A8%20%E2%84%961357%281%29.docx,2015,1650,70,,,,,,77,,69,,58,,51,,,57,59,,54,,81,,71,,63,,"109451, г. Москва, Перервинский бульвар, дом 10, к. 2",37.763477,55.659805
Государственное бюджетное образовательное учреждение города Москвы лицей № 1547,http://licuv1547.mskobr.ru,http://licuv1547.mskobr.ru/files/files/public_2014.pdf,2014,936,62.8,31,,,,,74.1,106,44,1,63.4,36,51,2,59.9,7,64.4,17,63.6,106,59.4,7,67.2,5,57.8,61,"109469, г. Москва, ул. Белореченская, д. 47, корп. 1",37.777104,55.661928
"Государственное бюджетное общеобразовательное учреждение города Москвы ""Школа № 117""",couz117.mskobr.ru,http://sch117.mskobr.ru/files/UploadFiles/otchet_2013.pdf,2013,1080,x,,,,,,,,,,,,,,,,,,,,,,,,,,"117393, г. Москва, ул. Академика Пилюгина, дом 18, корпус 1",37.534101,55.669194
"Государственное бюджетное общеобразовательное учреждение города Москвы ""Школа № 2109""",http://sch2109.mskobr.ru,http://sch2109.mskobr.ru/files/docs/public_report_14-15.pdf,2015,5309,76.5,18,46,2,,,71,141,62,6,58,71,61,16,45,22,65,27,48,93,52,12,52,18,59.5,30,"117148 Москва, улица Маршала Савицкого д.6 к.4",37.578496,55.503058
"Государственное бюджетное общеобразовательное учреждение города Москвы ""Школа № 2097""",http://sch2097sz.mskobr.ru,http://st.educom.ru//eduoffices/gateways/get_file.php?id={8709E55F-4DDA-41B7-92CF-491F30B1B37E}&name=%D0%A1amoobsledovanie-%D0%93%D0%91%D0%9E%D0%A3-%D0%A8kola-%E2%84%96-2097.pdf,2014,3009,61,36,,,,,69,158,76,3,59,111,57,7,48,23,60,19,49,158,71,16,58,21,55,23,"125363 Москва, Аэродромная улица д.9",37.430139,55.84674
"Государственное бюджетное общеобразовательное учреждение города Москвы ""Государственная столичная гимназия""",http://gsg.mskobr.ru,http://gsg.mskobr.ru/files/Publ_doklad_2015%281%29.pdf,2015,4088,79,38,,,80,7,72,145,65,6,58,86,71,10,53,26,63,22,52.2,108,68,13,61,16,61,36,"127543 Москва, Белозерская улица д.12",37.616207,55.895615
"Государственное бюджетное общеобразовательное учреждение города Москвы ""Лицей № 1564 имени Героя Советского Союза А. П.Белобородова""",http://lyc1564.mskobr.ru,http://st.educom.ru//eduoffices/gateways/get_file.php?id={37FD920F-1627-4814-B580-32389D55F5F7}&name=2014-2015--samoobsledovanie.pdf,2015,1810,63.2,10,,,,,71.4,,49,1,58.9,20,37.3,3,60.8,8,46.8,5,44.35,,56,7,63,12,62.2,5,"125222, г. Москва, улица Рословка, дом 8",37.360564,55.830265
"Государственное бюджетное общеобразовательное учреждение города Москвы ""Школа № 237 имени В.Ф. Орлова""",http://csh237.mskobr.ru/,http://csh237.mskobr.ru/files/publichnyj_otchet_14-15.pdf,2015,2972,x,,,,,,,,,,,,,,,,,,,,,,,,,,"127521 Москва, Октябрьская улица д.81",37.611985,55.795939
"Государственное бюджетное общеобразовательное учреждение города Москвы ""Школа № 641 имени Сергея Есенина""",http://sch641uv.mskobr.ru,http://sch641uv.mskobr.ru/files/%20%282%29.pdf,2015,1490,x,,,,,,,,,,,,,,,,,,,,,,,,,,"109462, г. Москва, Волгоградский проспект, д.66, корпус 4",37.75691,55.704443
"Государственное бюджетное общеобразовательное учреждение города Москвы ""Школа № 1474""",http://sch1474s.mskobr.ru,http://sch1474s.mskobr.ru/files/%20%D0%BE%D1%82%D1%87%D0%B5%D1%82%202014-2015%20v.3.4.pdf,2015,1448,x,,,,,,,,,,,,,,,,,,,,,,,,,,"125475 г. Москва, ул. Клинская, д.22",37.49064,55.871334
"Государственное бюджетное общеобразовательное учреждение города Москвы ""Гимназия № 1538""",http://gym1538sz.mskobr.ru,http://gym1538sz.mskobr.ru/files/publichnyj_doklad_direktora_2015.pdf,2015,2610,65,46,,,,,76,168,69,6,62,103,70,10,59,11,61,18,55,119,65,24,71,30,59,26,"125464, г. Москва, здание 1:Новотушинский проезд, д. 8, корп. 2;",37.381342,55.839739
"Государственное бюджетное общеобразовательное учреждение города Москвы ""Школа № 2095 ""Покровский квартал""",http://sch2095c.mskobr.ru,http://st.educom.ru//eduoffices/gateways/get_file.php?id={ABFEC6C9-AE56-4D07-93A1-3DA21C97F478}&name=samoobledovanie_iiikvart_2015.pdf,2015,3261,x,,,,,,,,,,,,,,,,,,,,,,,,,,"105064 Москва, Большой Казённый переулок д.9",37.655634,55.760373
"Государственное бюджетное общеобразовательное учреждение города Москвы ""Школа с углубленным изучением отдельных предметов № 1234""",http://sch1234c.mskobr.ru,http://sch1234c.mskobr.ru/files/%20%D0%B4%D0%BE%D0%BA%D0%BB%D0%B0%D0%B4%20%D0%B4%D0%B8%D1%80%D0%B5%D0%BA%D1%82%D0%BE%D1%80%D0%B0%20%20%D0%93%D0%9E%D0%A3%20%D0%A1%D0%9E%D0%A8%201234%202014-2015%282%29.doc,2015,1250,x,,,,,,,,,,,,,,,,,,,,,,,,,,"121069 г.Москва, ул. Большая Молчановка, д.26-28",37.59012,55.753463
Государственное бюджетное образовательное учреждение города Москвы гимназия № 1562 имени Артема Боровика,http://gym1562uv.mskobr.ru,http://gym1562uv.mskobr.ru/files/publichnyj_doklad_gosudarstvennogo_byudzhetnogo_obrazovatel_nog_uchrezhdeniya_goroda_moskvy_gimnazii_1562_imeni_artema_borovika_za_2014-2015_uchebnyj_god.pdf,2015,2099,79,47,83,1,,,86,93,,,70,55,80,6,58,17,71,15,72,72,80,5,82,4,68,23,"109341, г.Москва, ул. Братиславская, дом 4",37.751314,55.665203
"Государственное бюджетное общеобразовательное учреждение города Москвы ""Гимназия № 1573""",http://gum1573.mskobr.ru,http://st.educom.ru//eduoffices/gateways/get_file.php?id={D3C7832C-F3AA-4829-BAA5-83DBF740891A}&name=%D0%A1amoanaliz-raboty-%D0%93%D0%91%D0%9E%D0%A3-gimnazii-%E2%84%961573--za-2013-2014-uchebnyy-god(1).pdf,2014,368,74.9,,,,,,69.6,,,,61.7,,49,,58.3,,67.1,,49,,63.4,,67.7,,52.6,,"127253, г. Москва, ул. Псковская, д.11",37.552975,55.906582
"Государственное бюджетное общеобразовательное учреждение города Москвы ""Гимназия № 1811 ""Восточное Измайлово""""",http://1811.mskobr.ru,http://1811.mskobr.ru/files/Doki/Publ.Otchet/%D0%9F%D1%83%D0%B1%D0%BB%D0%B8%D1%87%D0%BD%D1%8B%D0%B9%20%D0%BE%D1%82%D1%87%D0%B5%D1%82%201811%202014-15%20%D1%83.%D0%B3..pdf,2015,3336,73.7,34,29,58.9,,,74.1,165,,,61,91,57.4,17,55.2,29,64.8,11,50.8,128,59.9,31,60.5,35,64,1,"105203, г. Москва, Первомайская ул., 111.",37.814726,55.793905
"Государственное бюджетное общеобразовательное учреждение города Москвы ""Гимназия № 1565 ""Свиблово""",http://gym1565sv.mskobr.ru,http://gym1565sv.mskobr.ru/files/doklad_2015_n1.docx,2015,5409,75,,,,,,76,,72,,56,,58,,50,,58,,55,,74,,64,,54,,"129323, г. Москва, ул. Седова, д. 4, корп. 1",37.642186,55.852799
"Государственное бюджетное общеобразовательное учреждение города Москвы ""Школа № 853""",http://sch853zg.mskobr.ru,http://sch853zg.mskobr.ru/files/publdokl_2015_1.pdf,2015,1748,,,,,,,73,,,,,,,,,,,,65,,,,,,,,"124460, г. Москва, Зеленоград, корп. 913А",37.192202,55.984975
"Государственное бюджетное общеобразовательное учреждение города Москвы ""Гимназия № 45 имени Л.И. Мильграма""",http://sch45uz.mskobr.ru,http://st.educom.ru//eduoffices/gateways/get_file.php?id={6722ADB6-AC2D-44E8-9213-58DEDCDCF884}&name=samoobsledov_45.pdf,2013,788,86.67,42,80,2,57,1,80.97,,,,72.11,28,66.8,5,65.27,11,85.33,3,61.16,,81.88,8,84,8,59.57,7,"117036, г. Москва, ул. Гримау, д.8",37.579744,55.690654
"Государственное бюджетное общеобразовательное учреждение города Москвы ""Гимназия № 1290""",gymv1290.mskobr.ru,http://gym1290.mskobr.ru/files/pd_1415_1.pdf,2015,2090,x,,,,,,,,,,,,,,,,,,,,,,,,,,"105043, г. Москва, ул. Первомайская, д.59, строение 1",37.793462,55.794457
"Государственное бюджетное общеобразовательное учреждение города Москвы ""Гимназия № 1520 имени Капцовых""",http://gymc1520.mskobr.ru,http://st.educom.ru//eduoffices/gateways/get_file.php?id={1831164E-310E-44AA-8E68-9211CD855FFD}&name=samoobsledovanie_14-15.pdf,2015,844,83,48,97,2,61,1,78,82,89,1,71,29,63,10,60,15,70,1,54,47,68,15,72,14,61,11,"125009 г.Москва, Леонтьевский пер., д.19/2, стр.1",37.604906,55.760631
"Государственное бюджетное общеобразовательное учреждение города Москвы ""Школа № 1454 ""Центр образования Тимирязевский""",http://sch1454s.mskobr.ru,http://sch1454s.mskobr.ru/files/%20%D0%B4%D0%BE%D0%BA%D0%BB%D0%B0%D0%B4%20-%202014-2015.pdf,2015,1127,81,,,,,,73.62,,62,,60,,61,,63,,47,,45,,59,,57,,54,,"127422, г. Москва, улица Тимирязевская, дом 14 ""А""",37.568929,55.813334
"Государственное бюджетное общеобразовательное учреждение города Москвы ""Школа с углубленным изучением иностранных языков № 1288 имени Героя Советского Союза Н.В.Троян""",http://sch1288s.mskobr.ru,http://sch1288s.mskobr.ru/files/2015%20publdoklad%200630.pdf,2015,1063,86.6,,87,,,,77,,69,,61.5,,65.6,,55,,60,,47,,50,,53,,49,,"125007, г. Москва, Хорошевское шоссе, дом 3",37.542141,55.773727
"Государственное бюджетное общеобразовательное учреждение города Москвы ""Школа № 2054""",http://sch2054.mskobr.ru,http://sch2054.mskobr.ru/files/docs/%D0%BF%D1%83%D0%B1%D0%BB%D0%B8%D1%87%D0%BD%D1%8B%D0%B9%20%D0%B4%D0%BE%D0%BA%D0%BB%D0%B0%D0%B4%202014.docx,2015,980,67,95,,,50,1,72,298,65.4,5,54.5,143,55,115,45,35,50,8,48,298,60.4,7,59,10,54,28,"127051 г.Москва, Трубная ул., д.36",37.626106,55.772284
"Государственное бюджетное общеобразовательное учреждение города Москвы ""Школа с углубленным изучением английского языка № 1944""",http://schusz1944.mskobr.ru,http://schusz1944.mskobr.ru/files/publichnyj_doklad_rukovoditelya_gosudarstvennogo_byudzhtnogo_obweobrazovatel_nogo_uchrezhdeniya_goroda_moskvy.docx,2015,2280,84,,,,,,84.2,,77,,71.4,,74.5,,57.1,,58.1,,69.3,,78.9,,79.7,,63.4,,"125368, г. Москва, ул. Барышиха, д. 17, корп. 1",37.349722,55.842267
"Государственное бюджетное общеобразовательное учреждение города Москвы ""Школа № 814""",http://sch814z.mskobr.ru,http://sch814z.mskobr.ru/files/itogi12-13.pdf,2013,4902,90,,,,62,,78,,97,,69,,65,,64,,57,,61,,79,,72,,69,,"119501 г.Москва, ул. Веерная, д. 5, корпус 3",37.474731,55.706543
"Государственное бюджетное общеобразовательное учреждение города Москвы ""Гимназия №1506""",http://gym1506.mskobr.ru,http://gym1506.mskobr.ru/files/publ_doklad.pdf,2015,2032,76,,88,,,,78,,63,,64,,68,,58,,65,,58,,75,,75,,61,,"127282, г. Москва, ул. Широкая, д.1А",37.6509,55.88976
"Государственное бюджетное общеобразовательное учреждение города Москвы ""Школа № 2009""",http://sch2009uz.mskobr.ru,http://sch2009uz.mskobr.ru/files/model_samoanaliza.pdf,2014,3180,54,,,,,,59,,,,50,,51,,38,,45,,39,,61,,61,,46,,"117041, г.Москва, улица Адмирала Руднева, дом 16, корпус 1",37.519243,55.540501
Государственное бюджетное образовательное учреждение города Москвы гимназия № 1558 имени Росалии де Кастро,http://gym1558sv.mskobr.ru,http://gym1558sv.mskobr.ru/files/%20%D0%B4%D0%BE%D0%BA%D0%BB%D0%B0%D0%B4%202014-2015.pdf,2015,1812,80,,,,,,81,,,,68,,70,,61,,65,,62,,69,,75,,59,,"129327, Москва, Чукотский проезд, д. 6",37.654089,55.868162
"Государственное бюджетное общеобразовательное учреждение города Москвы ""Школа № 2104 на Таганке""",http://sch2104c.mskobr.ru,http://sch2104c.mskobr.ru/files/%20%D0%B4%D0%BE%D0%BA%D0%BB%D0%B0%D0%B4.pdf,2015,1212,69,,,,77,,79,,,,65,,66,,56,,61,,56,,63,,72,,58,,"109240 Москва, 1-й Котельнический переулок д.5",37.646345,55.743613
"Государственное бюджетное общеобразовательное учреждение города Москвы ""Лицей № 1575""",http://lyc1575.mskobr.ru,http://st.educom.ru//eduoffices/gateways/get_file.php?id={508EC2E4-72B8-4DF9-918D-B0FAB25C4FE9}&name=1575_otchet-samoobsledovanie-2014-2015-(3).pdf,2015,1023,74,,,,,,79,,81,,65,,61,,54,,67,,63,,67,,68,,60,,"125319 г. Москва, ул. Усиевича, д. 6",37.532035,55.804845
"Государственное бюджетное общеобразовательное учреждение города Москвы ""Школа с углубленным изучением английского языка № 1354""",http://sch1354uz.mskobr.ru,http://sch1354uz.mskobr.ru/files/2003/otchet_za_2013-2014_uch_god.pdf,2014,2218,,,,,,,73,30,,,52,13,60,3,54,3,56,4,42,30,74,8,74,12,51,4,"117624, г. Москва, улица Изюмская, дом 38, корпус 1",37.563844,55.548136
"Государственное бюджетное общеобразовательное учреждение города Москвы ""Школа № 2098 ""Многопрофильный образовательный центр"" имени Героя Советского Союза Л.М.Доватора""",http://sch2098s.mskobr.ru,http://sch2098s.mskobr.ru/files/%20%D0%BE%D1%82%D1%87%D0%B5%D1%82%202098%20-%202014-15%281%29.pdf,2015,1663,x,,,,,,,,,,,,,,,,,,,,,,,,,,"125635 Москва, Ангарская улица д.22а",37.519306,55.874339
"Государственное бюджетное общеобразовательное учреждение города Москвы ""Школа с углубленным изучением иностранного языка № 1231 имени В.Д. Поленова""",http://sch1231.mskobr.ru,http://sch1231.mskobr.ru/files/za_otchetnyj_period_2012-15.pdf,2014,3342,74.75,,81.6,,,,73.8,,,,,,73,,,,,,,,,,,,,,"119002 г.Москва, Спасопесковский пер., д.6, стр.7",37.589033,55.749653
"Государственное бюджетное общеобразовательное учреждение города Москвы ""Гимназия № 1569 ""Созвездие""",http://gym1569u.mskobr.ru,http://gym1569u.mskobr.ru/files/doklad.pdf,2015,2473,,,,,,,75.7,,,,,,,,,,,,51.95,,,,,,,,"115573 г. Москва, ул. Мусы Джалиля, д.36,к.2",37.738818,55.617154
Государственное бюджетное образовательное учреждение города Москвы лицей № 1158,http://sch1158.mskobr.ru,http://sch1158.mskobr.ru/files/PUB_doklad/Pub_doc_2014-2015.pdf,2015,1436,66.8,,,,,,69.1,,65,,60.3,,73.8,,64.2,,58,,47.2,6,76.1,,67.9,,50.8,,"117648 ,г. Москва,Северное Чертаново корп. 809",37.596273,55.634786
"Государственное бюджетное общеобразовательное учреждение города Москвы ""Школа № 1468""",sch1468.mskobr.ru,http://sch1468.mskobr.ru/files/2015-2016/%D0%9F%D1%83%D0%B1%D0%BB%D0%B8%D1%87%D0%BD%D1%8B%D0%B9%20%D0%B4%D0%BE%D0%BA%D0%BB%D0%B0%D0%B4.pdf,2015,2493,71.4,,,,,,78.1,,,,63.1,,67,,63.5,,51,,58.8,,,,63,,59,,"109544 г.Москва, Новорогожская ул., д.9.",37.680823,55.742559
"Государственное бюджетное общеобразовательное учреждение города Москвы ""Школа № 1223 ""Лингвистический центр""""",sch1223s.mskobr.ru,http://sch1223s.mskobr.ru/files/%20%D0%BE%D1%82%D1%87%D0%B5%D1%821223.pdf,2015,1240,,,,,,,79,79,,,70,45,66,7,,,,,54,,66,7,,,,,"125239 г. Москва, улица Михалковская, дом 13-а",37.527229,55.83846
"Государственное бюджетное общеобразовательное учреждение города Москвы ""Лицей № 1533 (информационных технологий)""",lyc1533.mskobr.ru,http://lyc1533.mskobr.ru/files/%D0%9F%D1%83%D0%B1%D0%BB%D0%B8%D1%87%D0%BD%D1%8B%D0%B9%20%D0%B4%D0%BE%D0%BA%D0%BB%D0%B0%D0%B4%202014%E2%80%932015.pdf,2015,861,81,,,,,,83,,,,64,,65,,55,,68,,75,,56,,72,,71,,"119296, г. Москва, Ломоносовский проспект, дом 16",37.543731,55.692338
"Государственное бюджетное общеобразовательное учреждение города Москвы ""Лицей № 429 ""Соколиная гора""",http://cog429.mskobr.ru,http://cog429.mskobr.ru/files/publichnyj_doklad_licej_429_2015_sajt.pdf,2015,3957,67.81,,,,,,71.01,,60.83,,54.8,,56.04,,48,,48.47,,50.45,,68.6,,58.94,,60.09,,"105118, Москва, пр-т Буденного, д.15-а",37.725047,55.77551
"Государственное бюджетное общеобразовательное учреждение города Москвы ""Школа № 2114""",http://sch2114uz.mskobr.ru,http://sch2114uz.mskobr.ru/files/%20%D0%94%D0%9E%D0%9A%D0%9B%D0%90%D0%94_N.pdf,2015,4611,69.6,,,,,,75.1,,,,61.8,,63.7,,47.9,,54.6,,58.3,,63.8,,70,,58.3,,"117628 Москва, бульвар Дмитрия Донского д.6 к.1",37.57254,55.569387
"Государственное бюджетное общеобразовательное учреждение города Москвы ""Гимназия № 1542""",http://gym1542.mskobr.ru,http://www.youblisher.com/p/1188329-Doklad1542/,2015,2774,65.3,45,,,,,74.14,128,,,62.14,85,68.41,5,50.13,20,66,15,52.1,99,66.8,15,64.6,15,58.43,20,"119620, г. Москва, ул. Авиаторов, дом 8, корпус 2",37.399964,55.646584
"Государственное бюджетное общеобразовательное учреждение города Москвы ""Школа № 199""",http://sch199uz.mskobr.ru,http://sch199uz.mskobr.ru/files/%20%E2%84%96%20199%202014-15%20%20(1).pdf,2015,2257,x,,,,,,,,,,,,,,,,,,,,,,,,,,"117036 г. Москва, ул. Дм. Ульянова, д. 15, корп.1",37.571579,55.69008
"Государственное бюджетное общеобразовательное учреждение города Москвы ""Гимназия № 1507""",http://gym1507uz.mskobr.ru,http://gym1507uz.mskobr.ru/files/publichnyj_otchet_gimnazii_1507_za_2014-2015.pdf,2015,1627,81,32,,,,,77,90,56,6,64,52,60,9,59,17,64,7,56,55,66,11,68,15,58,18,"117321, г. Москва, ул. Профсоюзная, дом 132, корп.9",37.507295,55.630868
Государственное бюджетное образовательное учреждение города Москвы средняя общеобразовательная школа с углубленным изучением английского и французского языков № 1358,http://gym1358sz.mskobr.ru,http://gym1358sz.mskobr.ru/files/%20%D0%B4%D0%BE%D0%BA%D0%BB%D0%B0%D0%B4%202014-2015.pdf,2015,2275,71,44,,,,,76,115,,,59,77,64,9,59,26,54,16,47,85,69,13,78,18,57,18,"125310, г. Москва, Пятницкое шоссе, д. 45, корп. 2",37.34682,55.856492
"Государственное бюджетное образовательное учреждение города Москвы средняя общеобразовательная школа с углубленным изучением математики, информатики, физики № 444",http://schv444.mskobr.ru,http://schv444.mskobr.ru/files/publichnyiy_doklad_2013.pdf,2013,x,x,,,,,,,,,,,,,,,,,,,,,,,,,,"105043, город Москва, Нижняя Первомайская улица, дом 14",37.796463,55.790671
"Государственное бюджетное общеобразовательное учреждение города Москвы ""Гимназия № 1583""",http://gym1583s-new.mskobr.ru,http://gym1583s-new.mskobr.ru/files/pub14.pdf,2014,653,68,,,,,,77,,,,66,,76,,72,,58,,58,,76,,76,,63,,"125493, г. Москва, улица Смольная, дом 25",37.494575,55.849782
Государственное бюджетное образовательное учреждение города Москвы лицей информационных технологий № 1537,http://lyc1537.mskobr.ru,http://lyc1537.mskobr.ru/files/licej1537_publichnyj_doklad_direktora.docx,2014,1261,75,27,,,,,76,105,,,61.3,53,62,9,62,14,69,26,63.3,104,71,2,52.4,8,58.2,48,"129347, г. Москва, ул. Проходчиков, д.9",37.719172,55.874258
"Государственное бюджетное общеобразовательное учреждение города Москвы ""Лицей № 1560""",http://lyc1560.mskobr.ru,http://st.educom.ru//eduoffices/gateways/get_file.php?id={92A9E8A1-FFC8-4DBC-BA6E-ACC79FF40EDB}&name=samoobsl_2013-2014.pdf,2014,1311,71,31,,,,,74,100,79,2,65,52,71,8,74,8,57,16,54,95,,,74,13,56,34,"123423, г. Москва, ул. Тухачевского, д. 17, корп. 3",37.48384,55.780502
"Федеральное государственное казенное общеобразовательное учреждение ""Московский кадетский корпус ""Пансион воспитанниц Министерства обороны Российской Федерации""",http://pansion-mil.ru,http://pansion-mil.ru/images/docs/PUBLI4NY_OT4ET.pdf,2015,721,83,23,,,,,83,83,72,3,73,47,75,7,64,22,69,13,66,55,75,14,79,11,68,9,"125284, г.Москва ул. Поликарпова, 21",37.546057,55.778674
"Государственное бюджетное общеобразовательное учреждение города Москвы ""Лицей № 1553 имени В.И. Вернадского""",http://lycu1553.mskobr.ru,http://lycu1553.mskobr.ru/report/,2015,393,76,47,,,,,79,85,76,4,66,25,70,25,58,30,60,8,61,71,75,11,81,16,74,14,"115114 г. Москва, ул. Дербеневская д.13",37.649103,55.720966
"Государственное бюджетное общеобразовательное учреждение города Москвы ""Школа № 17""",http://sch17uz.mskobr.ru,http://sch17uz.mskobr.ru/files/publichnyj_doklad_20141.docx,2014,518,76.8,,,,,,74.7,,67,,64.5,,72,,56.7,,50.2,,53,,59,,76,,54.5,,"117279, г. Москва, ул. Введенского, д.28",37.532331,55.636361
"Государственное бюджетное общеобразовательное учреждение города Москвы ""Гимназия № 1530 ""Школа Ломоносова""",http://gym1530.mskobr.ru,http://gym1530.mskobr.ru/files/%20%D0%B4%D0%BE%D0%BA%D0%BB%D0%B0%D0%B4%202015.pdf,2015,1600,74,,85,,,,76,,,,66,,60,,54,,48,,53,,72,,65,,61,,"107014, Москва, ул. Егерская, д. 4",37.684775,55.793141
"Государственное бюджетное общеобразовательное учреждение города Москвы ""Школа с углубленным изучением французского языка № 1251 имени генерала Шарля де Голля""",http://sch1251s.mskobr.ru,http://sch1251s.mskobr.ru/files/%D0%B4%D0%BE%D0%BA%D1%83%D0%BC%D0%B5%D0%BD%D1%82%D1%8B/%D0%9F%D0%A3%D0%91%D0%9B.%20%D0%94%D0%9E%D0%9A%D0%9B%D0%90%D0%94.2014-15%D0%92%D0%95%D0%A1%D0%AC.1..pdf,2015,969,77.7,,84.1,,,,75.9,,78.3,,58.27,,61,,67.6,,58.9,,54,,72.6,,47,,66.3,,"125252, г. Москва, ул. Сальвадора Альенде, дом 9",37.506783,55.794143
"Государственное бюджетное общеобразовательное учреждение города Москвы ""Школа № 1434 ""Раменки""",http://sch1434.mskobr.ru,https://yadi.sk/i/fh9aqK2TbuSMF,2014,806,75.5,13,,,,,79.8,51,,,62.7,25,72.5,2,48.5,4,81,6,57.6,51,76.9,11,77.1,17,71.6,11,"119607 г.Москва, ул Раменки д.15 к1",37.500405,55.690461
"Федеральное государственное бюджетное общеобразовательное учреждение ""Гимназия № 710 имени Народного учителя СССР В.К.Жудова""",http://gim710.ru,http://gim710.ru/uploaded/file/Report_14-15.pdf,2015,x,x,,,,,,,,,,,,,,,,,,,,,,,,,,"121165 Москва, ул. Студенческая, д.29",37.545186,55.740299
"Государственное бюджетное общеобразовательное учреждение города Москвы ""Лицей № 1561""",http://lyc1561uz.mskobr.ru,http://lyc1561uz.mskobr.ru/files/public-report-2014-2015.pdf,2015,,79.2,,,,,,80.5,,59,,64.7,,73,,65.9,,,,61.8,,66,,,,60.6,,,,
"Государственное бюджетное общеобразовательное учреждение города Москвы ""Школа № 1566 ""Марьинская гимназия с кадетскими классами памяти героев Сталинградской битвы""",http://sch1566.mskobr.ru,http://sch1566.mskobr.ru/files/%D0%9F%D1%83%D0%B1%D0%BB%D0%B8%D1%87%D0%BD%D1%8B%D0%B9%20%D0%B4%D0%BE%D0%BA%D0%BB%D0%B0%D0%B4%202014-2015.pdf,2015,2027,x,,,,,,,,,,,,,,,,,,,,,,,,,,,,
"Государственное бюджетное общеобразовательное учреждение города Москвы ""Школа с углубленным изучением иностранного языка № 1236""",http://sch1236sv.mskobr.ru,http://sch1236sv.mskobr.ru/report/,2015,,x,,,,,,,,,,,,,,,,,,,,,,,,,,,,
Государственное бюджетное образовательное учреждение города Москвы гимназия № 1563,http://gym1563v.mskobr.ru,http://gym1563v.mskobr.ru/files/%20%D0%B4%D0%BE%D0%BA%D0%BB%D0%B0%D0%B4%281%29.pdf,2015,1421,82,42,,,,,83,94,,,71,47,57,5,59,13,57,11,64,58,80,23,73,26,65,13,,,
Государственное бюджетное образовательное учреждение города Москвы средняя общеобразовательная школа № 2107,http://sch2107.mskobr.ru,x,,,,,,,,,,,,,,,,,,,,,,,,,,,,,,,
"Государственное бюджетное общеобразовательное учреждение города Москвы ""Гимназия № 1505 ""Московская городская педагогическая гимназия-лаборатория""",http://gym1505v.mskobr.ru,http://gym1505v.mskobr.ru/files/2015_public_repot_14-15.pdf,2015,2800,86.4,,,,,,86.7,,,,74,,70.8,,63,,73.4,,73.5,,70.7,,85.1,,72.4,,,,
"Государственное бюджетное общеобразовательное учреждение города Москвы ""Школа с углубленным изучением английского языка № 1411""",http://sch1411.mskobr.ru,http://sch1411.mskobr.ru/files/publichnyj_doklad_20152016.pdf,2015,,x,,,,,,,,,,,,,,,,,,,,,,,,,,,,
"Муниципальное автономное общеобразовательное учреждение ""Лицей города Троицка""",http://lyctroicka.mskobr.ru,http://lyctroicka.mskobr.ru/files/%20%D0%B4%D0%BE%D0%BA%D0%BB%D0%B0%D0%B4%2014-15%20%20%D0%9C%D0%90%D0%9E%D0%A3%20%D0%9B%D0%B8%D1%86%D0%B5%D0%B9%20%D0%B3%D0%BE%D1%80%D0%BE%D0%B4%D0%B0%20%D0%A2%D1%80%D0%BE%D0%B8%D1%86%D0%BA%D0%B0%20%282%29.pdf,2015,,79,17,,,,,76,89,91,2,57,34,67,8,49,8,63,26,78,61,78,11,65,14,70,29,,,
"Государственное бюджетное общеобразовательное учреждение города Москвы ""Гимназия № 1519""",http://gym1519.mskobr.ru,http://gym1519.mskobr.ru/files/%20%20%D0%94%D0%9E%D0%9A%D0%9B%D0%90%D0%94%20%20%D0%A0%D0%A3%D0%9A%D0%9E%D0%92%D0%9E%D0%94%D0%98%D0%A2%D0%95%D0%9B%D0%AF.docx,2015,,x,,,,,,,,,,,,,,,,,,,,,,,,,,,,
"Государственное бюджетное общеобразовательное учреждение города Москвы ""Школа с углубленным изучением французского языка № 1286""",http://sch1286sz.mskobr.ru,http://sch1286sz.mskobr.ru/files/publichyj_doklad_14-15.pdf,2015,,67,25,,,,,72,151,73,3,58,93,62,16,50,32,,,50,113,,9,54,20,53,19,,,
"Государственное бюджетное общеобразовательное учреждение города Москвы ""Школа № 1862""",http://sch1862u.mskobr.ru,http://schooltools.ru/files/7336.docx,2014,,70,,,,,,72,,,,60,,48,,58,,67,,51,,60,,69,,54,,,,
Государственное бюджетное образовательное учреждение города Москвы средняя общеобразовательная школа с углубленным изучением отдельных предметов № 1950,http://sch1950.mskobr.ru,x,,,,,,,,,,,,,,,,,,,,,,,,,,,,,,,
"Государственное бюджетное общеобразовательное учреждение города Москвы ""Гимназия № 1512""",http://sch1512.mskobr.ru,http://sch1512.mskobr.ru/files/publichnyj_doklad_2013-2014.pdf,2014,,89.7,,79,,,,80.7,,,,76.2,,77,,83.3,,60,,67.6,,77,,77.8,,67.4,,,,
"Государственное бюджетное общеобразовательное учреждение города Москвы ""Школа с углубленным изучением английского языка № 1208 имени Героя Советского Союза М.С.Шумилова""",http://sch1208uv.mskobr.ru,http://sch1208uv.mskobr.ru/files/publichnyj_otchet_2015-2016_s_pechat_yu.pdf,2015,,84.7,42,,,,,79,,,,71,40,72,4,64,16,70,5,55,57,71,9,66,8,56,18,,,
"Государственное бюджетное общеобразовательное учреждение города Москвы ""Гимназия № 1541""",http://gym1541.mskobr.ru,http://gym1541.mskobr.ru/files/1541_publichnyj_doklad_2014-20151.pdf,2015,,86,,91,,,,86,,,,73,,67,,62,,67,,64,,69,,77,,53,,,,
"Государственное бюджетное общеобразовательное учреждение города Москвы ""Школа с углубленным изучением английского языка № 1270""",http://sch1270c.mskobr.ru,http://sch1270c.mskobr.ru/files/publ_doklad_14-15.docx,2015,,80.3,,,,,,84.3,,,,70.7,,64,,63.1,,79,,57.7,,59,,75.5,,56,,,,
"Государственное бюджетное общеобразовательное учреждение города Москвы ""Школа № 2116 ""Зябликово""",http://sch2116.mskobr.ru,http://sch2116.mskobr.ru/files/publichnyj_doklad.pdf,2015,,69.2,,,,,,72.6,,67,,56.8,,57.3,,,,63.9,,62.6,,76,,62.7,,57.3,,,,
"Государственное бюджетное общеобразовательное учреждение города Москвы ""Школа с углубленным изучением французского языка № 1095""",http://sch1095sv.mskobr.ru,http://sch1095sv.mskobr.ru/files/%282%29.pdf,2015,,x,,,,,,,,,,,,,,,,,,,,,,,,,,,,
Государственное бюджетное образовательное учреждение города Москвы средняя общеобразовательная школа № 354 имени Д.М. Карбышева,http://sch354c.mskobr.ru,http://sch354c.mskobr.ru/files/1%286%29.pdf,2014,,70,,,,,,75,,60,,64,,61,,56,,75,,60,,71,,66,,68,,,,
"Государственное бюджетное общеобразовательное учреждение города Москвы ""Школа № 1492""",http://sch1492uz.mskobr.ru,http://sch1492uz.mskobr.ru/files/Publichniy_doklad/Publichniy_doklad_2015_.pdf,2015,,62.8,,,,,,74.8,,,,63.7,,70.6,,52.2,,55.8,,60.2,,58.2,,65.1,,59,,,,
"Государственное бюджетное общеобразовательное учреждение города Москвы ""Школа № 1212""",http://sch1212.mskobr.ru,http://sch1212.mskobr.ru/files/rezul_taty_uchebnoj_raboty_v_2014-2015_uchebnom_godu.pdf,2015,,,,,,,,46,,46,,57,,63,,59,,49,,47,,74,,68,,51,,,,
"Государственное бюджетное общеобразовательное учреждение города Москвы ""Школа с углубленным изучением английского языка № 1273""",http://sch1273uz.mskobr.ru,http://sch1273uz.mskobr.ru/files/publichnyj_doklad_2014-2015.pdf,2015,,73,,,,,,74,,58,,62,,62,,74,,59,,48,,55,,60,,54,,,,
"Государственное бюджетное общеобразовательное учреждение города Москвы ""Образовательный центр на проспекте Вернадского""",http://sch1485.mskobr.ru,https://yadi.sk/i/o7hkoswmhY76y,2015,,x,,,,,,,,,,,,,,,,,,,,,,,,,,,,
Государственное бюджетное образовательное учреждение города Москвы лингвистический лицей № 1555,http://lycc1555.mskobr.ru,http://lycc1555.mskobr.ru/files/%20%D0%B4%D0%BE%D0%BA%D0%BB%D0%B0%D0%B4%20%D1%80%D1%83%D0%BA%D0%BE%D0%B2%D0%BE%D0%B4%D0%B8%D1%82%D0%B5%D0%BB%D1%8F%20%D0%B7%D0%B0%202013-14.pdf,2014,,82,51,92,9,77,8,82,65,,,70,41,68,10,67,33,,,46,65,,,,,,,,,
"Государственное бюджетное общеобразовательное учреждение города Москвы ""Гимназия № 1532""",http://gym1532uz.mskobr.ru,http://gym1532uz.mskobr.ru/files/attach_files/%D0%9F%D1%83%D0%B1%D0%BB%D0%B8%D1%87%D0%BD%D1%8B%D0%B9%20%D0%BE%D1%82%D1%87%D0%B5%D1%82.%20%20%D0%94%D0%BE%D1%88%D0%BA%D0%BE%D0%BB%D1%8C%D0%BD%D0%BE%D0%B5%20%D0%BE%D1%82%D0%B4%D0%B5%D0%BB%D0%B5%D0%BD%D0%B8%D0%B5%202014-2015.pdf,2015,,x,,,,,,,,,,,,,,,,,,,,,,,,,,,,
"Государственное бюджетное общеобразовательное учреждение города Москвы ""Школа с углубленным изучением иностранного (английского) языка № 1245""",http://sch1245u.mskobr.ru,http://sch1245u.mskobr.ru/files/2014_%D0%9F%D1%83%D0%B1%D0%BB%D0%B8%D1%87%D0%BD%D1%8B%D0%B9%20%D0%B4%D0%BE%D0%BA%D0%BB%D0%B0%D0%B4.pdf,2014,,65,31,,,,,68,72,71,3,59,48,68,5,61,11,,,41,72,65,4,,,47,9,,,
Государственное бюджетное образовательное учреждение города Москвы лицей № 1581,http://lycc1581.mskobr.ru,http://lycc1581.mskobr.ru/images/cms/data/publichnyj_doklad_2013-2014_tverskoj.pdf,2015,,67.5,,,,,,73,,,,60.5,,,,,,73.4,,74,,,,,,67.5,,,,
"Государственное бюджетное общеобразовательное учреждение города Москвы ""Школа № 1883 ""Бутово""",http://sch1883uz.mskobr.ru,http://sch1883uz.mskobr.ru/files/Pub_otshet_1.pdf,2015,,x,,,,,,,,,,,,,,,,,,,,,,,,,,,,
"Государственное бюджетное общеобразовательное учреждение города Москвы ""Пушкинский лицей № 1500""",http://lycc1500.mskobr.ru,http://lycc1500.mskobr.ru/files/-%D0%9A%D0%9E%D0%9C%D0%9F%D0%9B%D0%95%D0%9A%D0%A1%202015%20%D0%B3%D0%BE%D0%B4%281%29.pdf,2015,,72,,,,,,73,,69,,63,,60,,55,,63,,50,,57,,53,,57,,,,
"Государственное бюджетное общеобразовательное учреждение города Москвы ""Школа № 1420""",http://sch1420uv.mskobr.ru,http://sch1420uv.mskobr.ru/files/ObshieSvedeniy/%D0%9F%D0%A3%D0%91%D0%9B%D0%98%D0%A7%D0%9D%D0%AB%D0%99%20%D0%94%D0%9E%D0%9A%D0%9B%D0%90%D0%94%202015%20%D0%93%D0%91%D0%9E%D0%A3%20%20%D0%A8%D0%9A%D0%9E%D0%9B%D0%90%201420.pdf,2015,,70.84,38,,,,,72.89,136,74.33,3,58.58,77,56.71,7,49.4,20,54,12,47.39,136,72.77,22,67,30,51.8,15,,,
"Государственное бюджетное общеобразовательное учреждение города Москвы ""Школа № 1194""",http://sch1194zg.mskobr.ru,http://sch1194zg.mskobr.ru/files/main/Doklad/pub-doc-2015.pdf,2015,,64,19,,,,,72,134,97,1,59,57,54,16,53,13,47,14,50,94,67,20,61,32,58,36,,,
Государственное бюджетное образовательное учреждение города Москвы лицей № 1524,http://lyc1524uv.mskobr.ru,http://lyc1524uv.mskobr.ru/users_files/lyc1524uv/%D0%9F%D1%83%D0%B1%D0%BB%D0%B8%D1%87%D0%BD%D1%8B%D0%B9%20%D0%B4%D0%BE%D0%BA%D0%BB%D0%B0%D0%B4%202014-2015.pdf,2015,,70.6,,,,,,75.4,,64,,65.5,,63.2,,56.1,,66.3,,59.9,,67,,51.7,,60.9,,,,
"Государственное бюджетное общеобразовательное учреждение города Москвы ""Школа № 2123 имени Мигеля Эрнандеса""",http://2123.mskobr.ru,http://2123.mskobr.ru/report/,2014,,x,,,,,,,,,,,,,,,,,,,,,,,,,,,,
"Государственное бюджетное общеобразовательное учреждение города Москвы ""Гимназия № 1504""",http://gym1504.mskobr.ru,http://gym1504.mskobr.ru/files/publichnyj_doklad_gbou_gimnaziya_1504_za_2014-2015_uchebnyj_god.docx,2015,,x,,,,,,,,,,,,,,,,,,,,,,,,,,,,
"Государственное бюджетное общеобразовательное учреждение города Москвы ""Школа № 1980""",http://sch1980uz.mskobr.ru,http://sch1980uz.mskobr.ru/files/%20%D0%B4%D0%BE%D0%BA%D0%BB%D0%B0%D0%B4.pdf,2015,,72,,,,,,71,,,,61,,56,,54,,48,,49.56,,71,,59,,58,,,,
"Государственное бюджетное общеобразовательное учреждение города Москвы ""Школа № 2036""",http://sch2036v.mskobr.ru,http://sch2036v.mskobr.ru/files/publichnyj_doklad_2014-2015_na_sajt.pdf,2015,,74,,,,82,,78,,,,62,,66,,53,,65,,52,,58,,62,,62,,,,
"Государственное бюджетное общеобразовательное учреждение города Москвы ""Гимназия № 1048 ""Новокосино""",http://gym1048v.mskobr.ru,http://gym1048v.mskobr.ru/files/%20%D0%BE%D1%82%D1%87%D0%B5%D1%82%202014-2015%281%29.pdf,2015,,x,,,,,,,,,,,,,,,,,,,,,,,,,,,,
"Государственное бюджетное общеобразовательное учреждение города Москвы ""Школа № 763""",http://sch763sv-new.mskobr.ru,http://sch763sv-new.mskobr.ru/report/,2015,,x,,,,,,,,,,,,,,,,,,,,,,,,,,,,
"Государственное бюджетное общеобразовательное учреждение города Москвы ""Гимназия № 1748 ""Вертикаль""",http://gym1748v.mskobr.ru,http://gym1748v.mskobr.ru/files/publichnyj_doklad_rukovoditelya.pdf,2015,,76.3,19,,,,,71.2,102,60.5,2,59.6,63,63.9,8,56.6,16,55.1,7,50.9,69,53.6,7,54.6,10,59,21,,,
"Государственное бюджетное общеобразовательное учреждение города Москвы ""Школа № 498""",http://sch498.mskobr.ru,http://sch498.mskobr.ru/report/,2014,,68,,,,,,70,,,,57,,65,,52,,56,,50,,54,,62,,54,,,,
"Государственное бюджетное общеобразовательное учреждение города Москвы ""Школа № 315""",http://schc315.mskobr.ru/,http://schc315.mskobr.ru/files/%20%D0%BE%D1%82%D1%87%D1%91%D1%82%202015.pdf,2015,,82,,,,,,84,,57,,,,65,,56,,75,,75,,74,,73,,77,,,,
"Государственное бюджетное общеобразовательное учреждение города Москвы ""Гимназия № 1584""",http://sch1584.mskobr.ru/,http://sch1584.mskobr.ru/files/documenty/19%D0%BF%D1%83%D0%B1%D0%BB%D0%B8%D1%87%D0%BD%D1%8B%D0%B9%20%D0%B4%D0%BE%D0%BA%D0%BB%D0%B0%D0%B4%20%D1%81%D0%B0%D0%B9%D1%82%20%D0%BA%D0%BE%D0%BD%D0%BE%D0%B2%D0%B0%D0%BB%D0%BE%D0%B2%D0%B019.pdf,2015,,78,,,,,,,,,,66,,,,,,59,,58,,62,,72,,61,,,,
Государственное бюджетное образовательное учреждение города Москвы гимназия № 1409,http://gym1409s-new.mskobr.ru,http://gym1409s-new.mskobr.ru/files/%20%D0%BE%D1%82%D1%87%D0%B5%D1%82%202014-2015%20%D1%83%D1%87%D0%B5%D0%B1%D0%BD%D1%8B%D0%B9%20%D0%B3%D0%BE%D0%B4%20%28%D0%B8%D1%82%D0%BE%D0%B3%29%202.pdf,2015,,,,,,,,74,,73,,68.4,,63,,63.4,,52,,53,,60.5,,67.7,,63.4,,,,
"Государственное бюджетное общеобразовательное учреждение города Москвы ""Школа с углублённым изучением английского языка № 1285""",http://sch1285sz.mskobr.ru,http://sch1285sz.mskobr.ru/files/%20%D0%B4%D0%BE%D0%BA%D0%BB%D0%B0%D0%B4%20%D0%B4%D0%B8%D1%80%D0%B5%D0%BA%D1%82%D0%BE%D1%80%D0%B0%20%D0%B7%D0%B0%202014-2015%20%D1%83%D1%87%D0%B5%D0%B1%D0%BD%D1%8B%D0%B9%20%D0%B3%D0%BE%D0%B4(1).pdf,2015,,78,,,,,,84,,66,,64,,60,,57,,,,53,,68,,74,,59,,,,
"Государственное бюджетное общеобразовательное учреждение города Москвы ""Школа с углублённым изучением иностранных языков № 1900""",http://sch1900sz.mskobr.ru,http://sch1900sz.mskobr.ru/files/%20%D1%80%D1%83%D0%BA%D0%BE%D0%B2%D0%BE%D0%B4%D0%B8%D1%82%D0%B5%D0%BB%D1%8F___2014-2015.pdf,2015,,83,,,,,,79,,,,67,,62,,58,,69,,60,,79,,74,,66,,,,
"Государственное бюджетное общеобразовательное учреждение города Москвы ""Школа с углубленным изучением английского языка № 1352""",http://sch1352v.mskobr.ru/,http://sch1352v.mskobr.ru/files/%20%D0%BE%D1%82%D1%87%D0%B5%D1%82%202015.doc,2015,,71.4,,,,,,78.1,,71,,63.1,,67,,63.5,,51,,58.8,,65,,63,,59,,,,
Государственное бюджетное образовательное учреждение города Москвы средняя общеобразовательная школа № 2105,http://sch2105c.mskobr.ru,http://sch2105c.mskobr.ru/report/,2014,,x,,,,,,,,,,,,,,,,,,,,,,,,,,,,
"Государственное бюджетное общеобразовательное учреждение города Москвы ""Школа № 152""",http://sch152s-new.mskobr.ru,http://sch152s-new.mskobr.ru/files/_2015.pdf,2015,,64,,,,,,71,,55,,59,,56,,53,,66,,60.5,,69,,57,,64,,,,
"Государственное бюджетное общеобразовательное учреждение города Москвы ""Школа № 283""",http://sch283sv-new.mskobr.ru,http://sch283sv-new.mskobr.ru/files/publichnyj_otchyot_2014-1015.pdf,2015,,,,,,,,71.9,,61.4,,59.6,,61.5,,49.9,,62.7,,57.2,,62,,49.4,,58.5,,,,
"Государственное бюджетное общеобразовательное учреждения города Москвы ""Лицей № 1598""",http://lyc1598v.mskobr.ru,http://lyc1598v.mskobr.ru/report/,2015,,x,,,,,,,,,,,,,,,,,,,,,,,,,,,,
"Государственное бюджетное общеобразовательное учреждение города Москвы ""Гимназия № 1527""",http://gym1527u.mskobr.ru,https://drive.google.com/file/d/0BzwKAhspDhyYMWFaNUk4OTNFVTQ/view,2015,,75,,,,,,81,,,,63,,64,,32,,66,,48,,68,,73,,66,,,,
Государственное бюджетное образовательное учреждение города Москвы средняя общеобразовательная школа с углубленным изучением иностранных языков № 1259,http://sch1259.mskobr.ru,http://sch1259.mskobr.ru/files/public.pdf,2015,,x,,,,,,,,,,,,,,,,,,,,,,,,,,,,
"Государственное бюджетное общеобразовательное учреждение города Москвы ""Школа с углубленным изучением английского языка № 1279""",http://sch1279.mskobr.ru,http://sch1279.mskobr.ru/files/%D0%BF%D1%83%D0%B1%D0%BB%D0%B8%D1%87%D0%BD%D1%8B%D0%B9%20%D0%BE%D1%82%D1%87%D0%B5%D1%82_2015.pdf,2015,,53,,,,,,73,,61,,58,,58,,53,,47,,51,,64,,53,,56,,,,
"Государственное бюджетное общеобразовательное учреждение города Москвы ""Школа № 2070""",http://sch2070.mskobr.ru,http://sch2070.mskobr.ru/files/documents/pub_otchet2013.pdf,2014,,68.88,,,,,,64.02,,53,,52.6,,56.5,,31.7,,51.5,,43.51,,74,,51.6,,45.83,,,,
"Государственное бюджетное общеобразовательное учреждение города Москвы ""Измайловская гимназия № 1508""",http://gym1508.mskobr.ru,http://gym1508.mskobr.ru/files/publichnyj_otchet_1508_24_08_15.pdf,2015,,x,,,,,,,,,,,,,,,,,,,,,,,,,,,,
"Государственное бюджетное общеобразовательное учреждение города Москвы ""Школа № 293 имени А.Т. Твардовского""",http://sch293.mskobr.ru,http://sch293.mskobr.ru/files/%20%D0%B4%D0%BE%D0%BA%D0%BB%D0%B0%D0%B4.doc,2014,,77,,,,,,73,,,,65,,60,,67,,62,,47,,81,,70,,40,,,,
"Государственное бюджетное общеобразовательное учреждение города Москвы ""Школа № 902 ""Диалог""",http://sch902.mskobr.ru,http://sch902.mskobr.ru/report/,2015,,x,,,,,,,,,,,,,,,,,,,,,,,,,,,,
"Государственное бюджетное общеобразовательное учреждение города Москвы ""Школа с углубленным изучением иностранного языка № 1293""",http://sch1293.mskobr.ru,http://sch1293.mskobr.ru/files/publichnyj_otchet_2014-2015.docx,2015,,x,,,,,,,,,,,,,,,,,,,,,,,,,,,,
Государственное бюджетное образовательное учреждение города Москвы средняя общеобразовательная школа с углубленным изучением математики и информатики № 7,http://sch7uz.mskobr.ru,http://sch7uz.mskobr.ru/files/publichnyj_doklad_obrazovatel_nogo_uchrezhdeniya_27.pdf,2015,,70,,,,,,77.1,,59.5,,61.1,,57.7,,56.2,,55,,62.8,,59.6,,64.8,,63.3,,,,
"Государственное бюджетное общеобразовательное учреждение города Москвы ""Гимназия № 1551""",http://gym1551sz.mskobr.ru,http://gym1551sz.mskobr.ru/files/itogi_uchebnoo_2013-2014_uch_goda.pdf,2014,,60,,,,,,68,,,,62,,56,,81,,67,,49,,60,,62,,61,,,,
"Государственное бюджетное общеобразовательное учреждение города Москвы ""Школа № 2065""",http://sch2065tn.mskobr.ru,http://sch2065tn.mskobr.ru/files/otchet_o_rezul_tatah_samoobsledovaniya.pdf,2015,,x,,,,,,,,,,,,,,,,,,,,,,,,,,,,
"Государственное бюджетное образовательное учреждение города Москвы лицей № 1525 ""Воробьевы горы""",http://lycg1525.mskobr.ru,http://lycg1525.mskobr.ru/files/public_report_2014-20151.pdf,2015,,82,,,,,,81,,59,,66,,63,,58,,59,,63,,74,,64,,48,,,,
Государственное бюджетное образовательное учреждение города Москвы гимназия № 1515,http://gym1515sz.mskobr.ru,http://gym1515sz.mskobr.ru/files/%20%D0%B4%D0%BE%D0%BA%D0%BB%D0%B0%D0%B4%202014-2015.docx.pdf,2015,,x,,,,,,,,,,,,,,,,,,,,,,,,,,,,
"Государственное бюджетное общеобразовательное учреждение города Москвы ""Московская международная гимназия""",http://gymmg.mskobr.ru,http://gymmg.mskobr.ru/files/publichnyj_doklad_2014-2015.pdf,2015,,88,,,,,,86,,,,70,,72,,64,,40,,62,,79,,80,,59,,,,
"Государственное бюджетное общеобразовательное учреждение города Москвы ""Школа № 1494""",http://sch1494sv.mskobr.ru,x,,,,,,,,,,,,,,,,,,,,,,,,,,,,,,,
"Государственное бюджетное общеобразовательное учреждение города Москвы ""Школа с углубленным изучением английского языка № 1413""",http://sch1413sv.mskobr.ru,http://sch1413sv.mskobr.ru/files/Publ_doc_2014-2015.pdf,2015,,72,,,,,,70,,53,,56,,58,,49,,50,,46,,58,,49,,64,,,,
"Государственное бюджетное общеобразовательное учреждение города Москвы ""Школа № 49""",http://sch49uz.mskobr.ru,http://sch49uz.mskobr.ru/files/%20%D0%B4%D0%BE%D0%BA%D0%BB%D0%B0%D0%B4%202014-15_.pdf,2015,,,,,,,,68,,47,,51,,56,,,,,,45,,58,,,,52,,,,
"Государственное бюджетное общеобразовательное учреждение города Москвы ""Школа № 2089""",sch2089uv.mskobr.ru,http://sch2089uv.mskobr.ru/files/%20%D0%BE%D1%82%D1%87%D0%B5%D1%82%202014-2015.pdf,2015,,66,,,,,,71,,62,,61,,62,,64,,57,,57,,60,,55,,59,,,,
"Государственное бюджетное общеобразовательное учреждение города Москвы ""Школа № 2006""",http://sch2006uz.mskobr.ru,http://sch2006uz.mskobr.ru/files/%20%D0%BE%D1%82%D1%87%D0%B5%D1%82%20%D1%81%20%D1%81%D0%BE%D0%B4.pdf,2015,,73,,,,,,77,,,,67,,54,,58,,50,,55,,72,,83,,63,,,,
Государственное бюджетное образовательное учреждение города Москвы средняя общеобразовательная школа с углубленным изучением английского языка № 1370,http://sch1370sv.mskobr.ru,x,,,,,,,,,,,,,,,,,,,,,,,,,,,,,,,
"Государственное бюджетное общеобразовательное учреждение города Москвы ""Гимназия № 1636 ""Ника""",http://gym1636u.mskobr.ru,http://gym1636u.mskobr.ru/files/%20%D0%B4%D0%BE%D0%BA%D0%BB%D0%B0%D0%B4%20%D0%94%D0%B8%D1%80%D0%B5%D0%BA%D1%82%D0%BE%D1%80%D0%B0%202013-2014%281%29.pdf,2014,,61.75,,,,28,,72.74,,,,63.27,,61.2,,55.88,,79.5,,51.33,,70,,86,,63,,,,
"Государственное бюджетное общеобразовательное учреждение города Москвы ""Гимназия №1516""",http://gym1516.mskobr.ru,http://www.gogi1516.ru/Norm_doc/Publ_doclad2015.pdf,2015,,77,,,,,,79,,89,,75,,68,,57,,72,,64,,67,,74,,62,,,,
"Государственное бюджетное общеобразовательное учреждение города Москвы ""Школа № 1034""",http://sch1034.mskobr.ru,http://sch1034.mskobr.ru/files/%20%D0%B4%D0%BE%D0%BA%D0%BB%D0%B0%D0%B4%20%D0%93%D0%91%D0%9E%D0%A3%20%D0%A8%D0%BA%D0%BE%D0%BB%D0%B0%201034%20%282014-2015%29.pdf,2015,,74,,,,,,77,,63,,65,,68,,60,,62,,54,,69,,64,,56,,,,
"Государственное бюджетное профессиональное образовательное учреждение города Москвы ""Воробьевы горы""",vg.mskobr.ru,x,,,,,,,,,,,,,,,,,,,,,,,,,,,,,,,
"Государственное бюджетное общеобразовательное учреждение города Москвы ""Лицей № 1367""",lyc1367uv.mskobr.ru,http://lyc1367uv.mskobr.ru/files/publichnyj_doklad_po_itogam_2014-2015_uchebnogo_goda.pdf,2015,,x,,,,,,,,,,,,,,,,,,,,,,,,,,,,
Государственное бюджетное образовательное учреждение города Москвы гимназия № 1522,http://gym1522.mskobr.ru,http://gym1522.mskobr.ru/files/publichnyj_doklad_2014-20151.pdf,2015,,75.91,,,,,,81,,93,,73,,80,,67,,68,,63,,74,,70,,70,,,,
Государственное бюджетное образовательное учреждение средняя общеобразовательная школа № 1874,http://sch1874sz.mskobr.ru,http://sch1874sz.mskobr.ru/files/novyj_publichnyj_doklad_14-15.pdf,2015,,71.5,,,,,,77.3,,67,,61.9,,69.9,,52.3,,59.8,,59.9,,74,,63.2,,66.3,,,,
"Государственное бюджетное общеобразовательное учреждение города Москвы ""Школа № 2031""",http://sch2031.mskobr.ru/,http://sch2031.mskobr.ru/files/%20%D0%BE%D1%82%D1%87%D0%B5%D1%82%202013-2014_%D0%B3%D0%BE%D1%82%D0%BE%D0%B2%D1%8B%D0%B9.pptx,2014,,x,,,,,,,,,,,,,,,,,,,,,,,,,,,,
"Государственное бюджетное общеобразовательное учреждение города Москвы ""Школа с углубленным изучением иностранных языков № 1205""",http://sch1205uz.mskobr.ru,http://sch1205uz.mskobr.ru/files/%20%D0%BE%D1%82%D1%87%D0%B5%D1%82%202014-2015%20%D1%83%D1%87%D0%B5%D0%B1%D0%BD%D1%8B%D0%B9%20%D0%B3%D0%BE%D0%B4%20%D0%B2%D0%B0%D1%80%D0%B8%D0%B0%D0%BD%D1%82%203.pdf,2015,,65,,,,,,72,,55,,59,,53,,54,,44,,52,,65,,56,,57,,,,
"Государственное бюджетное общеобразовательное учреждение города Москвы ""Школа с углубленным изучением английского языка № 1324""",http://sch1324.mskobr.ru,http://sch1324.mskobr.ru/files/%D0%9F%D1%83%D0%B1%D0%BB%D0%B8%D1%87%D0%BD%D1%8B%D0%B9%20%D0%B4%D0%BE%D0%BA%D0%BB%D0%B0%D0%B4%20%D0%B4%D0%B8%D1%80%D0%B5%D0%BA%D1%82%D0%BE%D1%80%D0%B0%20%D0%BE%D0%BA%D0%BE%D0%BD%D1%87..docx,2015,,66,,,,,,72,,,,57,,68,,51,,52,,52,,54,,52,,57,,,,
"Государственное бюджетное образовательное учреждение города Москвы гимназия № 491 ""Марьино""",http://gym491uv.mskobr.ru,http://gym491uv.mskobr.ru/files/attach_files/publ.pdf,2015,,65,,,,,,74,,93,,58,,69,,55,,70,,43,,65,,58,,50,,,,
Государственное бюджетное образовательное учреждение средняя общеобразовательная школа № 2005,http://sch2005sz.mskobr.ru,http://sch2005sz.mskobr.ru/files/Documents/pubdoc2015.pdf,2015,,76,,,,,,72,,64,,63,,58,,67,,56,,52,,64,,62,,55,,,,
"Государственное бюджетное общеобразовательное учреждение города Москвы ""Школа № 709""",http://sch709sv.mskobr.ru,http://sch709sv.mskobr.ru/files/publichnyj_doklad_2014_2015_god_709.docx,2015,,76,,,,,,71,,,,58,,66,,51,,61,,50,,45.5,,44,,58,,,,
"Государственное бюджетное общеобразовательное учреждение города Москвы ""Школа № 2030""",http://coc2030.mskobr.ru,http://coc2030.mskobr.ru/files/publichnyi_doklad_po_itogam_20142015.pdf,2015,,81.2,,,,,,79,,66,,69.5,,73.8,,71.7,,68,,63.2,,68.9,,73.2,,72.8,,,,
"Государственное бюджетное общеобразовательное учреждение города Москвы ""Лицей № 507""",http://lyc507u.mskobr.ru,http://lyc507u.mskobr.ru/files/publ_doklad.pdf,2014,,77.8,,,,,,60.7,,84,,74.5,,78.1,,63.2,,69.7,,47,,61.9,,53.8,,66.5,,,,
"Государственное бюджетное общеобразовательное учреждение города Москвы ""Гимназия № 1539""",http://gym1539sv.mskobr.ru,http://gym1539sv.mskobr.ru/files/.%20%D0%B4%D0%BE%D0%BA%D0%BB%D0%B0%D0%B4%20%202014-2015%2B.docx,2015,,75,,,,,,74,,65,,61,,59,,56,,66,,51,,69,,72,,52,,,,
Государственное бюджетное образовательное учреждение города Москвы средняя общеобразовательная школа № 1449,http://sch1449sv.mskobr.ru,http://sch1449sv.mskobr.ru/files/%20%D0%B4%D0%BE%D0%BA%D0%BB%D0%B0%D0%B4%202015.pdf,2015,,69,,,,,,73,,,,66,,63,,57,,69,,56,,54,,54,,57,,,,
"Государственное бюджетное общеобразовательное учреждение города Москвы ""Гимназия № 1531 ""Лингвистическая"" имени С.К. Годовикова""",http://gym1531sv.mskobr.ru/,x,,,,,,,,,,,,,,,,,,,,,,,,,,,,,,,
"Государственное бюджетное общеобразовательное учреждение города Москвы ""Школа с углублённым изучением английского языка №1228""",http://sch1228.mskobr.ru,http://sch1228.mskobr.ru/files/%20%D0%BE%20%D1%81%D0%B0%D0%BC%D0%BE%D0%BE%D0%B1%D1%81%D0%BB%D0%B5%D0%B4%D0%BE%D0%B2%D0%B0%D0%BD%D0%B8%D0%B8%20%D0%93%D0%91%D0%9E%D0%A3%20%D0%A8%D0%BA%D0%BE%D0%BB%D1%8B%20%E2%84%961228%2008.2015%20%D0%B8%D1%82%D0%BE%D0%B3.pdf,2015,,x,,,,,,,,,,,,,,,,,,,,,,,,,,,,
"Государственное бюджетное общеобразовательное учреждение города Москвы ""Гимназия № 1797 ""Богородская""",http://gym1797.mskobr.ru,http://gym1797.mskobr.ru/files/doc_1/publichnyj_doklad_2015_d.pdf,2015,,x,,,,,,,,,,,,,,,,,,,,,,,,,,,,
Государственное бюджетное общеобразовательное учреждение города Москвы «Школа № 15»,http://sch15uz.mskobr.ru,http://sch15uz.mskobr.ru/files/publichnyj_otchet_2015.pdf,2015,,62.1,,,,,,74,,77,,55.9,,51.2,,49.1,,57.1,,48,,,,62.1,,57.7,,,,
"Государственное бюджетное общеобразовательное учреждение города Москвы ""Школа № 285 имени В.А. Молодцова""",http://schsv285.mskobr.ru,x,,,,,,,,,,,,,,,,,,,,,,,,,,,,,,,
"Государственное бюджетное общеобразовательное учреждение города Москвы ""Школа № 2026""",http://sch2026v.mskobr.ru,http://sch2026v.mskobr.ru/files/%D0%BF%D1%83%D0%B1%D0%BB%D0%B8%D1%87%D0%BD%D1%8B%D0%B9%20%D0%B4%D0%BE%D0%BA%D0%BB%D0%B0%D0%B4%202014-2015.docx,2015,,76,,,,,,81.1,,,,69,,,,58,,53,,59,,62,,68,,47,,,,
Государственное бюджетное образовательное учреждение города Москвы средняя общеобразовательная школа № 2010 имени героя Советского Союза М.П. Судакова,http://sch2010uv.mskobr.ru,http://sch2010uv.mskobr.ru/files/%D0%9F%D1%83%D0%B1%D0%BB%D0%B8%D1%87%D0%BD%D1%8B%D0%B9%20%D0%B4%D0%BE%D0%BA%D0%BB%D0%B0%D0%B4%202015_.pdf,2015,,77,,,,,,75,,,,61,,,,52,,62,,75,,67,,72,,55,,,,
"Государственное бюджетное общеобразовательное учреждение города Москвы ""Школа № 1747""",http://sch1747sz.mskobr.ru,http://sch1747sz.mskobr.ru/report/,2015,,x,,,,,,,,,,,,,,,,,,,,,,,,,,,,
"Государственное бюджетное общеобразовательное учреждение города Москвы ""Гимназия № 1552""",http://gymu1552.mskobr.ru,http://gymu1552.mskobr.ru/files/%20%D0%B4%D0%BE%D0%BA%D0%BB%D0%B0%D0%B4%202015.pdf,2015,,?,,,,,,,,,,,,,,,,,,,,,,,,,,,,
"Государственное бюджетное общеобразовательное учреждение города Москвы ""Школа № 887""",http://sch887.mskobr.ru,http://sch887.mskobr.ru/files/docs/raznoe/15_16/%D0%9F%D1%83%D0%B1%D0%BB%D0%B8%D1%87%D0%BD%D1%8B%D0%B9%20%D0%BE%D1%82%D1%87%D0%B5%D1%82%202014-2015%20%D1%81%20%D0%B2%D0%BE%D1%81%D0%BF.%20%D1%80%D0%B0%D0%B1%D0%BE%D1%82%D0%BE%D0%B9.pdf,2015,,67.5,,,,,,68.8,,63.5,,60.3,,55.6,,48.5,,59.5,,47.4,,57.3,,57.5,,57.6,,,,
"Государственное бюджетное общеобразовательное учреждение города Москвы ""Гимназия №1591""",http://gym1591.mskobr.ru,http://gym1591.mskobr.ru/files/publichniy_doklad_2014-15.pdf,2015,,78,,,,,,75,,,,60.9,,67,,57,,65.5,,56.6,,64,,65.8,,67,,,,
"Государственное бюджетное общеобразовательное учреждение города Москвы ""Гимназия № 1503""",http://gym1503.mskobr.ru,x,,,,,,,,,,,,,,,,,,,,,,,,,,,,,,,
Государственное бюджетное образовательное учреждение города Москвы средняя общеобразовательная школа № 953,http://co953sv.mskobr.ru,http://co953sv.mskobr.ru/report/,2013,,x,,,,,,,,,,,,,,,,,,,,,,,,,,,,
"Государственное бюджетное общеобразовательное учреждение города Москвы ""Школа № 2083""",http://sch2083.mskobr.ru,http://sch2083.mskobr.ru/files/%20%D0%B4%D0%BE%D0%BA%D0%BB%D0%B0%D0%B4%202014-2015.pdf,2015,,x,,,,,,,,,,,,,,,,,,,,,,,,,,,,
"Государственное бюджетное общеобразовательное учреждение города Москвы ""Школа № 1400""",http://sch1400z.mskobr.ru,http://sch1400z.mskobr.ru/files/%20%D0%94%D0%9E%D0%9A%D0%9B%D0%90%D0%94%20%202015%2C%2028.06%281%29.pdf,2015,,71,,,,,,67,,,,54,,,,53,,41,,40,,59,,64,,50,,,,
"Государственное бюджетное общеобразовательное учреждение города Москвы ""Школа с углубленным изучением английского языка № 1353 имени генерала Д.Ф. Алексеева""",http://sch1353zg.mskobr.ru,http://sch1353zg.mskobr.ru/files/PD2014-2015%281%29.pdf,2015,,x,,,,,,,,,,,,,,,,,,,,,,,,,,,,
"Государственное бюджетное общеобразовательное учреждение города Москвы ""Школа с углубленным изучением английского языка № 1282""",http://schvu1282.mskobr.ru,http://schvu1282.mskobr.ru/files/%20%D0%B4%D0%BE%D0%BA%D0%BB%D0%B0%D0%B4%201282%202014-2015.pdf,2015,,86,,,,,,81,,68,,71,,71,,60,,69,,58.4,,58,,53.8,,58,,,,
"Государственное бюджетное общеобразовательное учреждение города Москвы ""Школа с углубленным изучением иностранного языка и информационных технологий № 1347""",http://sch1347.mskobr.ru,http://sch1347.mskobr.ru/files/doc/publichni_doklad/doklad_14-15.pdf,2015,,68,,,,61,,68,,,,55,,61,,58,,47,,46,,57,,61,,53,,,,
"Государственное бюджетное общеобразовательное учреждение города Москвы ""Школа № 1430 имени Героя Социалистического Труда Г.В.Кисунько""",http://sch1430sv-new.mskobr.ru,http://sch1430sv-new.mskobr.ru/files/publichnyj_otchet_za_2014-2015_uchebnyj_god_gbou_shkola_14301.pdf,2015,,x,,,,,,,,,,,,,,,,,,,,,,,,,,,,
Государственное бюджетное общеобразовательное учреждение города Москвы «Школа с углубленным изучением английского языка № 1284»,http://sch1284.mskobr.ru,http://sch1284.mskobr.ru/report/,2014,,x,,,,,,,,,,,,,,,,,,,,,,,,,,,,
"Государственное бюджетное общеобразовательное учреждение города Москвы ""Школа № 1101""",http://sch1101uz.mskobr.ru,http://sch1101uz.mskobr.ru/files/publichnyj_otchet_2014-2015.pdf,2015,,73.4,,,,56.5,,76.7,,70.7,,65.1,,64.8,,61.1,,70,,61.1,,62.3,,60.9,,56.7,,,,
"Государственное бюджетное общеобразовательное учреждение города Москвы ""Гимназия № 1637""",http://gym1637.mskobr.ru,http://gym1637.mskobr.ru/files/publichnyy_doklad/publichnyy-doklad-14-15.pdf,2015,,49,,,,,,72,,,,58,,49,,56,,68,,42,,44,,44,,59,,,,
"Государственное бюджетное общеобразовательное учреждение города Москвы ""Школа № 1222 имени Маршала Советского Союза И.Х.Баграмяна""",http://sch1222uv.mskobr.ru/,http://sch1222uv.mskobr.ru/files/%20%D0%B4%D0%BE%D0%BA%D0%BB%D0%B0%D0%B4%202015%20%D1%80%D0%B5%D0%B4%20%D0%BE%D1%82%2009072015.pdf,2015,,40,,,,82,,76,,64,,61,,63,,57,,49,,48,,57,,53,,48,,,,
"Государственное бюджетное образовательное учреждение города Москвы лицей №1793 ""Жулебино""",http://lyc1793uv.mskobr.ru,http://lyc1793uv.mskobr.ru/files/Dokumenti/%D0%BF%D1%83%D0%B1%D0%BB%D0%B8%D1%87%D0%BD%D1%8B%D0%B9%20%D0%B4%D0%BE%D0%BA%D0%BB%D0%B0%D0%B4%20%D0%B4%D0%B8%D1%80%D0%B5%D0%BA%D1%82%D0%BE%D1%80%D0%B0%202014-2015.pdf,2015,,x,,,,,,,,,,,,,,,,,,,,,,,,,,,,
"Государственное бюджетное общеобразовательное учреждение города Москвы ""Лицей № 138""",http://sch138sz.mskobr.ru,http://sch138sz.mskobr.ru/files/publichnyj_doklad_2014-15.pdf,2015,,60,,,,,,68,,52,,52,,55,,60,,64,,42,,58,,54,,55,,,,
"Государственное бюджетное общеобразовательное учреждение города Москвы ""Школа № 2129"" имени Героя Советского Союза П.И.Романова",sch2056uv.mskobr.ru,http://sch2129uv.mskobr.ru/report/,2014,,47,,,,,,64,,,,60,,,,58,,43,,45,,64,,64,,45,,,,
"Государственное бюджетное общеобразовательное учреждение города Москвы ""Школа № 1106""",http://sch1106uz.mskobr.ru,http://sch1106uz.mskobr.ru/files/2014-15_publichnyj_doklad_direktora_gbou_shkola_1106.pdf,2015,,73.5,,,,,,70.8,,87.00,,53.1,,70.8,,51.4,,56.0,,48.9,,60.5,,58.3,,54.7,,,,
"Государственное бюджетное общеобразовательное учреждение города Москвы ""Гимназия № 1274 имени В.В. Маяковского""",http://gym1274uv.mskobr.ru,http://gym1274uv.mskobr.ru/images/cms/PDF/publichnyj_otchet_za_2013-2014_uchebnyj_god.pdf,2014,,67.9,,,,,,66.3,,71.7,,57.5,,51.2,,60.5,,59.8,,41,,51.7,,,,46.8,,,,
"Государственное бюджетное общеобразовательное учреждение города Москвы ""Школа № 2025""",http://sch2025.mskobr.ru,http://sch2025.mskobr.ru/files/samoobsled_2014_15.pdf,2015,,x,,,,,,,,,,,,,,,,,,,,,,,,,,,,
Государственное бюджетное образовательное учреждение города Москвы средняя общеобразовательная школа № 799,http://sch799v.mskobr.ru,http://sch799v.mskobr.ru/files/_799_2014-2015.pdf,2015,,x,,,,,,,,,,,,,,,,,,,,,,,,,,,,
"Государственное бюджетное общеобразовательное учреждение города Москвы ""Школа № 1450 ""Олимп""",http://sch1450u.mskobr.ru,http://sch1450u.mskobr.ru/files/%20%D0%94%D0%BE%D0%BA%D0%BB%D0%B0%D0%B4%20%D0%B4%D0%B8%D1%80%D0%B5%D0%BA%D1%82%D0%BE%D1%80%D0%B0%2014-15.pdf,2015,,x,,,,,,,,,,,,,,,,,,,,,,,,,,,,
Государственное бюджетное образовательное учреждение города Москвы средняя общеобразовательная школа с углубленным изучением английского языка № 1206,http://sch1206uz.mskobr.ru,http://sch1206uz.mskobr.ru/files/%20%D0%BE%D1%82%D1%87%D0%B5%D1%82%20-%202015.pdf,2015,,82,,,,,,74,,,,58,,63,,55,,60,,54,,64,,52,,52,,,,
"Государственное бюджетное общеобразовательное учреждение города Москвы ""Школа № 1103 имени Героя Российской Федерации А.В.Соломатина""",http://sch1103uz.mskobr.ru,http://sch1103uz.mskobr.ru/files/publichniy_otchet_794_13-14-2.pdf,2014,,53.4,,,,,,64.3,,42,,55.2,,62.8,,40.7,,41.3,,47.5,,50.6,,50.5,,41.5,,,,
"Государственное бюджетное общеобразовательное учреждение города Москвы ""Школа № 878""",http://sch878u.mskobr.ru,http://sch878u.mskobr.ru/files/%2014-15.pdf,2015,,66,,,,,,74,,61,,61,,65,,58,,50,,48,,62,,60,,53,,,,
"Государственное бюджетное общеобразовательное учреждение города Москвы ""Гимназия № 1619 имени М.И. Цветаевой""",http://co1619.mskobr.ru,http://co1619.mskobr.ru/report/,2015,,x,,,,,,,,,,,,,,,,,,,,,,,,,,,,
"Государственное бюджетное общеобразовательное учреждение города Москвы ""Школа № 1981""",http://sch1981uz.mskobr.ru,http://sch1981uz.mskobr.ru/files/samoobsledovanie_gbou_shkola_1981_2014-2015.pdf,2015,,x,,,,,,,,,,,,,,,,,,,,,,,,,,,,
"Государственное бюджетное общеобразовательное учреждение города Москвы ""Школа № 947""",http://sch947u.mskobr.ru,http://sch947u.mskobr.ru/files/%20%28%D0%BD%D0%B0%D1%88%29%20%28%D0%B2%D0%B0%D1%80%29.pdf,2014,,x,,,,,,,,,,,,,,,,,,,,,,,,,,,,
"Государственное бюджетное общеобразовательное учреждение города Москвы ""Школа с углубленным изучением английского языка № 1238""",http://sch1238.mskobr.ru,https://drive.google.com/file/d/0B5fArHnrCPDYQy03WmgzMHRBZkE/view,2015,,70,,,,,,72,,,,61,,49,,62,,63,,53,,62,,56,,53,,,,
"Государственное бюджетное общеобразовательное учреждение города Москвы ""Школа № 1499 имени Героя Советского Союза Ивана Архиповича Докукина""",http://co1499sv-new.mskobr.ru,http://co1499sv-new.mskobr.ru/report/,2014,,65.2,,,,,,69.1,,82,,57.3,,54.6,,53.3,,61,,44.6,,40,,,,,,,,
"Государственное бюджетное общеобразовательное учреждение города Москвы ""Школа №1173""",http://sch1173.mskobr.ru,http://sch1173.mskobr.ru/files/00-03/2014-2015dir_public_doclad..pdf,2015,,,,,,,,76,,60,,63,,64,,55,,55,,54.3,,60,,54,,57,,,,
"Государственное бюджетное общеобразовательное учреждение города Москвы ""Школа с углубленным изучением отдельных предметов № 1248""",http://sch1248.mskobr.ru,http://sch1248.mskobr.ru/files/Documenti/%D0%BF%D1%83%D0%B1%D0%BB%D0%B8%D1%87%D0%BD%D1%8B%D0%B9%20%D0%B4%D0%BE%D0%BA%D0%BB%D0%B0%D0%B4%202015.pdf,2015,,x,,,,,,,,,,,,,,,,,,,,,,,,,,,,
"Государственное бюджетное общеобразовательное учреждение города Москвы ""Гимназия № 2200""",sch1268.mskobr.ru,http://gymnasium2200.mskobr.ru/files/publichniy_doklad/%D0%9F%D0%A3%D0%91%D0%9B%D0%98%D0%A7%D0%9D%D0%AB%D0%99%20%D0%94%D0%9E%D0%9A%D0%9B%D0%90%D0%94%202014-2015%20%D0%BE%D1%82%2030%20%D0%B8%D1%8E%D0%BD%D1%8F%202015%20%D0%B3....pdf,2015,,83.7,,,,,,80,,55,,63,,,,59.3,,40,,42.6,,66.3,,63.8,,62.5,,,,
"Государственное бюджетное общеобразовательное учреждение города Москвы ""Школа № 1195""",http://sch1195.mskobr.ru,http://sch1195.mskobr.ru/report/,2014,,53.75,,,,,,75.1,,56.5,,58.5,,68.7,,67.85,,63.15,,49.45,,48.7,,65,,51.9,,,,
"Государственное бюджетное общеобразовательное учреждение города Москвы ""Школа с углубленным изучением английского языка № 1200""",http://sch1200.mskobr.ru,http://sch1200.mskobr.ru/report/,2015,,75,,,,,,72,,73,,60,,69,,59,,57,,52,,62,,66,,56,,,,
"Государственное бюджетное общеобразовательное учреждение города Москвы ""Школа № 170 имени А.П. Чехова""",http://sch170uz.mskobr.ru,http://sch170uz.mskobr.ru/files/%20%D0%BE%D1%82%D1%87%D0%B5%D1%82%2014-15%20%D0%B3%D0%BE%D0%B4%20%D1%88%D0%BA%D0%BE%D0%BB%D0%B0%20%E2%84%96%20170.pdf,2015,,68,,,,,,62,,49,,50,,40,,45,,55,,40,,56,,57,,51,,,,
Государственное бюджетное образовательное учреждение города Москвы гимназия № 1544,http://gym1544sz.mskobr.ru,http://gym1544sz.mskobr.ru/files/samoobsledovanie-2.doc,2014,,x,,,,,,,,,,,,,,,,,,,,,,,,,,,,
Государственное бюджетное общеобразовательное учреждение города Москвы «Школа № 2101 «Филёвский образовательный центр»,http://sch2101.mskobr.ru,http://sch2101.mskobr.ru/files/261/public_report_karpov_2013-2014.pdf,2014,,x,,,,,,,,,,,,,,,,,,,,,,,,,,,,
Государственное бюджетное образовательное учреждение города Москвы средняя общеобразовательная школа с углубленным изучением английского языка № 1210,http://sch1210sz.mskobr.ru,http://sch1210sz.mskobr.ru/files/%2B%D0%BE%D1%82%D1%87%D0%B5%D1%82%2B14-15.compressed.pdf,2015,,81,,,,,,78,,,,66,,66,,54,,54,,57,,82,,68,,61,,,,
"Государственное бюджетное общеобразовательное учреждение города Москвы ""Школа № 1000""",http://sch1000.mskobr.ru,http://sch1000.mskobr.ru/files/documenti/Publichniy_dok/publichnyj_otchet_gbou_shkola_1000_1.pdf,2014,,62,,,,,,68,,,,57,,73,,38,,66,,46,,,,66,,52,,,,
"Государственное бюджетное образовательное учреждение города Москвы центр образования ""Технологии обучения""",http://cotg.mskobr.ru,http://cotg.mskobr.ru/files/publichn_otchet_14-15.pdf,2015,,62,,,,,,66,,,,55,,46,,67,,,,49,,,,,,66,,,,
Государственное бюджетное образовательное учреждение города Москвы средняя общеобразовательная школа с углубленным изучением английского языка № 1416,http://sch1416sv.mskobr.ru,http://sch1416sv.mskobr.ru/files/%20%D0%BF%D0%BE%20%D1%81%D0%B0%D0%BC%D0%BE%D0%BE%D0%B1%D1%81%D0%BB%D0%B5%D0%B4%D0%BE%D0%B2%D0%B0%D0%BD%D0%B8%D1%8E%201416.pdf,2015,,67,,,,,,69,,54,,56,,51,,49,,48,,46,,53,,55,,51,,,,
"Государственное бюджетное общеобразовательное учреждение города Москвы ""Школа с углубленным изучением английского языка № 1287""",http://sch1287s.mskobr.ru,http://sch1287s.mskobr.ru/files/%20%D1%81%D0%B0%D0%B9%D1%82%2017.07%D0%BD%D0%BE%D0%B2%D1%8B%D0%B9%20%D0%BF%D1%83%D0%B1%D0%BE%D1%82%D1%871287%282%29.pdf,2015,,x,,,,,,,,,,,,,,,,,,,,,,,,,,,,
Государственное бюджетное образовательное учреждение города Москвы открытая (сменная) общеобразовательная школа № 88,http://sch88c.mskobr.ru,http://sch88c.mskobr.ru/files/Publ_Doklad_Directora_2013-2014.pdf,2014,,x,,,,,,,,,,,,,,,,,,,,,,,,,,,,
"Государственное бюджетное общеобразовательное учреждение города Москвы ""Гимназия № 1540""",http://gymc1540.mskobr.ru,http://gymc1540.mskobr.ru/files/%D0%9F%D1%83%D0%B1%D0%BB%D0%B8%D1%87%D0%BD%D1%8B%D0%B9%20%D0%B4%D0%BE%D0%BA%D0%BB%D0%B0%D0%B4.pdf,2014,,66.5,,72,,,,69.8,,71,,61.8,,64.8,,60.3,,55.5,,47.6,,57,,54.6,,56,,,,
"Государственное бюджетное общеобразовательное учреждение города Москвы ""Школа № 2090""",http://sch2090uv.mskobr.ru,http://sch2090uv.mskobr.ru/report/,2014,,x,,,,,,,,,,,,,,,,,,,,,,,,,,,,
"Государственное бюджетное общеобразовательное учреждение города Москвы ""Школа № 705""",http://sch705sz.mskobr.ru,http://sch705sz.mskobr.ru/files/%20%D0%B4%D0%BE%D0%BA%D0%BB%D0%B0%D0%B4%20%D0%B4%D0%B8%D1%80%D0%B5%D0%BA%D1%82%D0%BE%D1%80%D0%B0%20%D1%88%D0%BA%D0%BE%D0%BB%D1%8B%20%D0%B7%D0%B0%202014-2015.pdf,2015,,60,,,,,,67,,,,49,,56,,60,,66,,47,,46,,56,,56,,,,
"Государственное бюджетное общеобразовательное учреждение города Москвы ""Школа № 1151""",http://sch1151zg.mskobr.ru,http://sch1151zg.mskobr.ru/files/%20%D0%B4%D0%BE%D0%BA%D0%BB%D0%B0%D0%B4%20%D0%B4%D0%B8%D1%80%D0%B5%D0%BA%D1%82%D0%BE%D1%80%D0%B0%20%D1%88%D0%BA%D0%BE%D0%BB%D1%8B%202015%D0%B3%D0%BE%D0%B4%D0%B0%282%29.pdf,2015,,64,,,,,,71,,57,,56,,54,,50,,50,,53,,65,,57,,64,,,,
"Государственное бюджетное общеобразовательное учреждение города Москвы ""Школа № 1298""",http://sch1298sz.mskobr.ru,http://sch1298sz.mskobr.ru/files/public_report_2014.pdf,2014,,72,,,,,,78,,,,64,,67,,67,,74,,61,,71,,78,,56,,,,
"Государственное бюджетное общеобразовательное учреждение города Москвы ""Школа № 319""",http://sch319v.mskobr.ru,http://sch319v.mskobr.ru/files/%D0%9F%D1%83%D0%B1%D0%BB%D0%B8%D1%87%D0%BD%D1%8B%D0%B9%20%D0%B4%D0%BE%D0%BA%D0%BB%D0%B0%D0%B4.pdf,2015,,79,,,,,,71,,50,,58,,59,,45,,50,,47,,57,,55,,55,,,,
"Государственное бюджетное общеобразовательное учреждение города Москвы ""Школа № 345 имени А.С. Пушкина""",http://sch345.mskobr.ru,http://sch345.mskobr.ru/files/%20%D0%BE%D1%82%D0%BA%D1%80%D1%8B%D1%82%D1%8B%D0%B9%20%D0%B4%D0%BE%D0%BA%D0%BB%D0%B0%D0%B4.%20%D0%98%D0%A2%D0%9E%D0%93%20docx.docx,2015,,x,,,,,,,,,,,,,,,,,,,,,,,,,,,,
"Государственное бюджетное общеобразовательное учреждение города Москвы ""Школа № 2121 ""Образовательный комплекс имени Маршала Советского Союза С.К.Куркоткина""",http://sch2121.mskobr.ru,http://sch2121.mskobr.ru/report/,2014,,x,,,,,,,,,,,,,,,,,,,,,,,,,,,,
"Муниципальное автономное общеобразовательное учреждение ""Гимназия имени Н.В. Пушкова""",http://gympushkova.mskobr.ru,x,,,,,,,,,,,,,,,,,,,,,,,,,,,,,,,
Государственное бюджетное образовательное учреждение города Москвы центр образования № 1240,http://sch1240.mskobr.ru,http://sch1240.mskobr.ru/files/attach_files/publichnyj_doklad_2015.pdf,2015,,77,,,,,,71.4,,66,,58.9,,58.9,,54,,46.9,,45.6,,65,,57.9,,49,,,,
Государственное бюджетное образовательное учреждение города Москвы средняя общеобразовательная школа № 141,http://sch141s.mskobr.ru,http://sch141s.mskobr.ru/files/public_order_2015.pdf,2015,,73,,,,,,72,,57,,65,,62,,53,,34,,44,,68,,69,,53,,,,
Государственное бюджетное образовательное учреждение города Москвы средняя общеобразовательная школа № 544,http://sch544u.mskobr.ru,http://sch544u.mskobr.ru/files/%20%D0%B3%D0%BE%D0%B4%D0%B0.pps,2014,,72,,,,,,68,,71,,59,,80,,61,,65,,56,,59,,72,,52,,,,
"Государственное бюджетное общеобразовательное учреждение города Москвы ""Школа № 618""",http://sch618zg.mskobr.ru,http://sch618zg.mskobr.ru/files/pd2015.pdf,2015,,,,,,,,69,,,,,,,,,,59,,,,,,,,,,,,
"Государственное бюджетное общеобразовательное учреждение города Москвы ""Школа с углубленным изучением отдельных предметов № 1239""",http://coc1239.mskobr.ru,http://coc1239.mskobr.ru/files/20142015_otchet_o_realizacii_programmy_razvitiya_2_e_tap.doc,2015,,x,,,,,,,,,,,,,,,,,,,,,,,,,,,,
"Государственное бюджетное общеобразовательное учреждение города Москвы ""Школа № 843""",http://sch843.mskobr.ru,http://sch843.mskobr.ru/files/Documents/publichni_otche/%D0%9F%D0%A3%D0%91%D0%9B%D0%98%D0%A7%D0%9D%D0%AB%D0%99%20%D0%9E%D0%A2%D0%A7%D0%95%D0%A2%2014-15.pdf,2015,,64,,,,,,73,,50,,67,,67,,49,,68,,51,,64,,65,,57,,,,
Государственное бюджетное образовательное учреждение города Москвы средняя общеобразовательная школа с углубленным изучением иностранного (английского) языка № 1207,http://sch1207u.mskobr.ru,http://sch1207u.mskobr.ru/files/%20%D0%94%D0%9E%D0%9A%D0%9B%D0%90%D0%94%20%20%28%D0%B2%D0%B5%D1%80%D1%81%D0%B8%D1%8F%2002.02.%202015%29.doc,2014,,76,,,,,,77,,,,60,,76,,61,,65,,50,,63,,64,,55,,,,
"Государственное бюджетное общеобразовательное учреждение города Москвы ""Школа № 2000""",http://sch2000u.mskobr.ru/,http://sch2000u.mskobr.ru/files/samoanaliz-2014-15.pdf,2015,,,,,,,,73,,66,,57,,69,,53,,57,,54,,49,,50,,52,,,,
"Государственное бюджетное общеобразовательное учреждение города Москвы ""Школа с углубленным изучением английского языка № 1315""",http://sch1315s.mskobr.ru,http://sch1315s.mskobr.ru/files/doklad_1315.pdf,2015,,x,,,,,,,,,,,,,,,,,,,,,,,,,,,,
"Государственное бюджетное общеобразовательное учреждение города Москвы ""Школа № 630 ""лингвистический центр""",http://sch630.mskobr.ru,http://sch630.mskobr.ru/files/.%20%D0%B4%D0%BE%D0%BA%D0%BB%D0%B0%D0%B4%202015.docx,2015,,64.5,,,,,,69,,35,,56,,49,,59,,43,,45,,57,,55,,50,,,,
"Государственное бюджетное общеобразовательное учреждение города Москвы ""Школа № 1741""",http://sch1741.mskobr.ru,http://sch1741.mskobr.ru/files/sosh_1741/documents/publichniy_otchet/publichnyj_otchet_o_deyatel_nosti_gbou_sosh_za_2013_-2014_uchebnyj_god.pdf,2014,,66.9,,90,,,,73.9,,0,,68,,62,,56,,62,,54.8,,75,,62,,55.2,,,,
"Государственное бюджетное общеобразовательное учреждение города Москвы ""Школа № 236 имени Героя Советского Союза Г.И.Щедрина""",http://sch236s.mskobr.ru,http://sch236s.mskobr.ru/files/publichnyj_doklad_2014-2015_uchebnyj_god_236.doc,2015,,,,,,,,71,,89,,,,54,,,,,,,,64,,,,,,,,
Государственное бюджетное образовательное учреждение города Москвы средняя общеобразовательная школа с углубленным изучением английского языка № 1375,http://sch1375u.mskobr.ru,http://sch1375u.mskobr.ru/files/rezultativnost/doklad-direktora-2015.pdf,2015,,68.3,,,,,,73,,42,,58,,62,,48,,53,,48,,54,,61,,54,,,,
"Государственное бюджетное общеобразовательное учреждение города Москвы ""Школа № 185 имени Героя Советского Союза, Героя Социалистического Труда В.С.Гризодубовой""",http://sch185s.mskobr.ru,http://sch185s.mskobr.ru/files/PUBLIK_DOC.pdf,2015,,63,,,,,,72,,,,59,,61,,46,,66,,39,,73,,65,,51,,,,
Государственное бюджетное образовательное учреждение города Москвы гимназия № 1582,http://gym1582u.mskobr.ru,http://gym1582u.mskobr.ru/files/publichnyj_doklad.doc,2015,,85,,,,,,,,54,,66,,67,,71,,74,,,,59,,64,,69,,,,
"Государственное бюджетное общеобразовательное учреждение города Москвы ""Школа № 1912 имени Бауыржана Момышулы""",http://sch1912zg.mskobr.ru,http://sch1912zg.mskobr.ru/files/%20%D0%B4%D0%BE%D0%BA%D0%BB%D0%B0%D0%B4%202014_2015%283%29.pdf,2015,,67.8,,,,,,73.9,,53,,58.3,,62.1,,57.5,,61.2,,51.9,,67.8,,63,,59.3,,,,
"Государственное бюджетное общеобразовательное учреждение города Москвы ""Лицей № 1550""",http://lyc1550.mskobr.ru,http://lyc1550.mskobr.ru/files/%20%D0%BE%D1%82%D1%87%D0%B5%D1%82%20%D0%B4%D0%B8%D1%80%D0%B5%D0%BA%D1%82%D0%BE%D1%80%D0%B0%20%D0%BB%D0%B8%D1%86%D0%B5%D1%8F%201550%20%D0%B7%D0%B0%20%202014-15.pdf,2015,,,,,,,,,,,,,,,,,,,,,,,,,,,,,,
Государственное бюджетное образовательное учреждение города Москвы средняя общеобразовательная школа № 1018,http://sch1018.mskobr.ru,http://sch1018.mskobr.ru/files/dokuments/publik_otchet/publichn_otcheta_1018_za_2013-2014.pdf,2014,,67,,,,,,70,,62,,65,,60,,65,,74,,56,,66,,65,,49,,,,
"Государственное бюджетное общеобразовательное учреждение города Москвы ""Школа с углубленным изучением математики № 1360""",http://sch1360v.mskobr.ru,http://sch1360v.mskobr.ru/report/,2014,,x,,,,,,,,,,,,,,,,,,,,,,,,,,,,
"Государственное бюджетное общеобразовательное учреждение города Москвы ""Школа с углубленным изучением английского языка № 2033""",http://sch2033v.mskobr.ru,http://sch2033v.mskobr.ru/files/publichnyj_doklad1415.doc,2015,,80,,,,,,74,,,,62,,,,61,,,,52,,83,,77,,63,,,,
"Государственное бюджетное общеобразовательное учреждение города Москвы ""Школа № 2110 ""Многопрофильный образовательный комплекс ""Марьино""",http://sch2110.mskobr.ru,http://sch2110.mskobr.ru/files/%D0%94%D0%BE%D0%BA%D1%83%D0%BC%D0%B5%D0%BD%D1%82%D1%8B/po_2110.pdf,2014,,x,,,,,,,,,,,,,,,,,,,,,,,,,,,,
"Государственное бюджетное общеобразовательное учреждение города Москвы ""Школа № 1002""",http://sch1002.mskobr.ru,http://sch1002.mskobr.ru/files/publichnyj_otchet_gbou_shkola_1002.pdf,2015,,62,,44,,,,75,,72,,59,,53,,53,,63,,45,,69,,62,,61,,,,
"Государственное бюджетное общеобразовательное учреждение города Москвы ""Лицей №1586""",http://1586.mskobr.ru,http://1586.mskobr.ru/files/otchet_o_samoobsledovanii_licej_1586_za_2014-2015_g_s_titulomdoc1.pdf,2015,,67,,,,,,74,,64,,,,60,,50,,67,,58,,59,,61,,64,,,,
"Государственное бюджетное общеобразовательное учреждение города Москвы ""Школа с углубленным изучением немецкого языка № 1269""",http://sch1269v.mskobr.ru,http://sch1269v.mskobr.ru/files/%20%D0%BE%D1%82%D1%87%D0%B5%D1%82%202015.pdf,2015,,x,,,,,,,,,,,,,,,,,,,,,,,,,,,,
"Государственное бюджетное общеобразовательное учреждение города Москвы ""Школа № 827""",http://sch827sz.mskobr.ru,http://sch827sz.mskobr.ru/report/,2015,,x,,,,,,,,,,,,,,,,,,,,,,,,,,,,
"Государственное бюджетное общеобразовательное учреждение города Москвы ""Школа № 1191""",http://sch1191sz.mskobr.ru,x,,,,,,,,,,,,,,,,,,,,,,,,,,,,,,,
"Государственное бюджетное общеобразовательное учреждение города Москвы ""Центр образования № 1296""",http://cos1296.mskobr.ru,http://cos1296.mskobr.ru/files/_%D0%BE%D1%82%D1%87%D0%B5%D1%82_%E2%84%961296%283%29.pdf,2015,,x,,,,,,,,,,,,,,,,,,,,,,,,,,,,
"Государственное бюджетное общеобразовательное учреждение города Москвы ""Школа № 1440""",http://sch1440.mskobr.ru,http://sch1440.mskobr.ru/report/,2015,,x,,,,,,,,,,,,,,,,,,,,,,,,,,,,
"Государственное бюджетное общеобразовательное учреждение города Москвы ""Школа № 2045""",http://sch2045zg.mskobr.ru,http://sch2045zg.mskobr.ru/files/2031/%D0%9F%D1%83%D0%B1%D0%BB%D0%B8%D1%87%D0%BD%D1%8B%D0%B9%20%D0%B4%D0%BE%D0%BA%D0%BB%D0%B0%D0%B4%202014-2015.pdf,2015,,63,,,,,,70,,,,60,,51,,56,,49,,43,,,,,,,,,,
"Государственное бюджетное общеобразовательное учреждение города Москвы ""Школа № 717""",http://sch717s.mskobr.ru,http://sch717s.mskobr.ru/files/%20%D0%9E%D0%A2%D0%A7%D0%81%D0%A2%202014-2015%20%D1%83%D1%87.%D0%B3%D0%BE%D0%B4.docx,2015,,x,,,,,,,,,,,,,,,,,,,,,,,,,,,,
"Государственное бюджетное общеобразовательное учреждение города Москвы ""Школа с углубленным изучением отдельных предметов № 1794""",http://sch1794s.mskobr.ru,http://sch1794s.mskobr.ru/report/,2015,,54,,,,,,71,,68,,55,,58,,42,,53,,43,,52,,61,,52,,,,
"Государственное бюджетное общеобразовательное учреждение города Москвы ""Школа № 1498 ""Московская международная школа""",http://sch1498.mskobr.ru,http://sch1498.mskobr.ru/files/attach_files/publichnyj_doklad_1415.docx,2015,,71.4,,,,,,79.7,,,,62.8,,61.6,,46.5,,60.2,,55.8,,64.8,,69.2,,61.6,,,,
"Государственное бюджетное общеобразовательное учреждение города Москвы ""Школа № 41""",http://sch41.mskobr.ru,http://sch41.mskobr.ru/files/_SCH41/documents/publ_otchet/2014-2015%20%D0%B3%D0%BE%D0%B4.pdf,2015,,x,,,,,,,,,,,,,,,,,,,,,,,,,,,,
"Государственное бюджетное общеобразовательное учреждение города Москвы ""Школа с углубленным изучением экономики и информатики № 1355""",http://sch1355uz.mskobr.ru,http://sch1355uz.mskobr.ru/files/%20%20%D0%BE%D1%82%D1%87%D0%B5%D1%82%202014-2015%20%D0%93%D0%91%D0%9E%D0%A3%20%D0%A8%D0%BA%D0%BE%D0%BB%D0%B0%20%E2%84%961355%281%29.pdf,2015,,81,,,,,,77,,60,,60,,72.5,,51,,60,,55,,62,,56,,55.6,,,,
Государственное бюджетное образовательное учреждение города Москвы средняя общеобразовательная школа № 113,http://sch113uz.mskobr.ru,http://sch113uz.mskobr.ru/files/%20%D0%B4%D0%BE%D0%BA%D0%BB%D0%B0%D0%B4%20%D1%80%D1%83%D0%BA%D0%BE%D0%B2%D0%BE%D0%B4%D0%B8%D1%82%D0%B5%D0%BB%D1%8F.pdf,2015,,69,,,,,,74,,55,,61,,55,,54,,38,,53,,75,,63,,54,,,,
"Государственное бюджетное образовательное учреждение города Москвы средняя общеобразовательная школа № 2087 ""Многопрофильный образовательный комплекс ""Открытие""",http://sch2087uv.mskobr.ru,http://sch2087uv.mskobr.ru/files/publichnyj_doklad_2014-15.pdf,2015,,77,,,,,,73,,-,,60,,58,,61,,61,,51,,68,,62,,59,,,,
"Негосударственное образовательное учреждение средняя общеобразовательная школа ""Образовательный центр ОАО ""Газпром""",http://nougazprom.mskobr.ru,http://nougazprom.mskobr.ru/files/%20%D0%B4%D0%BE%D0%BA%D0%BB%D0%B0%D0%B4%20%D0%BF%D0%BE%20%D0%B8%D1%82%D0%BE%D0%B3%D0%B0%D0%BC%202014-2015%20%D0%B3%D0%BE%D0%B4%D0%B0%282%29.pdf,2015,,x,,,,,,,,,,,,,,,,,,,,,,,,,,,,
Государственное бюджетное образовательное учреждение города Москвы средняя общеобразовательная школа с углубленным изучением иностранных языков № 1412,http://sch1412sv.mskobr.ru,http://sch1412sv.mskobr.ru/report/,2015,,x,,,,,,,,,,,,,,,,,,,,,,,,,,,,
Государственное бюджетное образовательное учреждение города Москвы гимназия № 1579,http://gym1579u.mskobr.ru,http://gym1579u.mskobr.ru/files/1579_publichnyj_doklad.ppt,2015,,77.8,,,,,,80.8,,,,65.7,,68.6,,61.7,,51.6,,47.9,,63,,63.6,,55.3,,,,
Государственное бюджетное образовательное учреждение города Москвы гимназия № 1306,http://gymg1306.mskobr.ru,http://gymg1306.mskobr.ru/files/%D0%9F%D1%83%D0%B1%D0%BB%D0%B8%D1%87%D0%BD%D1%8B%D0%B9%20%D0%BE%D1%82%D1%87%D1%91%D1%82%20%D0%93%D0%BE%D1%81%D1%83%D0%B4%D0%B0%D1%80%D1%81%D1%82%D0%B2%D0%B5%D0%BD%D0%BD%D0%BE%D0%B3%D0%BE%20%D0%B1%D1%8E%D0%B4%D0%B6%D0%B5%D1%82%D0%BD%D0%BE%D0%B3%D0%BE%20%D0%BE%D0%B1%D1%80%D0%B0%D0%B7%D0%BE%D0%B2%D0%B0%D1%82%D0%B5%D0%BB%D1%8C%D0%BD%D0%BE%D0%B3%D0%BE%20%D1%83%D1%87%D1%80%D0%B5%D0%B6%D0%B4%D0%B5%D0%BD%D0%B8%D1%8F%20%D0%B3%D0%BE%D1%80%D0%BE%D0%B4%D0%B0%20%D0%9C%D0%BE%D1%81%D0%BA%D0%B2%D1%8B%20%D0%93%D0%B8%D0%BC%D0%BD%D0%B0%D0%B7%D0%B8%D0%B8%20%E2%84%96%201306%202014%20%E2%80%93%202015%20%D1%83%D1%87%D0%B5%D0%B1%D0%BD%D1%8B%D0%B9%20%D0%B3%D0%BE%D0%B4.pdf,2015,,x,,,,,,,,,,,,,,,,,,,,,,,,,,,,
"Государственное бюджетное образовательное учреждение города Москвы кадетская школа № 1702 ""Петровский кадетский корпус""",http://schks1702.mskobr.ru,http://schks1702.mskobr.ru/files/14-15%20%D1%81%D0%B0%D0%BC%D0%BE%D0%BE%D0%B1%D1%81%D0%BB%D0%B5%D0%B4%D0%BE%D0%B2%D0%B0%D0%BD%D0%B8%D0%B5.docx,2015,,x,,,,,,,,,,,,,,,,,,,,,,,,,,,,
"Государственное бюджетное общеобразовательное учреждение города Москвы ""Школа № 1467""",http://sch1467.mskobr.ru,http://www.youblisher.com/p/959156-%D0%9F%D1%83%D0%B1%D0%BB%D0%B8%D1%87%D0%BD%D1%8B%D0%B9-%D0%BE%D1%82%D1%87%D0%B5%D1%82-%D1%80%D1%83%D0%BA%D0%BE%D0%B2%D0%BE%D0%B4%D0%B8%D1%82%D0%B5%D0%BB%D1%8F-%D0%93%D0%91%D0%9E%D0%A3-%D0%A1%D0%9E%D0%A8-1467-%D0%91%D0%B5%D0%BB%D1%8F%D0%B5%D0%B2%D0%BE%D0%B9-%D0%A2%D0%B0%D1%82%D1%8C%D1%8F%D0%BD%D1%8B-%D0%92%D0%BB%D0%B0%D0%B4%D0%B8%D0%BC%D0%B8%D1%80%D0%BE%D0%B2%D0%BD%D1%8B-%D0%B7%D0%B0-2013-2014-%D0%B3%D0%BE%D0%B4/,2014,,76,,,,,,68,,,,60,,,,44,,59,,40,,57,,70,,51,,,,
Государственное бюджетное образовательное учреждение города Москвы средняя общеобразовательная школа № 554,http://sch554uz.mskobr.ru,http://sch554uz.mskobr.ru/report/,2014,,x,,,,,,,,,,,,,,,,,,,,,,,,,,,,
"Государственное бюджетное общеобразовательное учреждение города Москвы ""Школа с углубленным изучением французского языка № 1265""",http://sch1265uz.mskobr.ru,http://sch1265uz.mskobr.ru/files/%20%D0%BE%D1%82%D1%87%D0%B5%D1%82%202013_2014_%D0%93%D0%91%D0%9E%D0%A3%20%D0%A1%D0%9E%D0%A8%201265.doc,2014,,x,,,,,,,,,,,,,,,,,,,,,,,,,,,,
"Государственное бюджетное общеобразовательное учреждение города Москвы ""Гимназия № 1257""",http://gym1257u.mskobr.ru,http://gym1257u.mskobr.ru/files/_%D0%B4%D0%BE%D0%BA%D0%BB%D0%B0%D0%B4_%D0%B4%D0%B8%D1%80%D0%B5%D0%BA%D1%82%D0%BE%D1%80%D0%B0_%D0%B7%D0%B0_2014-2015_%D1%83%D1%87.%D0%B3%D0%BE%D0%B4.pdf,2015,,83,,,,,,83,,,,72,,83,,54,,64,,63,,,,50,,58,,,,
"Государственное бюджетное общеобразовательное учреждение города Москвы ""Школа с углубленным изучением математики № 1384 имени А.А. Леманского""",http://sch1384.mskobr.ru,http://sch1384.mskobr.ru/report/,2015,,x,,,,,,,,,,,,,,,,,,,,,,,,,,,,
Государственное бюджетное образовательное учреждение города Москвы средняя общеобразовательная школа № 46,http://coz46uz.mskobr.ru,http://school46msk.ru/file/44416/publichnyydoklad2014-15.doc,2015,,71,,,,,,73,,,,61,,64,,57,,64,,64,,67,,74,,64,,,,
"Государственное бюджетное общеобразовательное учреждение города Москвы ""Центр образования № 1601 имени Героя Советского Союза Е.К.Лютикова""",http://cos1601.mskobr.ru,http://cos1601.mskobr.ru/files/%20%D0%B4%D0%BE%D0%BA%D0%BB%D0%B0%D0%B4%20%D0%93%D0%91%D0%9E%D0%A3%20%D0%A6%D0%9E%20%E2%84%96%201601%20%D0%B8%D0%BC.%20%D0%93%D0%B5%D1%80%D0%BE%D1%8F%20%D0%A1%D0%BE%D0%B2%D0%B5%D1%82%D1%81%D0%BA%D0%BE%D0%B3%D0%BE%20%D0%A1%D0%BE%D1%8E%D0%B7%D0%B0%20%D0%95.%D0%9A.%20%D0%9B%D1%8E%D1%82%D0%B8%D0%BA%D0%BE%D0%B2%D0%B0.pdf,2015,,67.59,,,,,,64.6,,53.14,,50.17,,53.08,,54.31,,27,,42.57,,55.5,,41.43,,38.33,,,,
Государственное бюджетное образовательное учреждение города Москвы гимназия № 1590 имени Героя Советского Союза В.В.Колесника,http://gym1590s.mskobr.ru,http://gym1590s.mskobr.ru/files/%D0%B4%D0%BB%D1%8F_%D1%81%D0%BA%D0%B0%D1%87%D0%B8%D0%B2%D0%B0%D0%BD%D0%B8%D1%8F/2015_2016/%D0%9F%D0%A3%D0%91%D0%9B%D0%98%D0%A7%D0%9D%D0%AB%D0%99%20%D0%94%D0%9E%D0%9A%D0%9B%D0%90%D0%94%202015.pdf,2015,,66,,,,,,73,,,,60,,63,,48,,60,,52,,,,76,,56,,,,
"Государственное бюджетное общеобразовательное учреждение города Москвы ""Гимназия № 1577""",http://gym1577sv.mskobr.ru,http://gym1577sv.mskobr.ru/files/%20%20%D0%BE%D1%82%D1%87%D1%91%D1%82%20%D0%93%D0%91%D0%9E%D0%A3%20%D0%B3%D0%B8%D0%BC%D0%BD%D0%B0%D0%B7%D0%B8%D0%B8%20%E2%84%961577%20%20%D0%B7%D0%B0%20%202013-2014%D1%83%D1%87%D0%B5%D0%B1%D0%BD%D1%8B%D0%B9%20%D0%B3%D0%BE%D0%B4.pdf,2014,,54,,,,,,70.89,,,,59.5,,54.08,,55.54,,54.5,,40.45,,52.6,,56.17,,55.6,,,,
"Федеральное государственное бюджетное образовательное учреждение высшего профессионального образования ""Московский государственный университет путей сообщения""",http://mgups.mskobr.ru,http://mgups.mskobr.ru/files/publichnyj_doklad_14-15_ok_-_kopiya.pdf,2015,,88.7,,,,,,78,,81,,70,,52,,52,,68.5,,58,,74.3,,81.2,,58,,,,
Государственное бюджетное общеобразовательное учреждение города Москвы «Гимназия № 1272»,http://sch1272.mskobr.ru/,http://sch1272.mskobr.ru/files/%20%D0%B4%D0%BE%D0%BA%D0%BB%D0%B0%D0%B4%202015-1.pdf,2015,,80,,,,,,79,,,,67,,66,,49,,,,58,,58,,64,,53,,,,
Частное учреждение средняя общеобразовательная школа «Славянско-англо- американская школа «Марина»,http://saasmar.mskobr.ru/,http://saasmar.mskobr.ru/files/public_report_2014_2015.pdf,2015,,?,,,,,,,,,,,,,,,,,,,,,,,,,,,,
Государственное бюджетное общеобразовательное учреждение города Москвы «Школа № 904»,http://sch904u.mskobr.ru/,http://sch904u.mskobr.ru/files/pb_14-15_9041.pdf,2015,,74,,,,,,69,,72,,54,,53,,51,,60,,48,,54,,59,,55,,,,
Государственное бюджетное общеобразовательное учреждение города Москвы «Школа № 97»,http://sch97z.mskobr.ru/,http://sch97z.mskobr.ru/files/publichn_otchet_14-15-novyy1.pdf,2015,,65,,,,,,71,,54,,54,,59,,45,,61,,52,,55,,59,,58,,,,
Государственное бюджетное образовательное учреждение города Москвы средняя общеобразовательная школа с углубленным изучением немецкого языка № 1249,http://schs1249.mskobr.ru/,http://schs1249.mskobr.ru/files/%20%D0%BE%D1%82%D1%87%D0%B5%D1%82%202014%20%281%29.pdf,2015,,x,,,,,,,,,,,,,,,,,,,,,,,,,,,,
Государственное бюджетное общеобразовательное учреждение города Москвы «Школа № 924»,http://sch924.mskobr.ru/,http://sch924.mskobr.ru/files/publichnyj_doklad_direktora_2014-20151.pdf,2015,,66,,,,,,73,,93,,42,,,,50,,57,,27,,58,,60,,36,,,,
Государственное бюджетное образовательное учреждение города Москвы средняя общеобразовательная школа № 1905,http://sch1905uv.mskobr.ru/,http://sch1905uv.mskobr.ru/files/%202014-2015%282%29.pdf,2015,,80,,,,,,73.5,,,,68,,60,,54,,65,,80,,56,,58,,59,,,,
Государственное бюджетное общеобразовательное учреждение города Москвы «Школа с углубленным изучением английского языка № 1256 имени героя советского союза И.С.Полбина»,http://sch1256uv.mskobr.ru/,https://drive.google.com/file/d/0B8h1iCXgpBthV3BxdVVrQXdrems/edit,2014,,70,,,,,,72,,,,58,,59,,51,,60,,49,,60,,61,,53,,,,
Государственное бюджетное образовательное учреждение города Москвы средняя общеобразовательная школа с углубленным изучением иностранных языков № 1302,http://schu1302.mskobr.ru/,http://schu1302.mskobr.ru/report/publichnyj_doklad_direktora_2014_2015_uchebnyj_god/,2014,,74,,,,,,77,,,,65,,46,,65,,60,,54,,67,,76,,52,,,,
Государственное бюджетное общеобразовательное учреждение города Москвы «Школа с углубленным изучением английского языка № 1317»,http://sch1317.mskobr.ru/,http://sch1317.mskobr.ru/files/%20%D0%BE%D1%82%D1%87%D0%B5%D1%82%20%D0%B7%D0%B0%202014-2015%20%28%D1%81%D0%B0%D0%B9%D1%82%29.pdf,2015,,82,,,,,,79,,,,65,,63,,56,,62,,58,,64,,77,,,,,,
Государственное бюджетное профессиональное образовательное учреждение города Москвы «Первый московский образовательный комплекс»,1-mok.mskobr.ru,http://1-mok.ru/files/pdf/report/publichnyj-doklad-za-2014-2015-uch-god.pdf,2015,,x,,,,,,,,,,,,,,,,,,,,,,,,,,,,
Государственное бюджетное общеобразовательное учреждение города Москвы «Школа № 224»,http://sch224s.mskobr.ru/,http://sch224s.mskobr.ru/files/public-documents/%D0%9F%D1%83%D0%B1%D0%BB%D0%B8%D1%87%D0%BD%D1%8B%D0%B9_%D0%B4%D0%BE%D0%BA%D0%BB%D0%B0%D0%B4_%D0%93%D0%91%D0%9E%D0%A3_%D0%A1%D0%9E%D0%A8_224_2014-2015.pdf,2015,,70,,,,,,71,,,,61,,87,,53,,71,,59,,60,,62,,71,,,,
Государственное бюджетное общеобразовательное учреждение города Москвы «Гимназия № 201 ордена Трудового Красного Знамени имени Героев Советского Союза Зои и Александра Космодемьянских»,http://gym201s.mskobr.ru/,http://gym201s.mskobr.ru/files/%20%D0%BE%D1%82%D1%87%D0%B5%D1%82_06.10.2015.pdf,2015,,76,,53,,86,,81,,67,,64,,66,,55,,62,,55,,70,,75,,56,,,,
Государственное бюджетное общеобразовательное учреждение города Москвы «Школа с углубленным изучением иностранных языков № 1387»,http://sch1387.mskobr.ru/,http://sch1387.mskobr.ru/report/,2014,,73.9,,,,69,,71.2,,,,61.3,,52.5,,60.2,,56.5,,45,,72,,50.5,,59,,,,
Государственное бюджетное общеобразовательное учреждение города Москвы «Школа № 875»,http://sch875.mskobr.ru/,https://yadi.sk/i/45J4ROj0hbXhH,2015,,,,,,,,71,,,,,,,,,,,,54,,,,,,,,,,
Государственное бюджетное образовательное учреждение города Москвы средняя общеобразовательная школа № 2100,http://sch2100.mskobr.ru/,http://sch2100.mskobr.ru/files/%20%D0%BE%D1%82%D1%87%D0%B5%D1%82%20%282100%29.pdf,2015,,x,,,,,,,,,,,,,,,,,,,,,,,,,,,,
Государственное бюджетное общеобразовательное учреждение города Москвы «Гимназия № 625»,http://gym625uz.mskobr.ru/,ftp://school521.dlinkddns.com/public/site/docs/pub_otchet/%D0%9F%D1%83%D0%B1%D0%BB%D0%B8%D1%87%D0%BD%D1%8B%D0%B9%20%D0%BE%D1%82%D1%87%D0%B5%D1%82%202014-2015%20%D1%83%D1%87%D0%B5%D0%B1%D0%BD%D1%8B%D0%B9%20%D0%B3%D0%BE%D0%B4.pdf,2015,,78,,,,,,74,,,,70,,74,,61,,64,,56,,59,,51,,57,,,,
Государственное бюджетное образовательное учреждение города Москвы средняя общеобразовательная школа с углубленным изучением естественных наук № 1376,http://1376.mskobr.ru/,http://1376.mskobr.ru/files/publichnyj_otchet_za_2014-2015_uchebnyj_god.pdf,2015,,x,,,,,,,,,,,,,,,,,,,,,,,,,,,,
Государственное бюджетное образовательное учреждение города Москвы средняя общеобразовательная школа № 771,http://sch771s.mskobr.ru/,http://sch771s.mskobr.ru/files/GLAVNAYA/%D0%9F%D1%83%D0%B1%D0%BB%D0%B8%D1%87%D0%BD%D1%8B%D0%B9_%D0%B4%D0%BE%D0%BA%D0%BB%D0%B0%D0%B4_2014-2015.pdf,2015,,68.9,,,,,,71,,77,,59,,75,,52,,43,,46,,64,,72,,56,,,,
Государственное бюджетное общеобразовательное учреждение города Москвы «Гимназия № 1799 «Экополис»,http://gym1799.mskobr.ru/,http://gym1799.mskobr.ru/files/0%20%D0%94%D0%BE%D0%BA%D0%BB%D0%B0%D0%B4%20%D1%80%D1%83%D0%BA%D0%BE%D0%B2%D0%BE%D0%B4%D0%B8%D1%82%D0%B5%D0%BB%D1%8F%20%D0%93%D0%B8%D0%BC%D0%BD%D0%B0%D0%B7%D0%B8%D0%B8%20%2B.pdf,2015,,x,,,,,,,,,,,,,,,,,,,,,,,,,,,,
Государственное бюджетное общеобразовательное учреждение города Москвы «Школа № 1995»,http://sch1995uz.mskobr.ru/,http://sch1995uz.mskobr.ru/files/%20%D0%BE%D1%82%D1%87%D0%B5%D1%82%202014-215%20%D1%83%D1%87%D0%B5%D0%B1%D0%BD%D1%8B%D0%B8%CC%86%20%D0%B3%D0%BE%D0%B4.pdf,2015,,77,,,,,,74,,,,67,,65,,54,,60,,57,,55,,63,,55,,,,
Государственное бюджетное образовательное учреждение города Москвы Гимназия № 1536,http://gym1536uz.mskobr.ru/,http://gym1536uz.mskobr.ru/files/publichnyj_otchet_za_2014-2015_uchebnyj_god.pdf,2015,,70,,,,,,75,,62,,60,,64,,54,,55,,51,,57,,51,,55,,,,
Государственное бюджетное общеобразовательное учреждение города Москвы «Школа с углубленным изучением английского языка № 1374»,http://sch1374sv.mskobr.ru/,http://sch1374sv.mskobr.ru/files/%20%D0%B4%D0%BE%D0%BA%D0%BB%D0%B0%D0%B4%20%D0%93%D0%91%D0%9E%D0%A3%20%D0%A1%D0%9E%D0%A8%20%E2%84%961374%20%D0%B7%D0%B0%202013-2014%20%D1%83%D1%87%D0%B5%D0%B1%D0%BD%D1%8B%D0%B9%20%D0%B3%D0%BE%D0%B4%283%29.docx,2014,,x,,,,,,,,,,,,,,,,,,,,,,,,,,,,
"Государственное бюджетное общеобразовательное учреждение города Москвы «Школа № 626 имени Н.И.Сац""",http://sch626uz.mskobr.ru/,http://sch626uz.mskobr.ru/files/publichnyj_doklad_2014-2015_uch_god.pdf,2015,,57,,,,,,65,,37,,51,,58,,43,,41,,46,,54,,58,,51,,,,
Государственное бюджетное общеобразовательное учреждение города Москвы «Школа № 1150 имени Героя Советского Союза К.К. Рокоссовского»,http://sch1150zg.mskobr.ru/,http://sch1150zg.mskobr.ru/files/publichnyj_doklad_ri_s_prilozheniyami_na_sajt.pdf,2015,,x,,,,,,,,,,,,,,,,,,,,,,,,,,,,
Государственное бюджетное общеобразовательное учреждение города Москвы «Школа № 90 «Многопрофильный образовательный комплекс» имени Героя Советского Союза Е.Г.Ларикова»,http://sch90.mskobr.ru/,http://sch90.mskobr.ru/report/,2015,,x,,,,,,,,,,,,,,,,,,,,,,,,,,,,
Государственное бюджетное общеобразовательное учреждение города Москвы «Школа с углубленным изучением английского языка № 1246»,sch1246v.mskobr.ru,http://sch1246v.mskobr.ru/files/%20%D0%BE%D1%82%D1%87%D0%B5%D1%82.docx,2015,,77,,,,,,72,,,,60,,61,,56,,58,,44,,63,,61,,56,,,,
Государственное бюджетное общеобразовательное учреждение города Москвы «Гимназия № 1592»,http://sch1592.mskobr.ru/,http://sch1592.mskobr.ru/files/%D0%9F%D1%83%D0%B1%D0%BB%D0%B8%D1%87%D0%BD%D1%8B%D0%B9%20%D0%BE%D1%82%D1%87%D0%B5%D1%82%20%D0%B7%D0%B0%202014%20%3D%202015%20%D0%B3%D0%BE%D0%B4%20%D0%9A%D0%9E%D0%9C%D0%9F%D0%9B%D0%95%D0%9A%D0%A1.docx,2015,,x,,,,,,,,,,,,,,,,,,,,,,,,,,,,
Государственное бюджетное общеобразовательное учреждение города Москвы «Школа с углубленным изучением английского языка № 1381»,http://sch1381.mskobr.ru/,http://sch1381.mskobr.ru/files/%20%D0%B4%D0%BE%D0%BA%D0%BB%D0%B0%D0%B4%20%D0%B4%D0%B8%D1%80%D0%B5%D0%BA%D1%82%D0%BE%D1%80%D0%B0.pdf,2015,,64,,,,,,69,,40,,59,,55,,48,,54,,48,,37,,26,,50,,,,
Государственное бюджетное общеобразовательное учреждение города Москвы «Шуваловская гимназия № 1448»,http://sch1448.mskobr.ru/,http://sch1448.mskobr.ru/files/%282%29.pdf,2014,,80,,,,,,77,,,,69,,,,,,,,58,,,,,,,,,,
Государственное бюджетное образовательное учреждение города Москвы средняя общеобразовательная школа № 1631,http://sch1631s.mskobr.ru/,http://sch1631s.mskobr.ru/files/june2015/pubRep.pdf,2015,,x,,,,,,,,,,,,,,,,,,,,,,,,,,,,
Государственное бюджетное общеобразовательное учреждение города Москвы «Школа № 950»,http://sch950sv.mskobr.ru/,http://sch950sv.mskobr.ru/files/publ_doklad_2015.pdf,2015,,?,,,,,,,,,,,,,,,,,,,,,,,,,,,,
Государственное бюджетное общеобразовательное учреждение города Москвы «Школа № 536»,http://sch536uz.mskobr.ru/,http://sch536uz.mskobr.ru/files/%20%D0%BE%D1%82%D1%87%D0%B5%D1%82%20%D0%B4%D0%B8%D1%80%D0%B5%D0%BA%D1%82%D0%BE%D1%80%D0%B0%20%28%D0%BE%D1%81%D0%BD%D0%BE%D0%B2%D0%B0%20%D1%81%D0%B0%D0%BC%D0%BE%D0%BE%D0%B1%D1%81%D0%BB%D0%B5%D0%B4%D0%BE%D0%B2%D0%B0%D0%BD%D0%B8%D0%B5%29%202015%20.pdf,2015,,75,,,,,,71,,58,,60,,56,,57,,50,,49,,68,,57,,62,,,,
Государственное бюджетное общеобразовательное учреждение города Москвы «Школа с углубленным изучением отдельных предметов № 1973»,http://1973.mskobr.ru/,http://1973.mskobr.ru/files/%D0%9F%D1%83%D0%B1%D0%BB%D0%B8%D1%87%D0%BD%D1%8B%D0%B9%20%D0%B4%D0%BE%D0%BA%D0%BB%D0%B0%D0%B4%202014-2015.doc,2015,,76,,,,,,77,,59,,60,,68,,48,,64,,53,,62,,70,,65,,,,
Государственное бюджетное общеобразовательное учреждение города Москвы «Школа с углубленным изучением иностранного (английского) языка № 1241»,http://sch1241.mskobr.ru/,http://sch1241.mskobr.ru/files/publichnyy-doklad-direktora.pdf,2014,,66,,,,,,71,,,,61,,61,,50,,,,52,,51,,72,,27,,,,
Государственное бюджетное образовательное учреждение города Москвы средняя общеобразовательная школа № 167 имени Маршала Л.А.Говорова,http://sch167s.mskobr.ru/,http://sch167s.mskobr.ru/files/%D0%BD%D0%BE%D0%B2%D0%B0%D1%8F_%D0%BF%D0%B0%D0%BF%D0%BA%D0%B0/%D0%B4%D0%BE%D0%BA%D0%B8/%D0%9F%D1%83%D0%B1%D0%BB%D0%B8%D1%87%D0%BD%D1%8B%D0%B9_%D0%B4%D0%BE%D0%BA%D0%BB%D0%B0%D0%B4_PDF.pdf,2015,,61,,95,,80,,73,,54,,59,,62,,48,,56,,50,,59,,59,,56,,,,
Государственное бюджетное общеобразовательное учреждение города Москвы «Школа с углубленным изучением английского языка № 1319»,http://sch1319.mskobr.ru/,http://sch1319.mskobr.ru/files/%20%D0%B4%D0%BE%D0%BA%D0%BB%D0%B0%D0%B4%202014-2015.pdf,2015,,85,,95,,,,83,,,,69,,71,,62,,75,,63,,76,,84,,64,,,,
Частное образовательное учреждение средняя общеобразовательная школа «Ломоносовская школа»,http://lomon.mskobr.ru/,x,,,,,,,,,,,,,,,,,,,,,,,,,,,,,,,
Государственное бюджетное образовательное учреждение города Москвы средняя общеобразовательная школа с углубленным изучением английского языка № 1280,http://sch1280uz.mskobr.ru/,http://sch1280uz.mskobr.ru/files/%D0%94%D0%BE%D0%BA%D1%83%D0%BC%D0%B5%D0%BD%D1%82%D1%8B/publichnyj_otchet_gbou_sosh_1280.pdf,2014,,x,,,,,,,,,,,,,,,,,,,,,,,,,,,,
Государственное бюджетное общеобразовательное учреждение города Москвы «Школа с углубленным изучением английского языка №1383»,http://sch1383.mskobr.ru/,http://sch1383.mskobr.ru/files/publichniy%20otchet.docx,2015,,x,,,,,,,,,,,,,,,,,,,,,,,,,,,,
Государственное бюджетное образовательное учреждение города Москвы средняя общеобразовательная школа с углубленным изучением иностранного языка № 1232,http://sch1232.mskobr.ru/,x,,,,,,,,,,,,,,,,,,,,,,,,,,,,,,,
Государственное бюджетное общеобразовательное учреждение города Москвы «Школа № 183»,http://sch183.mskobr.ru/,http://sch183.mskobr.ru/files/___%D0%B4%D0%BE%D0%BA%D0%BB%D0%B0%D0%B4__%D1%80%D0%B5%D0%B4%D0%B0%D0%BA%D1%86%D0%B8%D1%8F_28082015.pdf,2015,,69,,,,,,75,,,,56,,,,52,,54,,45,,62,,64,,50,,,,
Государственное бюджетное образовательное учреждение города Москвы средняя общеобразовательная школа с углубленным изучением информатики и английского языка № 1307,http://sch1307.mskobr.ru/,http://sch1307.mskobr.ru/files/%20%D0%B4%D0%BE%D0%BA%D0%BB%D0%B0%D0%B4%20%D0%93%D0%91%D0%9E%D0%A3%20%D0%A1%D0%9E%D0%A8%20%E2%84%96%201307%20%D0%B7%D0%B0%202015%20%D0%B3%D0%BE%D0%B4.pdf,2015,,?,,,,,,,,,,,,,,,,,,,,,,,,,,,,
Государственное бюджетное общеобразовательное учреждение города Москвы «Школа с углубленным изучением английского языка № 1297»,schuc1297.mskobr.ru,http://schuc1297.mskobr.ru/files/publichnyj_doklad_rukovoditelya_ou.pdf,2015,,,,,,,,76,,,,68,,68,,,,,,48,,63,,,,60,,,,
Государственное бюджетное образовательное учреждение города Москвы средняя общеобразовательная школа № 180,http://sch180sv-new.mskobr.ru/,http://sch180sv-new.mskobr.ru/report/,2015,,x,,,,,,,,,,,,,,,,,,,,,,,,,,,,
Государственное бюджетное образовательное учреждение города Москвы гимназия № 402 имени АлииМолдагуловой,http://sch402.mskobr.ru/,http://sch402.mskobr.ru/report/,2014,,x,,,,,,,,,,,,,,,,,,,,,,,,,,,,
Государственное бюджетное общеобразовательное учреждение города Москвы «Школа № 2001»,http://sch2001u.mskobr.ru/,http://sch2001u.mskobr.ru/files/publichnyj_doklad_direktora.pdf,2014,,68.7,,,,,,76.2,,82,,63,,64.9,,57.4,,65.6,,52,,62.4,,61.2,,49.25,,,,
Государственное бюджетное общеобразовательное учреждение города Москвы «Лицей № 1451»,http://lyc1451u.mskobr.ru/,http://lyc1451u.mskobr.ru/files/publichnyi_doklad_2015.docx,2015,,66,,,,,,74,,73,,63,,58,,55,,,,49,,46,,49,,49,,,,
Государственное бюджетное образовательное учреждение города Москвы средняя общеобразовательная школа № 1948 «Лингвист-м»,http://sch1948uz.mskobr.ru/,http://sch1948uz.mskobr.ru/files/publichnyj_otchet_za_2014-2015_uchebnyj_god.pdf,2015,,66,,,,,,74,,55,,61,,50,,54,,50,,48,,60,,67,,49,,,,
Государственное бюджетное общеобразовательное учреждение города Москвы «Школа с углубленным изучением отдельных предметов № 1392 имени Д.В.Рябинкина»,http://schtn1392.mskobr.ru/,http://schtn1392.mskobr.ru/files/publichnyj_otchyot_za_20142015_uch.docx,2015,,63,,,,,,,,54,,49,,57,,46,,45,,,,48,,50,,48,,,,
"Государственное бюджетное общеобразовательное учреждение города Москвы «Школа № 937 имени Героя Российской Федерации А.В. Перова""",http://sch937u.mskobr.ru/,http://sch937u.mskobr.ru/files/%20%D0%BE%D1%82%D1%87%D1%91%D1%82_%D0%B3%D0%BE%D1%82%D0%BE%D0%B2%D1%8B%D0%B9.doc,2015,,74,,,,,,68,,47,,53,,59,,39,,48,,49,,63,,52,,58,,,,
Государственное бюджетное общеобразовательное учреждение города Москвы «Школа № 648»,http://sch648.mskobr.ru/,http://sch648.mskobr.ru/files/_%D0%BE%D1%82%D1%87%D0%B5%D1%82_2015.pdf,2015,,x,,,,,,,,,,,,,,,,,,,,,,,,,,,,
Государственное бюджетное общеобразовательное учреждение города Москвы Гимназия № 2072,http://sch2072v.mskobr.ru/,http://sch2072v.mskobr.ru/files/pd_2014.pdf,2014,,63,,69,,,,69,,,,58.3,,51.2,,52,,63.7,,49,,62,,68.6,,45,,,,
Государственное бюджетное общеобразовательное учреждение города Москвы «Школа № 166»,http://sch166.mskobr.ru/,http://sch166.mskobr.ru/files/publichnyj_doklad_direktora_2014-2015_god_13.pdf,2015,,?,,,,,,,,,,,,,,,,,,,,,,,,,,,,
Государственное бюджетное образовательное учреждение города Москвы средняя общеобразовательная школа № 806,http://sch806.mskobr.ru/,https://yadi.sk/i/iNOzWYpriVrbG,2015,,51,,,,,,68,,55,,49,,66,,42,,42,,39,,58,,48,,51,,,,
Государственное бюджетное общеобразовательное учреждение города Москвы «Школа № 1716 «Эврика-огонек»,http://sch1716uv.mskobr.ru/,http://sch1716uv.mskobr.ru/files/%20%D0%B4%D0%BE%D0%BA%D0%BB%D0%B0%D0%B4%202014-2015%20%D0%B3..doc,2015,,,,,,,,73,,,,60,,66,,,,,,40,,73,,,,65,,,,
Государственное бюджетное общеобразовательное учреждение города Москвы «Школа № 1861 «Загорье»»,http://sch1861u.mskobr.ru/,http://sch1861u.mskobr.ru/files/doklad1.pdf,2015,,72,,,,,,72,,64,,64,,56,,55,,62,,44,,61,,60,,59,,,,
Государственное бюджетное общеобразовательное учреждение города Москвы «Гмназия № 1596»,http://gym1596.mskobr.ru/,http://gym1596.mskobr.ru/files/publ.docx,2015,,68,,,,,,70,,,,59,,63,,54,,60,,48.9,,53,,49,,56,,,,
Государственное бюджетное общеобразовательное учреждение города Москвы «Школа № 718»,http://sch718zg.mskobr.ru/,http://sch718zg.mskobr.ru/files/_718-2015.pdf,2015,,68.4,,,,,,73.4,,-,,64.4,,54.2,,49,,-,,58.3,,65.3,,66.2,,56.4,,,,
Муниципальное автономное общеобразовательное учреждение «Гимназия г. Троицка»,http://gymtroitska.mskobr.ru/,http://gymtroitska.mskobr.ru/files/publichnyj_doklad_2014-2015_uch_g.pdf,2015,,70,,,,,,72,,52,,63,,58,,62,,69,,52,,70,,69,,51,,,,
Государственное бюджетное общеобразовательное учреждение города Москвы «Школа № 1391»,http://schtn1391.mskobr.ru/,http://schtn1391.mskobr.ru/files/%202014.pdf,2014,,60,,,,,,65,,54.5,,57,,35,,,,52.7,,42.6,,55,,52,,45.3,,,,
Государственное бюджетное образовательное учреждение города Москвы средняя общеобразовательная школа с углубленным изучением английского языка № 1415,http://sch1415sv.mskobr.ru/,http://sch1415sv.mskobr.ru/files/%D0%9F%D1%83%D0%B1%D0%BB.%D0%B4%D0%BE%D0%BA%D0%BB%D0%B0%D0%B4%202015.pdf,2015,,77.2,,,,,,77,,65,,69,,66,,61,,82,,61,,68,,71,,62,,,,
Государственное бюджетное общеобразовательное учреждение города Москвы «Школа № 949»,http://sch949u.mskobr.ru/,x,,,,,,,,,,,,,,,,,,,,,,,,,,,,,,,
Государственное бюджетное общеобразовательное учреждение города Москвы «Московский культурологический лицей № 1310»,http://lyc1310.mskobr.ru/,http://lyc1310.mskobr.ru/files/%20%D0%B4%D0%BE%D0%BA%D0%BB%D0%B0%D0%B4%20%202015%281%29.pdf,2015,,64.8,,,,,,78.1,,,,59.39,,66.1,,79.9,,60,,40.1,,71,,43.4,,46,,,,
Государственное бюджетное образовательное учреждение города Москвы средняя общеобразовательная школа № 1056,http://sch1056sz.mskobr.ru/,http://sch1056sz.mskobr.ru/files/%D0%BD%D0%BE%D0%B2%D0%BE%D1%81%D1%82%D0%B8/%D0%9F%D1%83%D0%B1%D0%BB%D0%B8%D1%87%D0%BD%D1%8B%D0%B9%20%D0%B4%D0%BE%D0%BA%D0%BB%D0%B0%D0%B4%202015.pdf,2015,,71,,69,,,,70,,,,58,,60,,53,,61,,53,,48,,65,,55,,,,
Государственное бюджетное образовательное учреждение города Москвы средняя общеобразовательная школа № 2103,http://sch2103uz.mskobr.ru/,http://sch2103uz.mskobr.ru/files/%20%D0%BC%D0%B0%D1%82%D0%B5%D1%80%D0%B8%D0%B0%D0%BB%D1%8B%20%D0%BA%20%D0%BF%D1%83%D0%B1%D0%BB%D0%B8%D1%87%D0%BD%D0%BE%D0%BC%D1%83%20%D0%BE%D1%82%D1%87%D0%B5%D1%82%D1%83%20%20%D0%93%D0%91%D0%9E%D0%A3%20%D0%A1%D0%9E%D0%A8%20%E2%84%962103%281%29.pdf,2014,,x,,,,,,,,,,,,,,,,,,,,,,,,,,,,
Государственное бюджетное общеобразовательное учреждение города Москвы «Школа с углубленным изучением английского языка № 1250»,http://sch1250s.mskobr.ru/,http://sch1250s.mskobr.ru/files/%20%D0%B4%D0%BE%D0%BA%D0%BB%D0%B0%D0%B4%202014_2015.pdf,2015,,x,,,,,,,,,,,,,,,,,,,,,,,,,,,,
Государственное бюджетное образовательное учреждение города Москвы средняя общеобразовательная школа № 1143,http://sch1143uv.mskobr.ru/,http://sch1143uv.mskobr.ru/report/,2014,,61,,,,49,,65.9,,,,54.1,,54.9,,47,,54.1,,40.9,,57,,56.9,,42.4,,,,
Государственное бюджетное образовательное учреждение города Москвы средняя общеобразовательная школа № 597,http://sch597s.mskobr.ru/,http://sch597s.mskobr.ru/files/%20%D0%B4%D0%BE%D0%BA%D0%BB%D0%B0%D0%B4%202014-2015.pdf,2015,,80,,,,,,77,,73,,66,,75,,46,,81,,57,,90,,89,,80,,,,
Государственное бюджетное общеобразовательное учреждение города Москвы «Школа № 867»,http://sch867u.mskobr.ru/,http://sch867.edusite.ru/index1/direktor/2014-2015.pdf,2015,,63,,,,,,69,,57,,59,,0,,52,,51,,52,,59,,60,,56,,,,
Государственное бюджетное общеобразовательное учреждение города Москвы «Школа № 825»,http://sch825uv.mskobr.ru/,http://sch825uv.mskobr.ru/files/publichnyj_doklad_za_2014-2015_uchebnyj_god.pdf,2015,,77.38,,,,,,69.8,,53.5,,58.03,,72,,59.88,,57,,46.03,,66.22,,66.64,,54,,,,
Государственное бюджетное общеобразовательное учреждение города Москвы «Школа № 508»,http://sch508u.mskobr.ru/,http://sch508u.mskobr.ru/files/publichnyj_doklad_za_2014-2015_uch_g.docx,2015,,61,,,,,,71,,56,,64,,64,,65,,61.6,,50,,78,,58,,60.5,,,,
Государственное бюджетное образовательное учреждение города Москвы средняя общеобразовательная школа с углубленным изучением иностранных языков № 1399,http://schu1399.mskobr.ru/,http://schu1399.mskobr.ru/report/,2015,,,,,,,,78,,78,,66,,,,,,,,53,,50,,,,61,,,,
Государственное бюджетное образовательное учреждение города Москвы Вешняковская лингвистическая гимназия № 1389,http://sch1389u.mskobr.ru/,https://yadi.sk/i/OvQHsIjBimroH,2015,,77,,,,,,72,,69,,60,,57,,46,,67,,54,,60,,65,,54,,,,
Государственное бюджетное общеобразовательное учреждение города Москвы «Школа с углубленным изучением английского языка № 1213»,http://sch1213s.mskobr.ru/,http://sch1213s.mskobr.ru/files/kompleksnyj_analiz.pdf,2015,,x,,,,,,,,,,,,,,,,,,,,,,,,,,,,
Государственное бюджетное образовательное учреждение города Москвы средняя общеобразовательная школа № 1985,http://sch1985.mskobr.ru/,http://sch1985.mskobr.ru/files/%20%D0%BE%D1%82%D1%87%D0%B5%D1%82%202015.pdf,2015,,72.5,,,,,,,,,,53,,54,,44,,53,,49,,75,,62,,59,,,,
Государственное бюджетное общеобразовательное учреждение города Москвы «Школа с углубленным изучением иностранных языков № 1242»,http://sch1242u.mskobr.ru/,http://sch1242u.mskobr.ru/report/,2015,,75,,,,,,72.1,,64.5,,59.7,,69.3,,55.8,,70,,45.5,,53.7,,67.5,,46,,,,
Государственное бюджетное общеобразовательное учреждение города Москвы «Школа с углубленным изучением английского языка № 1371»,http://sch1371z.mskobr.ru/,http://sch1371z.mskobr.ru/files/attach_files/otchet_2015.docx,2015,,x,,,,,,,,,,,,,,,,,,,,,,,,,,,,
Государственное бюджетное общеобразовательное учреждение города Москвы «Школа № 64»,http://sch64.mskobr.ru/,http://www.youblisher.com/p/1209928-%D0%9F%D1%83%D0%B1%D0%BB%D0%B8%D1%87%D0%BD%D1%8B%D0%B9-%D0%B4%D0%BE%D0%BA%D0%BB%D0%B0%D0%B4/,2015,,63,,,,,,76,,,,60,,52,,55,,59,,48,,65,,64,,52,,,,
Государственное бюджетное общеобразовательное учреждение города Москвы «Инженерно-техническая школа имени дважды Героя Советского Союза П.Р.Поповича»,http://itschool.mskobr.ru/,http://itschool.mskobr.ru/files/%20%D0%B4%D0%BE%D0%BA%D0%BB%D0%B0%D0%B4%20227%282%29.pdf,2015,,,,,,,,58,,53,,52,,43,,43,,27,,25,,40,,50,,39,,,,
Государственное бюджетное общеобразовательное учреждение города Москвы «Школа с углубленным изучением отдельных предметов № 1466 имени Надежды Рушевой»,http://sch1466u.mskobr.ru/,http://sch1466u.mskobr.ru/files/publichnyj_doklad_2014-2015gg.pdf,2015,,76,,,,,,63,,,,49,,63,,47,,38,,45,,43,,44,,44,,,,
Государственное бюджетное общеобразовательное учреждение города Москвы «Школа с углубленным изучением информационных технологий № 1368»,http://sch1368uz.mskobr.ru/,http://sch1368uz.mskobr.ru/report/,2014,,x,,,,,,,,,,,,,,,,,,,,,,,,,,,,
Государственное бюджетное общеобразовательное учреждение города Москвы «Школа № 417»,http://sch417uv.mskobr.ru/,http://sch417uv.mskobr.ru/files/analiz_raboty_gbou_shkoly_417_7.pdf,2015,,x,,,,,,,,,,,,,,,,,,,,,,,,,,,,
Государственное бюджетное образовательное учреждение города Москвы средняя общеобразовательная школа с углубленным изучением отдельных предметов № 1421,http://sch1421uv.mskobr.ru/,http://sch1421uv.mskobr.ru/files/Pub_doklad_2014_15.pdf,2015,,66,,,,,,76,,,,65,,,,64,,63,,50,,69,,70,,59,,,,
Государственное бюджетное общеобразовательное учреждение города Москвы «Школа № 324 «Жар-птица»,http://sch324.mskobr.ru/,http://sch324.mskobr.ru/files/%20%D0%B4%D0%BE%D0%BA%D0%BB%D0%B0%D0%B4%20%20%D0%B7%D0%B0%202014-2015%20%D1%83%D1%87%D0%B5%D0%B1%D0%BD%D1%8B%D0%B9%20%D0%B3%D0%BE%D0%B4%20%D1%81%20%D0%BE%D0%B3%D0%BB.-0.pdf,2015,,79,,,,,,76,,,,66,,56,,68,,64,,49,,52,,67,,56,,,,
Государственное бюджетное общеобразовательное учреждение города Москвы «Школа № 830»,http://sch830sz.mskobr.ru/,http://sch830sz.mskobr.ru/report/,2014,,,,,,,,65,,,,51,,43,,61,,60,,45,,54,,51,,65,,,,
Государственное бюджетное общеобразовательное учреждение города Москвы «Школа № 1739»,http://sch1739zg.mskobr.ru/,http://sch1739zg.mskobr.ru/files/1555/publ_dokld_2014-2015.pdf,2015,,70,,,,,,74,,,,57,,61,,60,,53,,57,,59,,50,,69,,,,
Государственное бюджетное общеобразовательное учреждение города Москвы «Центр образования «Бескудниковский»,http://cob.mskobr.ru/,http://cob.mskobr.ru/files/publichnyj_doklad_2014-2015.pdf,2015,,72,,,,,,70,,,,56,,59,,,,,,45,,,,,,55,,,,
Государственное бюджетное образовательное учреждение города Москвы средняя общеобразовательная школа № 629,http://sch629u.mskobr.ru/,http://sch629u.mskobr.ru/files/%20%D0%94%D0%9E%D0%9A%D0%9B%D0%90%D0%94%202014-2015%D1%83%D1%87.%D0%B3%203.pdf,2015,,66,,,,,,66,,60,,61,,49,,56,,47,,44,,60,,52,,52,,,,
Государственное бюджетное общеобразовательное учреждение города Москвы «Гимназия № 1593»,http://sch1593.mskobr.ru/,http://sch1593.mskobr.ru/report/2014-2015_uchebnyj_god/,2015,,81,,,,,,76,,,,62,,59,,60,,49,,50,,70,,67,,58,,,,
Государственное бюджетное образовательное учреждение города Москвы средняя общеобразовательная школа № 72,http://sch72.mskobr.ru/,http://sch72.mskobr.ru/files/gosudarstvennoe_byudzhetnoe_obweobrazovatel_noe_uchrezhdenie_g_moskvy.pdf,2015,,55,,,,,,77,,68,,59,,63,,46,,61,,51,,66,,58,,65,,,,
Государственное бюджетное общеобразовательное учреждение города Москвы «Гимназия № 1526»,http://gymu1526.mskobr.ru/,http://gymu1526.mskobr.ru/report/,2015,,80,,,,,,79.38,,,,65,,64,,47,,81,,48,,74,,64,,55,,,,
Государственное бюджетное общеобразовательное учреждение города Москвы «Школа № 1770»,http://sch1770.mskobr.ru/,http://sch1770.mskobr.ru/files/publichnyj_doklad_2014-2015.pdf,2015,,55,,,,,,77,,68,,59,,63,,46,,61,,51,,66,,58,,65,,,,
Государственное бюджетное образовательное учреждение города Москвы средняя общеобразовательная школа № 2092 имени И.Н.Кожедуба,http://sch2092uv.mskobr.ru/,http://sch2092uv.mskobr.ru/files/%20%D0%BD%D0%BE%D0%B2%D0%B0%D1%8F%20%D1%81%D0%BF%D1%80%D0%B0%D0%B2%D0%BA%D0%B0%20%D0%BE%20%D1%80%D1%83%D0%BA%D0%BE%D0%B2%D0%BE%D0%B4%D0%B8%D1%82%D0%B5%D0%BB%D0%B52015%20%D0%BD%D0%B0%206%20%D0%B8%D1%8E%D0%BD%D1%8F.doc,2015,,x,,,,,,,,,,,,,,,,,,,,,,,,,,,,
Государственное бюджетное общеобразовательное учреждение города Москвы «Школа № 1133»,http://sch1133.mskobr.ru/,http://sch1133.mskobr.ru/files/publichnii%20doklad.pdf,2015,,66,,,,,,69,,,,54,,59,,50,,51,,38,,72,,61,,51,,,,
Государственное бюджетное общеобразовательное учреждение города Москвы «Школа № 1130»,http://sch1130.mskobr.ru/,http://sch1130.mskobr.ru/files/%D0%9F%D1%83%D0%B1%D0%BB%D0%B8%D1%87%D0%BD%D1%8B%D0%B9%20%D0%BE%D1%82%D1%87%D0%B5%D1%82%202015.docx,2015,,62,,,,,,70,,,,57,,,,46,,,,48,,82,,48,,58,,,,
Государственное бюджетное общеобразовательное учреждение города Москвы «Школа № 1394 «Воспитательно- образовательный центр «На набережной»,http://sch1394uv.mskobr.ru/,http://sch1394uv.mskobr.ru/files/%202015.pdf,2015,,x,,,,,,,,,,,,,,,,,,,,,,,,,,,,
Государственное бюджетное общеобразовательное учреждение города Москвы «Школа № 854»,http://sch854zg.mskobr.ru/,http://sch854zg.mskobr.ru/files/document/doklad_2015_854_2.pdf,2015,,73.8,,,,,,66.1,,,,50.7,,51.6,,52.8,,53.7,,45.1,,60.5,,60,,47.8,,,,
Государственное бюджетное общеобразовательное учреждение города Москвы средняя общеобразовательная школа № 556,http://sch556u.mskobr.ru/,http://sch556u.mskobr.ru/files/PD_14-15.pdf,2015,,71,,,,,,,,51,,63,,44,,68,,44,,,,58,,60,,58,,,,
Государственное бюджетное образовательное учреждение города Москвы средняя общеобразовательная школа № 870,http://schsv870u.mskobr.ru/,http://schsv870u.mskobr.ru/report/,2014,,x,,,,,,,,,,,,,,,,,,,,,,,,,,,,
Государственное бюджетное общеобразовательное учреждение города Москвы «Школа № 2075»,http://sch2075.mskobr.ru/,http://sch2075.mskobr.ru/files/publichnyj_doklad.pdf,2015,,53,,,,,,66,,63,,54,,53,,36,,50,,38,,34,,57,,46,,,,
Государственное бюджетное общеобразовательное учреждение города Москвы «Школа № 656 имени А.С.Макаренко»,http://sch656.mskobr.ru/,http://sch656.mskobr.ru/report/,2015,,75,,,,,,74,,,,64,,65,,58,,54,,56,,64,,69,,50,,,,
Государственное бюджетное общеобразовательное учреждение города Москвы «Школа № 1497»,http://sch1497.mskobr.ru/,http://sch1497.mskobr.ru/files/%20%D0%B4%D0%BE%D0%BA%D0%BB%D0%B0%D0%B4%202014-2015.pdf,2015,,75,,,,,,71,,85,,61,,49,,53,,53,,48,,54,,78,,53,,,,
Государственное бюджетное образовательное учреждение города Москвы средняя общеобразовательная школа с углубленным изучением немецкого языка № 1212,http://sch1212sz.mskobr.ru/,http://sch1212sz.mskobr.ru/report/,2014,,66,,,,73,,70,,100,,56,,62,,56,,,,43,,26,,58,,48,,,,
Государственное бюджетное общеобразовательное учреждение города Москвы «Школа № 534»,http://sch534.mskobr.ru/,http://sch534.mskobr.ru/files/%202013-2014.pdf,2014,,x,,,,,,,,,,,,,,,,,,,,,,,,,,,,
Государственное бюджетное образовательное учреждение города Москвы средняя общеобразовательная школа № 777,http://sch777uv.mskobr.ru/,http://sch777uv.mskobr.ru/files/dokymenti/pyblichniy_doklad2015.pdf,2015,,72.4,,,,,,67,,,,52,,58,,48.7,,58,,41,,55.1,,55.6,,55,,,,
Государственное бюджетное общеобразовательное учреждение города Москвы «Школа № 773 «Центр образования «Печатники»,http://sch773uv.mskobr.ru/,http://sch773uv.mskobr.ru/report/,2015,,x,,,,,,,,,,,,,,,,,,,,,,,,,,,,
Государственное бюджетное образовательное учреждение города Москвы средняя общеобразовательная школа № 1959 «Дети мира»,http://sch1959uv.mskobr.ru/,https://yadi.sk/i/udqmj1YMeeggw,2015,,x,,,,,,,,,,,,,,,,,,,,,,,,,,,,
Федеральное государственное бюджетное общеобразовательное учреждение «Средняя общеобразовательная школа № 91»,http://schc91.mskobr.ru/,x,,,,,,,,,,,,,,,,,,,,,,,,,,,,,,,
Государственное бюджетное общеобразовательное учреждение города Москвы «Гимназия № 1798 «Феникс»,1798.mskobr.ru,http://1798.mskobr.ru/files/publichnyj_otchet.pdf,2015,,x,,,,,,,,,,,,,,,,,,,,,,,,,,,,
Государственное бюджетное общеобразовательное учреждение города Москвы «Школа № 14»,http://sch14.mskobr.ru/,http://sch14.mskobr.ru/report/,2015,,x,,,,,,,,,,,,,,,,,,,,,,,,,,,,
Государственное бюджетное общеобразовательное учреждение города Москвы «Школа № 1028»,http://sch1028v.mskobr.ru/,http://sch1028v.mskobr.ru/report/,2014,,72.8,,,,,,70.6,,,,56.7,,67.3,,49.3,,68.4,,56.1,,69.4,,59.3,,48.7,,,,
Государственное бюджетное общеобразовательное учреждение города Москвы «Школа № 426»,http://sch426u.mskobr.ru/,http://sch426u.mskobr.ru/files/%202014-2015%20%D1%83.%D0%B3..pptx,2015,,x,,,,,,,,,,,,,,,,,,,,,,,,,,,,
Государственное бюджетное общеобразовательное учреждение города Москвы «Школа № 460 имени дважды Героя Советского Союза А.А.Головачёва»,http://sch460uv.mskobr.ru/,http://sch460uv.mskobr.ru/files/%20%D0%BE%D1%82%D1%87%D0%B5%D1%82%202014-2015%281%29.doc,2015,,78,,95,,,,71,,73,,53,,69,,52,,48,,49,,51,,54,,57,,,,
Государственное бюджетное общеобразовательное учреждение города Москвы «Школа № 118»,http://sch118uz.mskobr.ru/,http://sch118uz.mskobr.ru/files/%20%D0%B4%D0%BE%D0%BA%D0%BB%D0%B0%D0%B4%20%D0%A1%D0%9E%D0%A8%20%E2%84%96%20118-1.pdf,2014,,x,,,,,,,,,,,,,,,,,,,,,,,,,,,,
Государственное бюджетное образовательное учреждение города Москвы средняя общеобразовательная школа № 1935,http://sch1935uv.mskobr.ru/,http://sch1935uv.mskobr.ru/files/%20%D0%B4%D0%BE%D0%BA%D0%BB%D0%B0%D0%B4%20%202015%20%D0%9D%D0%9E%D0%92%D0%AB%D0%99%21.pdf,2015,,70,,,,,,73,,,,63,,61,,69,,63,,54,,65,,77,,67,,,,
Государственное бюджетное общеобразовательное учреждение города Москвы «Школа № 1179»,http://sch1179u.mskobr.ru/,http://sch1179u.mskobr.ru/files/publ_doklad_13_14.pdf,2014,,75,,,,,,74,,,,57,,64,,74,,71,,57.3,,,,91,,52.2,,,,
Государственное бюджетное образовательное учреждение города Москвы средняя общеобразовательная школа № 2094,http://sch2094.mskobr.ru/,http://sch2094.mskobr.ru/files/publ_otchet_14-15.pdf,2015,,x,,,,,,,,,,,,,,,,,,,,,,,,,,,,
Государственное бюджетное общеобразовательное учреждение города Москвы «Школа № 329»,http://sch329uv.mskobr.ru/,https://drive.google.com/file/d/0ByzJYARQWG1bX3RwV3FrOGZXUjQ/view,2015,,70,,,,,,67,,79,,53,,49,,43,,36,,45,,55,,61,,45,,,,
Государственное бюджетное общеобразовательное учреждение города Москвы «Школа № 1465 имени Адмирала Н.Г.Кузнецова»,http://sch1465.mskobr.ru/,http://sch1465.mskobr.ru/files/%20%D0%B4%D0%BE%D0%BA%D0%BB%D0%B0%D0%B4%20%D1%80%D1%83%D0%BA%D0%BE%D0%B2%D0%BE%D0%B4%D0%B8%D1%82%D0%B5%D0%BB%D1%8F%20%D0%BF%D0%BE%20%D0%BC%D0%B0%D1%82%D0%B5%D1%80%D0%B8%D0%B0%D0%BB%D0%B0%D0%BC%202013-14%20%D1%83%D1%87%20%D0%B3%D0%BE%D0%B4%D0%B0.pdf,2014,,70,,,,,,68,,91,,62,,59,,59,,,,43,,,,60,,54,,,,
Негосударственное образовательное учреждение школа «Ника»,http://nounika.mskobr.ru/,http://nounika.mskobr.ru/files/%D0%9F%D1%83%D0%B1%D0%BB%D0%B8%D1%87%D0%BD%D1%8B%D0%B9%20%D0%B4%D0%BE%D0%BA%D0%BB%D0%B0%D0%B4%202014%20%D0%9D%D0%98%D0%9A%D0%90.docx,2014,,70.5,,,,,,82.2,,69,,65,,52.3,,67,,,,62,,79.3,,84,,48,,,,
Государственное бюджетное образовательное учреждение города Москвы средняя общеобразовательная школа № 2091,http://sch2091.mskobr.ru/,http://sch2091.mskobr.ru/files/%20%D0%BE%D1%82%D1%87%D0%B5%D1%82%20%D0%93%D0%91%D0%9E%D0%A3%20%D0%A1%D0%9E%D0%A8%20%E2%84%962091%20%D0%B7%D0%B0%202014-15.pdf,2015,,60,,,,,,70,,44,,55,,68,,45,,40,,40,,63,,72,,58,,,,
Государственное бюджетное образовательное учреждение города Москвы средняя общеобразовательная школа с углубленным изучением английского языка и музыки № 368 «Лосиный остров»,http://sch368.mskobr.ru/,http://sch368.mskobr.ru/files/%2025.08.15.pdf,2015,,84,,,,,,82.6,,,,65,,,,47,,63,,68,,60,,70,,83,,,,
Государственное бюджетное общеобразовательное учреждение города Москвы «Школа № 63»,http://sch63.mskobr.ru/,x,,,,,,,,,,,,,,,,,,,,,,,,,,,,,,,
Государственное бюджетное общеобразовательное учреждение города Москвы «Школа с углубленным изучением английского языка № 1362»,http://sch1362.mskobr.ru/,http://sch1362.mskobr.ru/files/%D0%BF%D1%83%D0%B1%D0%BB%D0%B8%D1%87%D0%BD%D1%8B%D0%B9%20%D0%B4%D0%BE%D0%BA%D0%BB%D0%B0%D0%B4.pdf,2015,,x,,,,,,,,,,,,,,,,,,,,,,,,,,,,
Государственное бюджетное образовательное учреждение города Москвы Центр образования № 1953 «Москва-98»,http://sch1953.mskobr.ru/,http://st.educom.ru//eduoffices/gateways/get_file.php?id={4D432378-2413-4DB1-A6A7-57BF9F1CAE87}&name=%D0%90naliz-raboty--%D0%93%D0%91%D0%9E%D0%A3-%D0%A6%D0%9E-2013-2014.pdf,2014,,,,,,,,,,,,,,,,,,,,,,,,,,,,,,
Государственное бюджетное образовательное учреждение города Москвы центр образования № 1816,http://co1816.mskobr.ru/,http://co1816.mskobr.ru/report/,2014,,79,,,,,,83,,81,,65,,62,,52,,75,,56,,53,,87,,61,,,,
Государственное бюджетное образовательное учреждение города Москвы средняя общеобразовательная школа № 121,http://sch121uz.mskobr.ru/,http://sch121uz.mskobr.ru/files/080104-1.pdf,2015,,67,,,,,,69,,67,,56,,55,,50,,48,,50,,60,,52,,53,,,,
Государственное бюджетное общеобразовательное учреждение города Москвы «Школа № 1100»,http://sch1100uz.mskobr.ru/,http://sch1100uz.mskobr.ru/files/%20%D0%9E%D0%A2%D0%A7%D0%81%D0%A2%20%D0%B7%D0%B0%202014-2015%20%D1%83%D1%87%D0%B5%D0%B1%D0%BD%D1%8B%D0%B9%20%D0%B3%D0%BE%D0%B4%281%29.pdf,2015,,,,,,,,72,,64,,66.3,,64,,69,,60,,44,,62,,64,,51.3,,,,
Государственное бюджетное образовательное учреждение города Москвы центр образования «Школа здоровья» № 1679,http://co1679s.mskobr.ru/,http://co1679s.mskobr.ru/files/.%D0%B4%D0%BE%D0%BA%D0%BB.14-15%201679%281%29.pdf,2015,,66,,,,,,74,,,,61,,55,,47,,61,,56,,55,,58,,62,,,,
Государственное бюджетное общеобразовательное учреждение города Москвы «Школа № 1015»,http://sch1015z.mskobr.ru/,https://drive.google.com/file/d/0B3A-Q3nMhpq6VjIxRW4xbzd1Z1E/edit,2014,,,,,,,,68,,,,57,,53,,45,,60,,48,,66,,57,,46,,,,
Государственное бюджетное образовательное учреждение города Москвы средняя общеобразовательная школа № 956,http://sch956sv-new.mskobr.ru/,http://sch956sv-new.mskobr.ru/files/public/%D0%9E%D0%B1%D1%89%D0%B8%D0%B9%2014-15.pdf,2015,,90,,,,,,75,,54,,62,,72,,63,,56,,58.1,,72,,72.8,,58,,,,
Государственное бюджетное общеобразовательное учреждение города Москвы «Школа № 2128 «Энергия»,sch1914v.mskobr.ru,http://sch2128.mskobr.ru/report/,2015,,x,,,,,,,,,,,,,,,,,,,,,,,,,,,,
Государственное бюджетное общеобразовательное учреждение города Москвы «Гимназия № 1570»,http://gym1570s.mskobr.ru/,http://gym1570s.mskobr.ru/files/%D0%BF%D1%83%D0%B1%D0%BB%D0%B8%D1%87%D0%BD%D1%8B%D0%B9%20%D0%BE%D1%82%D1%87%D0%B5%D1%82%202014-15%2014-21.pdf,2015,,62,,,,,,73,,68,,61,,59,,58.5,,51.2,,42,,60,,55.4,,46,,,,
Государственное бюджетное общеобразовательное учреждение города Москвы «Гимназия № 1404 «Гамма»,http://gym1404.mskobr.ru/,http://gym1404.mskobr.ru/files/_%D0%B1%D0%B5%D0%B7_%D0%B8%D0%BC%D0%B5%D0%BD.pdf,2014,,67,,,,,,68,,,,57,,66,,58,,64,,48,,89,,80,,53,,,,
Государственное бюджетное общеобразовательное учреждение города Москвы «Школа № 9»,http://sch9uz.mskobr.ru/,http://sch9uz.mskobr.ru/files/publichnyj_doklad_2014-2015.pdf,2015,,73,,,,,,72,,,,59,,47,,32,,77,,55,,52,,54,,62,,,,
Государственное бюджетное образовательное учреждение города Москвы средняя общеобразовательная школа № 922,http://sch922v.mskobr.ru/,http://sch922v.mskobr.ru/files/publ_otch_2013_2014.pdf,2014,,51,,,,,,61,,,,51,,55,,44,,54,,40,,53,,57,,47,,,,
Государственное бюджетное образовательное учреждение города Москвы средняя общеобразовательная школа № 667,http://sch667u.mskobr.ru/,http://sch667u.mskobr.ru/report/,2014,,x,,,,,,,,,,,,,,,,,,,,,,,,,,,,
Государственное бюджетное общеобразовательное учреждение города Москвы «Лицей № 1828 «Сабурово»,http://cou1828.mskobr.ru/,http://cou1828.mskobr.ru/files/%20%D0%B4%D0%BE%D0%BA%D0%BB%D0%B0%D0%B4.pdf,2015,,71,,,,,,74,,62,,64,,57,,53,,57,,60,,52,,58,,64,,,,
Государственное бюджетное общеобразовательное учреждение города Москвы «Центр образования № 1858»,http://sch1858uv.mskobr.ru/,http://sch1858uv.mskobr.ru/files/public_13-14.pdf,2014,,56.2,,,,,,58.7,,,,53.7,,,,63.7,,54.2,,34.9,,60.2,,62.3,,44.3,,,,
Государственное бюджетное образовательное учреждение города Москвы средняя общеобразовательная школа № 422 «Перово»,http://sch2126.mskobr.ru/,http://sch2126.mskobr.ru/files/publichnyj_doklad_2014-2015.pdf,2015,,73,,,,,,70.3,,,,59,,62.7,,54,,46,,48.3,,71.5,,64,,53,,,,
Государственное бюджетное образовательное учреждение города Москвы средняя общеобразовательная школа с углубленным изучением английского языка № 1356,http://sch1356uz.mskobr.ru/,http://sch1356uz.mskobr.ru/report/,2014,,x,,,,,,,,,,,,,,,,,,,,,,,,,,,,
Государственное бюджетное образовательное учреждение города Москвы средняя общеобразовательная школа № 305,http://sch305.mskobr.ru/,http://sch305.mskobr.ru/files/attach_files/publick_doc.pdf,2015,,49,,,,,,67,,,,54,,,,52,,55,,39,,48,,38,,47,,,,
Государственное бюджетное профессиональное образовательное учреждение города Москвы «Образовательный комплекс «Юго-запад»,http://spo39.mskobr.ru/,http://spo39.mskobr.ru/files/publicdok2015.pdf,2015,,42,,,,,,71,,,,61,,58,,53,,70,,52,,60,,55,,57,,,,
Государственное бюджетное образовательное учреждение города Москвы средняя общеобразовательная школа № 2012,http://sch2012uv.mskobr.ru/,http://sch2012uv.mskobr.ru/files/%202015%281%29.pdf,2015,,74.7,,,,,,72,,-,,57,,62.3,,50,,57,,50.4,,74,,48,,53.3,,,,
Государственное бюджетное общеобразовательное учреждение города Москвы «Школа № 883»,http://sch883sz.mskobr.ru/,x,,,,,,,,,,,,,,,,,,,,,,,,,,,,,,,
Государственное бюджетное общеобразовательное учреждение города Москвы «Школа № 2073»,http://sch2073.mskobr.ru/,http://sch2073.mskobr.ru/files/%20%D0%B4%D0%BE%D0%BA%D0%BB%D0%B0%D0%B4%202015%20%D0%B8%D1%81%D0%BF%D1%80%283%29.pdf,2015,,84,,,,,,71,,67,,57,,50.4,,41.1,,60,,38,,69,,62.8,,46,,,,
Государственное бюджетное образовательное учреждение города Москвы средняя общеобразовательная школа № 480 им.В.В.Талалихина,http://sch480c.mskobr.ru/,http://sch480c.mskobr.ru/files/%20%D0%BE%D1%82%D1%87%D0%B5%D1%82%20%D0%B4%D0%B8%D1%80%D0%B5%D0%BA%D1%82%D0%BE%D1%80%D0%B0%202014-2015%281%29.pdf,2015,,58,,,,,,69,,,,61,,71,,51,,62,,45,,59,,47,,57,,,,
Государственное бюджетное образовательное учреждение города Москвы средняя общеобразовательная школа № 1482,http://sch1482.mskobr.ru/,http://sch1482.mskobr.ru/files/publichnyj_doklad.pdf,2014,,54,,,,,,62,,51,,55,,57,,59,,55,,41,,43,,54,,42,,,,
Государственное бюджетное образовательное учреждение города Москвы средняя общеобразовательная школа № 935,http://sch935u.mskobr.ru/,http://sch935u.mskobr.ru/report/,2014,,x,,,,,,,,,,,,,,,,,,,,,,,,,,,,
Государственное бюджетное образовательное учреждение города Москвы лицей № 504,http://lyc504u.mskobr.ru/,http://lyc504u.mskobr.ru/files/%20%D0%B4%D0%BE%D0%BA%D0%BB%D0%B0%D0%B4%2013-14%20%D0%98%D1%82%D0%BE%D0%B3.pdf,2014,,50,,,,,,61.44,,,,51.34,,,,47.55,,58.3,,38.84,,59,,50.55,,48.2,,,,
Государственное бюджетное общеобразовательное учреждение города Москвы «Школа № 222»,http://sch222s.mskobr.ru/,http://sch222s.mskobr.ru/files/publichnyj_doklad_2014-15.pdf,2015,,x,,,,,,,,,,,,,,,,,,,,,,,,,,,,
Негосударственное образовательное учреждение - Гимназия «Московская экономическая школа»,mes.ru,https://www.mes.ru/upload/medialibrary/694/6949f4a8ff99064ebfa7f52aff6e0eef.pdf,2015,,74,,,,,,78,,,,67,,62,,,,,,63,,,,,,,,,,
Государственное бюджетное образовательное учреждение города Москвы «Школа № 1987 многопрофильный образовательный комплекс»,http://sch1987uv.mskobr.ru/,http://sch1987uv.mskobr.ru/files/%20%D0%B4%D0%BE%D0%BA%D0%BB%D0%B0%D0%B4%20%D0%B7%D0%B0%202014-2015%20%28%D0%BE%D0%BA%D0%BE%D0%BD%D1%87%D0%B0%D1%82%D0%B5%D0%BB%D1%8C%D0%BD%D1%8B%D0%B9%20%D0%B2%D0%B0%D1%80%D0%B8%D0%B0%D0%BD%D1%82%29%20%281%29.pdf,2015,,,,,,,,72,,60,,,,57,,,,,,45,,,,,,60,,,,
Государственное бюджетное образовательное учреждение города Москвы средняя общеобразовательная школа № 1726,http://sch1726z.mskobr.ru/,http://sch1726z.mskobr.ru/files/publichnyj_doklad_20142015g.pdf,2015,,?,,,,,,,,,,,,,,,,,,,,,,,,,,,,
Государственное бюджетное общеобразовательное учреждение города Москвы «Школа № 2055 имени Героев Советского Союза Анатолия Живова и Юрия Костикова»,http://sch2055c.mskobr.ru/,http://2055shkola.ru/pdf/publichny_doklad.pdf,2014,,,,,,,,69,,,,,,,,,,,,41,,,,,,,,,,
Государственное бюджетное общеобразовательное учреждение города Москвы «Школа № 1692»,http://sch1692zg.mskobr.ru/,http://sch1692zg.mskobr.ru/files/pd2015.pdf,2015,,72.83,,,,,,67.48,,73,,52.14,,55,,38,,46.33,,49.27,,46,,41.71,,57.72,,,,
Государственное бюджетное общеобразовательное учреждение города Москвы «Школа № 1623»,http://sch1623u.mskobr.ru/,http://sch1623u.mskobr.ru/files/%20%D0%94%D0%9E%D0%9A%D0%9B%201623_14-15%20%D0%B3%D0%BE%D0%B4%283%29.pdf,2015,,,,,,,,73,,,,58,,46,,,,,,48,,44,,,,48,,,,
Государственное бюджетное общеобразовательное учреждение города Москвы «Школа № 1998 «Лукоморье»,http://sch1998u.mskobr.ru/,http://sch1998u.mskobr.ru/files/Glavnay/publichnyj_otchet_za_2013-14_god.pdf,2014,,72,,,,,,63,,37,,54,,,,53,,57,,41,,50,,58,,54,,,,
Государственное бюджетное общеобразовательное учреждение города Москвы «Школа с углубленным изучением иностранных языков № 1220»,http://sch1220.mskobr.ru/,http://sch1220.mskobr.ru/report/,2014,,x,,,,,,,,,,,,,,,,,,,,,,,,,,,,
Государственное бюджетное общеобразовательное учреждение города Москвы «Школа № 760 имени А.П.Маресьева»,http://schsv760.mskobr.ru/,http://schsv760.mskobr.ru/files/%2014-15.docx,2015,,62,,,,,,65,,68,,52,,55,,45,,,,27,,60,,60,,43,,,,
Государственное бюджетное общеобразовательное учреждение города Москвы «Школа № 323»,http://sch323.mskobr.ru/,http://sch323.mskobr.ru/files/publichnyj_otchet_direktora_gbou_shkola_323_za_2014-2015_uchebnyj_god1.pdf,2015,,46,,,,,,70,,65,,57,,54,,52,,53,,41,,52,,51,,55,,,,
Государственное бюджетное образовательное учреждение города Москвы средняя общеобразовательная школа №69 имени Б.Ш.Окуджавы,http://sch69sz.mskobr.ru/,http://sch69sz.mskobr.ru/files/publichnyi_doklad_-_2015.pdf,2015,,56,,,,,,,,70,,56,,51,,46,,54,,,,80,,78,,48,,,,
Государственное бюджетное образовательное учреждение города Москвы гимназия № 1925,http://cov1925.mskobr.ru/,http://cov1925.mskobr.ru/files/%20%D0%B4%D0%BE%D0%BA%D0%BB%D0%B0%D0%B4%20%D0%B4%D0%B8%D1%80%D0%B5%D0%BA%D1%82%D0%BE%D1%80%D0%B0%20%D0%B7%D0%B0%202014-15%20%D1%83%D1%87.%D0%B3.pdf,2015,,x,,,,,,,,,,,,,,,,,,,,,,,,,,,,
Государственное бюджетное общеобразовательное учреждение города Москвы «Школа № 852»,http://sch852zg.mskobr.ru/,http://sch852zg.mskobr.ru/files/doclad.pdf,2015,,x,,,,,,,,,,,,,,,,,,,,,,,,,,,,
Государственное бюджетное образовательное учреждение города Москвы лицей № 1589,http://lycc1589.mskobr.ru/,x,,,,,,,,,,,,,,,,,,,,,,,,,,,,,,,
Государственное бюджетное образовательное учреждение города Москвы средняя общеобразовательная школа № 86 имени М.Е.Катукова,http://sch86sz.mskobr.ru/,http://sch86sz.mskobr.ru/report/,2015,,,49,,,,,69,,,,51,,35,,46,,75,,49,,60,,55,,58,,,,
Государственное бюджетное образовательное учреждение города Москвы средняя общеобразовательная школа № 1908,http://sch1908uv.mskobr.ru/,http://sch1908uv.mskobr.ru/files/%20%D1%81%D0%B0%D0%BC%D0%BE%D0%BE%D0%B1%D1%81%D0%BB%D0%B5%D0%B4%D0%BE%D0%B2%D0%B0%D0%BD%D0%B8%D1%8F%20%D0%BD%D0%B0%2001.07.2015%20%D0%B3..doc,2015,,x,,,,,,,,,,,,,,,,,,,,,,,,,,,,
Государственное бюджетное общеобразовательное учреждение города Москвы «Школа № 712»,http://sch712.mskobr.ru/,http://sch712.mskobr.ru/files/publichnyj_otchet.pdf,2015,,71,,,,,,66,,,,52,,44,,44,,,,47,,63,,55,,56,,,,
Государственное бюджетное образовательное учреждение города Москвы Гимназия № 1595,http://gym1595.mskobr.ru/,http://gym1595.mskobr.ru/report/,2015,,x,,,,,,,,,,,,,,,,,,,,,,,,,,,,
Государственное бюджетное образовательное учреждение города Москвы средняя общеобразовательная школа№1929,http://schu1929.mskobr.ru/,http://schu1929.mskobr.ru/files/%20%D0%B4%D0%BE%D0%BA%D0%BB%D0%B0%D0%B4%20%D0%B4%D0%B8%D1%80%D0%B5%D0%BA%D1%82%D0%BE%D1%80%D0%B0%202013-2014.doc,2015,,x,,,,,,,,,,,,,,,,,,,,,,,,,,,,
Государственное бюджетное образовательное учреждение города Москвы средняя общеобразовательная школа № 1694 «Ясенево»,http://sch1694uz.mskobr.ru/,http://sch1694uz.mskobr.ru/files/docs/%D0%9F%D1%83%D0%B1%D0%BB%D0%B8%D1%87%D0%BD%D1%8B%D0%B9%20%D0%BE%D1%82%D1%87%D0%B5%D1%82%202015.pdf,2015,,,,,,,,,,80,,59,,59,,41,,57,,,,90,,64,,49,,,,
Государственное бюджетное общеобразовательное учреждение города Москвы «Школа № 1078»,http://sch1078.mskobr.ru/,http://sch1078.mskobr.ru/files/%20%D0%B4%D0%BE%D0%BA%D0%BB%D0%B0%D0%B4%281%29.pdf,2015,,54.6,,,,,,58.8,,92.5,,48.8,,58,,43.2,,48.8,,60,,61.7,,59.3,,48,,,,
Государственное бюджетное общеобразовательное учреждение города Москвы «Школа № 687»,http://sch687uv.mskobr.ru/,http://sch687uv.mskobr.ru/report/,2014,,57,,,,,,71,,,,40,,49,,40,,64,,48,,70,,73,,48,,,,
Государственное бюджетное образовательное учреждение города Москвы средняя общеобразовательная школа № 809,http://sch809.mskobr.ru/,https://yadi.sk/d/aavp_YZYbSDAy,2014,,71,,,,,,70,,,,54,,59,,51,,53,,39,,61,,67,,46,,,,
Государственное бюджетное общеобразовательное учреждение города Москвы «Гимназия № 1786»,http://gym1786uz.mskobr.ru/,http://gym1786uz.mskobr.ru/files/publichny_otchet_2014-2015(1).pdf,2015,,?,,,,,,,,,,,,,,,,,,,,,,,,,,,,
Государственное бюджетное образовательное учреждение города Москвы лицей № 1511 при «Национальном исследовательском ядерном университете» МИФИ,http://lycg1511.mskobr.ru/,http://www.1511.ru/info/page74/file/2497,2015,,66,,,,,,74,,43,,58,,,,49,,69,,73,,76,,57,,64,,,,
Государственное бюджетное образовательное учреждение города Москвы средняя общеобразовательная школа № 1825,http://sch1852.mskobr.ru/,http://sch1852.mskobr.ru/files/public2.docx,2015,,76,,,,,,70,,,,57.1,,,,47,,50.2,,48.4,,,,36,,52,,,,
Государственное бюджетное образовательное учреждение города Москвы средняя общеобразовательная школа № 587,http://sch587.mskobr.ru/,http://sch587.mskobr.ru/files/2015/%D0%BF%D1%83%D0%B1%D0%BB%20%D0%B4%D0%BE%D0%BA%D0%BB%D0%B0%D0%B4_14-15.pdf,2015,,61,,,,,,71,,,,58,,62,,52,,42,,46.8,,48,,56,,50,,,,
Государственное бюджетное образовательное учреждение города Москвы лицей № 1795 «Лосиноостровский»,http://lyc1795.mskobr.ru/,http://lyc1795.mskobr.ru/files/publichnyj_doklad_gbou_licej_1795_za_2014-2015_uchebnyj_god1.pdf,2015,,77,,,,,,74,,,,56,,91,,77,,61,,48,,50,,54,,57,,,,
Государственное бюджетное образовательное учреждение города Москвы средняя общеобразовательная школа № 851,http://sch851u.mskobr.ru/,http://sch851u.mskobr.ru/files/%20%D0%B4%D0%BE%D0%BA%D0%BB%D0%B0%D0%B4%202014-2015%281%29.pdf,2015,,x,,,,,,,,,,,,,,,,,,,,,,,,,,,,
Государственное бюджетное образовательное учреждение города Москвы средняя общеобразовательная школа № 1247 имени ЮргисаБалтрушайтиса,http://schec1247.mskobr.ru/,http://schec1247.mskobr.ru/files/p_doclad/%D0%9F%D1%83%D0%B1%D0%BB%D0%B8%D1%87%D0%BD%D1%8B%D0%B9%20%D0%B4%D0%BE%D0%BA%D0%BB%D0%B0%D0%B4%20%D0%B4%D0%B8%D1%80%D0%B5%D0%BA%D1%82%D0%BE%D1%80%D0%B0%20%D0%B7%D0%B0%202014%202015%20%D1%83%D1%87.%20%D0%B3..pdf,2015,,74,,,,,,73,,,,63,,54,,60,,58,,51,,61,,58,,62,,,,
Государственное бюджетное общеобразовательное учреждение города Москвы «Школа с углубленным изучением отдельных предметов № 982 имени Маршала бронетанковых войск П.П.Полубоярова»,http://sch982u.mskobr.ru/,http://sch982u.mskobr.ru/files/publichnyj_doklad_2014-2015_god.pdf,2015,,74,,,,,,73,,,,63,,54,,60,,70,,57,,61,,51,,71,,,,
Государственное бюджетное общеобразовательное учреждение города Москвы «Школа № 281»,http://sch281sv-new.mskobr.ru/,http://sch281sv-new.mskobr.ru/files/%20%D0%B4%D0%BE%D0%BA%D0%BB%D0%B0%D0%B4%282014-2015%29.pdf,2015,,x,,,,,,,,,,,,,,,,,,,,,,,,,,,,
Государственное бюджетное образовательное учреждение города Москвы средняя общеобразовательная школа № 979,http://sch979u.mskobr.ru/,http://sch979u.mskobr.ru/files/_2014-2015.pdf,2015,,65,,,,,,73,,,,55,,52,,61,,48,,40,,,,49,,48,,,,
Государственное бюджетное общеобразовательное учреждение города Москвы «Школа с углубленным изучением отдельных предметов № 879»,http://sch879.mskobr.ru/,http://sch879.mskobr.ru/files/%20%D0%B4%D0%BE%D0%BA%D0%BB%D0%B0%D0%B4%20%2014-15.pdf,2015,,62,,,,,,75,,,,58,,62,,48,,59,,52,,44,,54,,58,,,,
Государственное бюджетное общеобразовательное учреждение города Москвы «Школа № 1161»,http://sch1161.mskobr.ru/,http://sch1161.mskobr.ru/files/publichnyj_otchet_20142015.pdf,2015,,53,,,,59,,67,,,,56,,58,,45,,58,,41,,45,,30,,57,,,,
Государственное бюджетное общеобразовательное учреждение города Москвы «Школа № 1114»,sch1114z.mskobr.ru,https://yadi.sk/i/BDIYbcAJZS8w7,2014,,61,,,,,,66,,,,54,,47,,42,,54,,40,,73,,67,,45,,,,
Государственное бюджетное общеобразовательное учреждение города Москвы «Центр образования № 1678 «Восточное Дегунино»,http://sch1678.mskobr.ru/,http://sch1678.mskobr.ru/files/docum/jun2015/14-15%20%D0%BF%D1%83%D0%B1%D0%BB.%D0%B4%D0%BE%D0%BA%D0%BB%D0%B0%D0%B4_06_07.pdf,2015,,51,,,,,,72,,53,,57,,52,,51,,40,,48,,67,,60,,61,,,,
Государственное бюджетное общеобразовательное учреждение города Москвы «Школа с этнокультурным русским компонентом образования № 1148 имени Ф.М.Достоевского»,http://sch1148uv.mskobr.ru/,http://sch1148uv.mskobr.ru/report/,2015,,x,,,,,,,,,,,,,,,,,,,,,,,,,,,,
Государственное бюджетное общеобразовательное учреждение города Москвы «Школа № 657»,http://sch657u.mskobr.ru/,http://sch657u.mskobr.ru/files/%20%D0%B4%D0%BE%D0%BA%D0%BB%D0%B0%D0%B4%202014-2015.pdf,2015,,60,,,,,,68,,,,56,,56,,46,,48,,44,,53,,55,,55,,,,
Государственное бюджетное общеобразовательное учреждение города Москвы «Школа с углублённым изучением отдельных предметов № 978»,http://sch978u.mskobr.ru/,x,,,,,,,,,,,,,,,,,,,,,,,,,,,,,,,
Государственное бюджетное общеобразовательное учреждение города Москвы «Школа № 967»,http://sch967.mskobr.ru/,http://sch967.mskobr.ru/report/,2015,,x,,,,,,,,,,,,,,,,,,,,,,,,,,,,
Государственное автономное общеобразовательное учреждение города Москвы «Школа с углубленным изучением отдельных предметов «Шик 16»,http://schisv16.mskobr.ru/,http://schisv16.mskobr.ru/files/samoobsledovanie-deyatelynosti-v-2014-2015-uchebnom-godu.pdf,2015,,x,,,,,,,,,,,,,,,,,,,,,,,,,,,,
Государственное бюджетное общеобразовательное учреждение города Москвы «Школа с углубленным изучением иностранных языков № 1373»,http://sch1373v.mskobr.ru/,http://sch1373v.mskobr.ru/report/,2015,,x,,,,,,,,,,,,,,,,,,,,,,,,,,,,
Государственное бюджетное образовательное учреждение города Москвы средняя общеобразовательная школа № 1945,http://sch1945uz.mskobr.ru/,http://sch1945uz.mskobr.ru/files/Publichniy%20otchet%202014-2015%202%20variant.pdf,2015,,75,,,,,,72,,,,59,,58,,55,,78,,52,,58,,64,,60,,,,
Государственное бюджетное образовательное учреждение города Москвы средняя общеобразовательная школа № 56 имени академика В.А.Легасова,http://sch56.mskobr.ru/,http://sch56.mskobr.ru/files/publichnyj_doklad.pdf,2014,,65.9,,,,,,65.9,,,,58.6,,57.1,,47.1,,54,,50.9,,57.1,,53.6,,51.1,,,,
Государственное бюджетное общеобразовательное учреждение города Москвы «Школа № 1996»,http://sch1996uv.mskobr.ru/,http://sch1996uv.mskobr.ru/files/%20Microsoft%20PowerPoint%20%281%29%282%29.pptx,2015,,,,,,,,65,,39,,50,,,,51,,,,37,,43,,43,,,,,,
Государственное бюджетное общеобразовательное учреждение города Москвы «Школа № 896»,http://sch896u.mskobr.ru/,http://sch896u.mskobr.ru/files/publichnyj_doklad_2015_v_kratkom_izlozhenii_1.pdf,2015,,58,,,,,,69,,,,56,,,,50,,48,,49,,66,,64,,53,,,,
Государственное бюджетное образовательное учреждение города Москвы кадетская школа - интернат № 9 «Московский пансион государственных воспитанниц»,http://mpgv.mskobr.ru/,http://mpgv.mskobr.ru/files/%20%D0%B4%D0%BE%D0%BA%D0%BB%D0%B0%D0%B4%202014-2015.pdf,2015,,68,,,,,,72,,,,61,,78,,48,,46,,43,,62,,54,,34,,,,
Государственное бюджетное общеобразовательное учреждение города Москвы «Школа № 37»,sch37.mskobr.ru,http://sch37.mskobr.ru/files/%D0%BF%D1%83%D0%B1%D0%BB%D0%B8%D1%87%D0%BD%D1%8B%D0%B9_2014-15-4_201.pdf,2015,,63,,,,,,71,,,,59,,55,,51,,61,,55,,75,,67,,63,,,,
Государственное бюджетное образовательное учреждение города Москвы средняя общеобразовательная школа № 38,sch38.mskobr.ru,x,,,,,,,,,,,,,,,,,,,,,,,,,,,,,,,
Государственное бюджетное образовательное учреждение города Москвы средняя общеобразовательная школа № 74,sch74.mskobr.ru,http://sch74.mskobr.ru/files/Dokymenti/%D0%A1%D0%B0%D0%BC%D0%BE%D0%BE%D0%B1%D1%81%D0%BB%D0%B5%D0%B4%D0%BE%D0%B2%D0%B0%D0%BD%D0%B8%D0%B5.xlsx,2015,,x,,,,,,,,,,,,,,,,,,,,,,,,,,,,
Государственное бюджетное общеобразовательное учреждение города Москвы «Школа № 590»,sch590z.mskobr.ru,http://sch590z.mskobr.ru/files/publichnyj_otchet_2013-2014%281%29.doc,2014,,69.4,,,,,,66.1,,,,67,,,,73.6,,52.3,,54.8,,51,,47.3,,44.5,,,,
Государственное бюджетное образовательное учреждение города Москвы специальная общеобразовательная школа № 1,schs1.mskobr.ru,http://schs1.mskobr.ru/files/%D0%9F%D1%83%D0%B1%D0%BB%D0%B8%D1%87%D0%BD%D1%8B%D0%B9%20%D0%B4%D0%BE%D0%BA%D0%BB%D0%B0%D0%B4%202014.doc,2014,,x,,,,,,,,,,,,,,,,,,,,,,,,,,,,
Государственное бюджетное общеобразовательное учреждение города Москвы «Школа № 547»,sch547u.mskobr.ru,http://sch547u.mskobr.ru/files/publichnyj_doklad_o_rezul_tatah_deyatel_nosti_gbou_shkoly_547_za_2014-2015_uchebnyj_god.pdf,2015,,58,,,,,,66,,,,52,,58,,53,,45,,42,,63,,46,,59,,,,
Государственное бюджетное образовательное учреждение города Москвы средняя общеобразовательная школа № 880,sch880u.mskobr.ru,http://sch880u.mskobr.ru/report/,2015,,?,,,,,,,,,,,,,,,,,,,,,,,,,,,,
Государственное бюджетное образовательное учреждение города Москвы средняя общеобразовательная школа № 932,sch932u.mskobr.ru,http://sch932u.mskobr.ru/files/publ_doclad_2014-15.pdf,2015,,50,,,,,,62,,49,,56,,39,,46,,39,,39,,51,,48,,51,,,,
Государственное бюджетное образовательное учреждение города Москвы лицей № 1523,lycu1523.mskobr.ru,http://lycu1523.mskobr.ru/report/,2015,,79,,,,,,80,,,,68,,64,,66,,69,,74,,81,,80,,70,,,,
Государственное бюджетное образовательное учреждение города Москвы средняя общеобразовательная школа № 1174,sch1174uz.mskobr.ru,http://sch1174uz.mskobr.ru/files/publichnyj_otchet_2013-2014_01.pdf,2014,,x,,,,,,,,,,,,,,,,,,,,,,,,,,,,
Государственное бюджетное образовательное учреждение города Москвы средняя общеобразовательная школа № 2016,schu2016.mskobr.ru,http://schu2016.mskobr.ru/files/publichnyj_doklad_direktora_2014-2015_ech_god.pdf,2015,,,,,,,,68,,,,54,,47,,47,,25,,34,,76,,69,,54,,,,
Государственное бюджетное образовательное учреждение города Москвы средняя общеобразовательная школа № 2017,sch2017u.mskobr.ru,http://sch2017u.mskobr.ru/files/pdf/doklad_2013-2014.pdf,2014,,53.5,,,,,,62,,,,55.3,,73.3,,55.5,,37.3,,37.5,,46,,57.9,,39.6,,,,
Государственное бюджетное образовательное учреждение города Москвы средняя общеобразовательная школа № 1432 «Новая школа»,sch1432.mskobr.ru,http://sch1432.mskobr.ru/files/publichnyj_doklad_rukovoditelya_kukolevoj_e.doc,2015,,x,,,,,,,,,,,,,,,,,,,,,,,,,,,,
Государственное бюджетное образовательное учреждение города Москвы средняя общеобразовательная школа № 1471,sch1471.mskobr.ru,http://sch1471.mskobr.ru/files/publichnyj_doklad_2015_-_14711.pdf,2015,,x,,,,,,,,,,,,,,,,,,,,,,,,,,,,
Государственное бюджетное образовательное учреждение города Москвы центр образования № 1483,cov1483.mskobr.ru,http://cov1483.mskobr.ru/files/2014-2015.pdf,2015,,47,,,,,,69,,53,,60,,52,,,,,,44,,63,,,,48,,,,
Государственное бюджетное образовательное учреждение города Москвы средняя общеобразовательная школа № 484 имени дважды Героя Советского Союза В.И.Попкова,sch484uv-new.mskobr.ru,http://sch484uv-new.mskobr.ru/report/,2014,,x,,,,,,,,,,,,,,,,,,,,,,,,,,,,
Государственное бюджетное образовательное учреждение города Москвы средняя общеобразовательная школа № 338,sch338uv.mskobr.ru,http://sch338uv.mskobr.ru/files/%202013-2014-1%286%29.docx,2014,,39,,,,,,53,,67,,53,,,,,,,,35,,39,,62,,,,,,
Государственное бюджетное образовательное учреждение города Москвы средняя общеобразовательная школа № 479 имени дважды Героя Советского Союза Маршала В.И. Чуйкова,sch479uv.mskobr.ru,http://sch479uv.mskobr.ru/files/Pub.pdf,2015,,64,,,,,,,,,,53,,62,,73,,47,,,,39,,49,,45,,,,
Государственное бюджетное образовательное учреждение города Москвы средняя общеобразовательная школа № 519,sch519uv.mskobr.ru,http://spectr.mskobr.ru/files/otchetu/pupdoklspectr2014-2015.pdf,2015,,60,,,,,,68,,,,57,,57,,42.5,,58,,49.5,,,,52,,58,,,,
Государственное бюджетное образовательное учреждение города Москвы средняя общеобразовательная школа с этнокультурным татарским компонентом образования № 1186 имени Мусы Джалиля,schuve1186.mskobr.ru,http://schuve1186.mskobr.ru/files/%D0%9F%D1%83%D0%B1%D0%BB%D0%B8%D1%87%D0%BD%D1%8B%D0%B9_%D0%BE%D1%82%D1%87%D0%B5%D1%82_%D0%93%D0%91%D0%9E%D0%A3_%D0%A1%D0%9E%D0%A8_%E2%84%96_1186_2014_2015%D1%83%D1%87.%D0%B3%D0%BE%D0%B4.pdf,2015,,62,,,,,,75,,,,58,,,,43,,43,,45,,75,,78,,38,,,,
Государственное бюджетное общеобразовательное учреждение города Москвы «Школа № 51»,sch51uz.mskobr.ru,http://sch51uz.mskobr.ru/files/publichnyj_otchet_za_2014-2015_uchebnyj_god.pdf,2015,,74,,,,,,66,,47,,51,,64,,43,,56,,45,,59,,55,,61,,,,
Государственное бюджетное образовательное учреждение города Москвы средняя общеобразовательная школа с углубленным изучением отдельных предметов № 1366,sch1366uv.mskobr.ru,http://sch1366uv.mskobr.ru/files/%20%D0%BE%D1%82%D1%87%D1%91%D1%82%202015%20%D0%9C-1.pdf,2015,,x,,,,,,,,,,,,,,,,,,,,,,,,,,,,
Государственное бюджетное образовательное учреждение города Москвы средняя общеобразовательная школа с углубленным изучением предметов социального профиля № 1386,sch1386.mskobr.ru,http://sch1386.mskobr.ru/report/,2015,,x,,,,,,,,,,,,,,,,,,,,,,,,,,,,
Государственное бюджетное образовательное учреждение города Москвы средняя общеобразовательная школа № 1423,sch1423uv.mskobr.ru,http://sch1423uv.mskobr.ru/files/pub_doc_1314.pdf,2014,,76.7,,,,,,64.7,,82,,56.7,,,,38.3,,76.5,,57.8,,58,,67.4,,60.2,,,,
Государственное бюджетное образовательное учреждение города Москвы средняя общеобразовательная школа «Школа здоровья» № 1065,schuz1065.mskobr.ru,http://schuz1065.mskobr.ru/files/publichnyj_otchet_za_2014-2015.pdf,2015,,66,,,,,,73,,,,60,,,,54,,48,,45,,56,,58,,45,,,,
Государственное бюджетное образовательное учреждение города Москвы кадетская школа-интернат № 7 «Московский казачий кадетский корпус» имени М.А. Шолохова,schuvi7.mskobr.ru,http://schuvi7.mskobr.ru/files/%20%D0%BE%D1%82%D1%87%D0%B5%D1%82%20%D0%B7%D0%B0%202014-2015.pdf,2015,,x,,,,,,,,,,,,,,,,,,,,,,,,,,,,
Государственное бюджетное образовательное учреждение города Москвы центр образования № 1311 «Тхия»,couz1311.mskobr.ru,http://couz1311.mskobr.ru//files/pub_otchet_2013_2014.pdf,2014,,73,,,,,,66,,,,68,,,,59,,54,,43,,77,,77,,44,,,,
Государственное бюджетное образовательное учреждение города Москвы средняя общеобразовательная школа № 89 имени А.П. Маресьева,sch89sz.mskobr.ru,http://sch89sz.mskobr.ru/files/pddsh-2014-2015-2408.doc,2015,,53,,,,,,64,,,,54,,,,38,,57,,48,,64,,,,68,,,,
Государственное бюджетное образовательное учреждение города Москвы средняя общеобразовательная школа № 1155,sch1155sz.mskobr.ru,http://sch1155sz.mskobr.ru/files/samoobsledovanie-gbou-sosh-1155.pdf,2013,,50,,,,,,65,,,,50.3,,,,33.3,,44,,48,,49,,55.2,,48,,,,
Государственное бюджетное образовательное учреждение города Москвы средняя общеобразовательная школа № 1190,sch1190sz.mskobr.ru,http://st.educom.ru//eduoffices/gateways/get_file.php?id={5130F878-4508-4AAE-ADD4-7DD5A8551C3D}&name=otchet-o-rezulytatah-samoobsledovaniya-2015-(2).pdf,2015,,x,,,,,,,,,,,,,,,,,,,,,,,,,,,,
Государственное бюджетное общеобразовательное учреждение города Москвы «Школа с углубленным изучением предметов художественно-эстетического цикла средствами театрального искусства № 123»,schuc123.mskobr.ru,http://schuc123.mskobr.ru/files/%D0%9F%D1%83%D0%B1%D0%BB%D0%B8%D1%87%D0%BD%D1%8B%D0%B9%20%D0%B4%D0%BE%D0%BA%D0%BB%D0%B0%D0%B4%20%D0%B4%D0%B8%D1%80%D0%B5%D0%BA%D1%82%D0%BE%D1%80%D0%B0%202013-2014(1).docx,2014,,61,,,,,,70,,,,60,,59,,57,,,,44,,,,59,,41,,,,
Государственное бюджетное образовательное учреждение города Москвы средняя общеобразовательная школа с углубленным изучением восточных языков № 2042 имени Лазаревых,schuuz2042.mskobr.ru,http://schuuz2042.mskobr.ru/files/%20%D0%B4%D0%BE%D0%BA%D0%BB%D0%B0%D0%B4%20%D0%B7%D0%B0%202014-2015%20%D1%83%D1%87%D0%B5%D0%B1%D0%BD%D1%8B%D0%B9%20%D0%B3%D0%BE%D0%B4.pdf,2015,,80,,,,,,69,,,,57,,49,,62,,,,27,,58,,71,,41,,,,
Государственное бюджетное образовательное учреждение города Москвы средняя общеобразовательная школа № 1331,sch1331.mskobr.ru,http://sch1331.mskobr.ru/report/,2015,,x,,,,,,,,,,,,,,,,,,,,,,,,,,,,
Государственное бюджетное образовательное учреждение города Москвы кадетская школа № 1785 «Таганский кадетский корпус»,kadci1785.mskobr.ru,http://kadci1785.mskobr.ru/files/%D0%9F%D1%83%D0%B1%D0%BB%D0%B8%D1%87%D0%BD%D1%8B%D0%B9%20%D0%B4%D0%BE%D0%BA%D0%BB%D0%B0%D0%B4%20%D0%93%D0%91%D0%9E%D0%A3%20%D0%9A%D0%A8%201785%202013-2014.pdf,2014,,x,,,,,,,,,,,,,,,,,,,,,,,,,,,,
Государственное бюджетное образовательное учреждение города Москвы средняя общеобразовательная школа № 2044,sch2044sv-new.mskobr.ru,http://sch2044sv-new.mskobr.ru/files/%20%D0%B4%D0%BE%D0%BA%D0%BB%D0%B0%D0%B4%20%D1%80%D1%83%D0%BA%D0%BE%D0%B2%D0%BE%D0%B4%D0%B8%D1%82%D0%B5%D0%BB%D1%8F%202014-2015%20%282%29.pdf,2015,,50,,,,,,71,,,,55,,,,48,,57,,51,,56,,48,,51,,,,
Государственное бюджетное образовательное учреждение города Москвы кадетская школа-интернат № 6 «Московский Георгиевский кадетский корпус»,kdsch6sv.mskobr.ru,http://kdsch6sv.mskobr.ru/files/samoobsledovanie_2014-2015_uchebnyj_god1.pdf,2015,,58,,,,,,,,72,,59,,,,54,,,,44,,,,,,46,,,,
Государственное бюджетное общеобразовательное учреждение города Москвы «Школа № 374»,sch374.mskobr.ru,http://sch374.mskobr.ru/files/%20%D0%BE%D1%82%D1%87%D0%B5%D1%82%202014-2015.pptx,2015,,,,,,,,62,,43,,49,,53,,38,,,,28,,,,40,,46,,,,
Государственное бюджетное общеобразовательное учреждение города Москвы «Школа № 399»,sch399.mskobr.ru,http://sch399.mskobr.ru/files/pub_2014-15.doc,2015,,x,,,,,,,,,,,,,,,,,,,,,,,,,,,,
Государственное бюджетное образовательное учреждение города Москвы средняя общеобразовательная школа № 400,sch400v.mskobr.ru,http://sch400v.mskobr.ru/files/%20%D0%B4%D0%BE%D0%BA%D0%BB%D0%B0%D0%B4%20%D1%80%D1%83%D0%BA%D0%BE%D0%B2%D0%BE%D0%B4%D0%B8%D1%82%D0%B5%D0%BB%D1%8F%202014-2015%281%29.pdf,2015,,78,,,,,,,,,,61.7,,51,,56,,52,,,,51.7,,49.8,,47.7,,,,
Государственное бюджетное образовательное учреждение города Москвы средняя общеобразовательная школа № 609,sch609zg.mskobr.ru,http://sch609zg.mskobr.ru/files/%20%20%D0%BF%D1%83%D0%B1%D0%BB%D0%B8%D1%87%D0%BD%D1%8B%D0%B9%20%D0%B4%D0%BE%D0%BA%D0%BB%D0%B0%D0%B4%202015.pdf,2015,,x,,,,,,,,,,,,,,,,,,,,,,,,,,,,
Государственное бюджетное общеобразовательное учреждение города Москвы «Школа № 423»,sch423.mskobr.ru,http://sch423.mskobr.ru/files/publichnyj_otchet_2015.docx,2015,,x,,,,,,,,,,,,,,,,,,,,,,,,,,,,
Государственное бюджетное образовательное учреждение города Москвы средняя общеобразовательная школа № 719,schzg719.mskobr.ru,http://schzg719.mskobr.ru/files/Publ_ot_2014-2015.pdf,2015,,77,,,,,,74,,61,,55,,61,,51,,52,,47,,57,,46,,51,,,,
Государственное бюджетное образовательное учреждение города Москвы средняя общеобразовательная школа № 448,sch448.mskobr.ru,http://sch448.mskobr.ru/files/Main_page/Public_doklad/Public_doklad_2015.pdf,2015,,,,,,,,66,,,,53,,67,,41,,,,53.4,,59,,48,,66,,,,
Государственное бюджетное образовательное учреждение города Москвы средняя общеобразовательная школа № 633,sch633v.mskobr.ru,http://sch633v.mskobr.ru/files/publichnyj_otchet_shkoly_6331.pdf,2015,,73,,,,,,65,,,,50,,,,49,,,,33,,,,32,,44,,,,
Государственное бюджетное образовательное учреждение города Москвы средняя общеобразовательная школа № 664,sch664.mskobr.ru,http://sch664.mskobr.ru/files/publichnyj_doklad_2015.pdf,2015,,49,,,,,,72,,,,61,,56,,56,,48,,53,,58,,53,,61,,,,
Государственное бюджетное образовательное учреждение города Москвы средняя общеобразовательная школа с углубленным изучением отдельных предметов № 1073,sch1073u.mskobr.ru,http://sch1073u.mskobr.ru/files/pokazatelisamoanaliza_1_za_37_2020142015g_37_20_2_1.xlsx,2015,,x,,,,,,,,,,,,,,,,,,,,,,,,,,,,
Государственное бюджетное образовательное учреждение города Москвы средняя общеобразовательная школа № 1021,sch1021v.mskobr.ru,http://sch1021v.mskobr.ru/files/%D0%9F%D1%83%D0%B1%D0%BB%D0%B8%D1%87%D0%BD%D1%8B%D0%B9%20%D0%B4%D0%BE%D0%BA%D0%BB%D0%B0%D0%B4.doc,2014,,x,,,,,,,,,,,,,,,,,,,,,,,,,,,,
Государственное бюджетное образовательное учреждение города Москвы средняя общеобразовательная школа № 1076,sch1076.mskobr.ru,x,,,,,,,,,,,,,,,,,,,,,,,,,,,,,,,
Государственное бюджетное общеобразовательное учреждение города Москвы «Школа № 1947»,schv1947.mskobr.ru,http://schv1947.mskobr.ru/files/%20%D0%BE%D1%82%D1%87%D0%B5%D1%82%202015%20%D0%BD%D0%BE%D0%B2%D1%8B%D0%B9.pdf,2015,,74,,,,,,67,,,,55,,54,,60,,52,,46,,66,,56,,54,,,,
Государственное бюджетное образовательное учреждение города Москвы центр образования № 1602,cov1602.mskobr.ru,http://cov1602.mskobr.ru/files/%20%D0%B4%D0%BE%D0%BA%D0%BB%D0%B0%D0%B4%202014-20145.pdf,2015,,67,,,,,,65,,65,,54,,63,,53,,40,,42,,71,,58,,48,,,,
Государственное бюджетное общеобразовательное учреждение города Москвы «Школа с углубленным изучением экологии № 446»,schvu446.mskobr.ru,http://schvu446.mskobr.ru/files/publichnyj_doklad_-_20151.pdf,2015,,56,,,,,,63,,52,,50,,68,,42,,37,,48,,49,,58,,50,,,,
Государственное бюджетное образовательное учреждение города Москвы средняя общеобразовательная школа № 158,sch158s.mskobr.ru,http://sch158s.mskobr.ru/files/publichnyj_doklad_20151.pdf,2015,,,,,,,,67,,69,,50,,66,,,,,,43,,55,,,,50,,,,
Государственное бюджетное образовательное учреждение города Москвы средняя общеобразовательная школа № 216,schs216.mskobr.ru,http://schs216.mskobr.ru/report/,2015,,65,,,,,,57,,,,47.1,,34,,51,,54,,35.9,,,,55,,39.4,,,,
Государственное бюджетное общеобразовательное учреждение города Москвы «Школа № 1125»,sch1125s.mskobr.ru,http://sch1125s.mskobr.ru/files/%20%D1%81%D0%B0%D0%BC%D0%BE%D0%BE%D0%B1%D1%81%D0%BB%D0%B5%D0%B4%D0%BE%D0%B2%D0%B0%D0%BD%D0%B8%D1%8F%202015%2031%20%D0%B0%D0%B2%D0%B3%D1%83%D1%81%D1%82%D0%B0%281%29.pdf,2015,,81,,,,,,68,,73,,57,,,,62,,60,,48,,87,,60,,58,,,,
Государственное бюджетное общеобразовательное учреждение города Москвы «Школа № 1164»,sch1164.mskobr.ru,http://sch1164.mskobr.ru/files/%20%D0%BE%D1%82%D1%87%D0%B5%D1%82%282%29.pdf,2015,,61,,,,,,66,,47,,42,,48,,55,,55,,38,,68,,61,,42,,,,
Государственное бюджетное образовательное учреждение среднего профессионального образования города Москвы Политехнический техникум № 2,pk02.mskobr.ru,x,,,,,,,,,,,,,,,,,,,,,,,,,,,,,,,
Государственное бюджетное образовательное учреждение города Москвы средняя общеобразовательная школа № 2053,sch2053.mskobr.ru,http://sch2053.mskobr.ru/files/publichnyj_otchet_2014-20151.pdf,2015,,53,,,,,,62,,64,,42,,,,46,,40,,37,,52,,47,,46,,,,
Государственное бюджетное образовательное учреждение города Москвы специальная (коррекционная) общеобразовательная школа-интернат VII вида № 73,schiu73.mskobr.ru,http://schiu73.mskobr.ru/files/files/%D0%9F%D1%83%D0%B1%D0%BB%D0%B8%D1%87%D0%BD%D1%8B%D0%B9%20%D0%B4%D0%BE%D0%BA%D0%BB%D0%B0%D0%B4%20%D0%B7%D0%B0%202014-2015%20%D1%83%D1%87%D0%B5%D0%B1%D0%BD%D1%8B%D0%B9%20%D0%B3%D0%BE%D0%B4.pdf,2015,,x,,,,,,,,,,,,,,,,,,,,,,,,,,,,
Государственное бюджетное образовательное учреждение города Москвы средняя общеобразовательная школа № 2051 «Педагогический комплекс»,sch2051uv-new.mskobr.ru,http://sch2051uv-new.mskobr.ru/report/,2015,,x,,,,,,,,,,,,,,,,,,,,,,,,,,,,
Государственное бюджетное общеобразовательное учреждение города Москвы «Школа № 998»,sch998u.mskobr.ru,http://sch998u.mskobr.ru/files/%20%D0%B4%D0%BE%D0%BA%D0%BB%D0%B0%D0%B4%202013-2014%20%D0%B4%D0%BB%D1%8F%20%D0%9E%D0%BB%D0%B8%20%281%29.pdf,2014,,60.7,,,,,,61.3,,,,46.3,,43.3,,38,,,,32,,44,,57.5,,44.8,,,,
Государственное бюджетное общеобразовательное учреждение города Москвы «Школа № 356 имени Н.З. Коляды»,sch356.mskobr.ru,http://sch356.mskobr.ru/files/publichnyj_otchet_2015.pdf,2015,,68,,,,,,46,,,,56,,52,,57,,42,,44,,62,,47,,50,,,,
Государственное бюджетное образовательное учреждение города Москвы средняя общеобразовательная школа № 1005 «Алые паруса»,sch1005sz.mskobr.ru,http://sch1005sz.mskobr.ru/files/publichnyj_doklad_direktora_kuznecovoj_n.pdf,2015,,50,,,,,,68,,,,59,,,,47,,51,,42,,44,,62,,48,,,,
Государственное бюджетное общеобразовательное учреждение города Москвы «Школа с углубленным изучением экологии № 390 имени генерала П.И. Батова»,sch390.mskobr.ru,http://sch390.mskobr.ru/files/%20%D0%9F%D1%80%D0%BE%D0%BD%D0%B8%D0%BD%D0%B0%20%D0%A2.%D0%90.%281%29%281%29.pdf,2015,,54,,,,,,62,,63,,48,,,,48,,33,,42,,48,,42,,53,,,,
Государственное бюджетное образовательное учреждение города Москвы средняя общеобразовательная школа № 514,sch514u.mskobr.ru,http://sch514u.mskobr.ru/report/,2015,,42,,,,,,,,,,52,,,,48,,51,,,,43,,49,,44,,,,
Государственное бюджетное образовательное учреждение среднего профессионального образования города Москвы Политехнический техникум № 13 имени П.А. Овчинникова,spo-13.mskobr.ru,x,,,,,,,,,,,,,,,,,,,,,,,,,,,,,,,
Государственное бюджетное образовательное учреждение города Москвы средняя общеобразовательная школа № 1429 имени Героя Советского Союза Н.А.Боброва,sch1429c.mskobr.ru,http://sch1429c.mskobr.ru/report/,2015,,42,,,,,,,,,,52,,,,48,,,,,,43,,49,,44,,,,
Государственное бюджетное образовательное учреждение города Москвы гимназия № 1476,gym1476.mskobr.ru,http://gym1476.mskobr.ru/files/%2B%D0%B4%D0%BE%D0%BA%D0%BB%D0%B0%D0%B4%2B2014-2015.pdf,2015,,64.5,,,,,,69,,,,50,,,,46,,51,,47,,66,,51,,55,,,,
Государственное бюджетное образовательное учреждение города Москвы средняя общеобразовательная школа № 1989 «Центр образования»,sch1989uv.mskobr.ru,http://sch1989uv.mskobr.ru/files/Publichnyj_otchet_direktora_za_2014_2015.pdf,2015,,x,,,,,,,,,,,,,,,,,,,,,,,,,,,,
Государственное бюджетное общеобразовательное учреждение города Москвы «Школа № 1321 «Ковчег»,sch1321uv.mskobr.ru,http://sch1321uv.mskobr.ru/files/%20%D0%BE%D1%82%D1%87%D0%B5%D1%82%2014-15_2.pdf,2015,,58.7,,,,,,71.6,,74.5,,57.7,,,,63,,83,,47.6,,83,,65.3,,66,,,,
Государственное бюджетное образовательное учреждение города Москвы средняя общеобразовательная школа с углубленным изучением отдельных предметов № 1393 «Школа РОСТ»,sch1393uv.mskobr.ru,x,,,,,,,,,,,,,,,,,,,,,,,,,,,,,,,
Государственное бюджетное образовательное учреждение города Москвы средняя общеобразовательная школа № 1436,sch1436.mskobr.ru,x,,,,,,,,,,,,,,,,,,,,,,,,,,,,,,,
Государственное бюджетное образовательное учреждение города Москвы средняя общеобразовательная школа № 1877 «Люблино»,sch1877uv.mskobr.ru,http://sch1877uv.mskobr.ru/files/publichnyj_doklad_2014-2015.pdf,2015,,60,,,,,,66,,,,56,,60,,,,48,,37,,48,,52,,49.5,,,,
Государственное бюджетное образовательное учреждение города Москвы средняя общеобразовательная школа № 1460,sch1460uv.mskobr.ru,http://sch1460uv.mskobr.ru/files/%20%D0%BE%D1%82%D1%87%D0%B5%D1%82%20%2005.09.2014.pdf,2014,,x,,,,,,,,,,,,,,,,,,,,,,,,,,,,
Государственное бюджетное образовательное учреждение города Москвы средняя общеобразовательная школа № 2093 имени А.Н. Савельева,sch2093.mskobr.ru,http://sch2093.mskobr.ru/files/_%D0%BE%D1%82%D1%87%D0%B5%D1%822014-15%E2%84%962.pdf,2015,,65.4,,,,,,66,,,,57,,68,,49,,55.3,,41,,48,,47.7,,55.8,,,,
Государственное бюджетное общеобразовательное учреждение города Москвы средняя общеобразовательная школа № 892,sch892.mskobr.ru,http://sch892.mskobr.ru/files/publichnyj_doklad.pdf,2015,,,,,,,,67,,,,,,,,,,,,,,,,,,,,,,
Государственное бюджетное общеобразовательное учреждение города Москвы «Школа № 384 имени Д.К. Корнеева»,sch384.mskobr.ru,http://sch384.mskobr.ru/report/,2015,,x,,,,,,,,,,,,,,,,,,,,,,,,,,,,
Государственное бюджетное образовательное учреждение города Москвы средняя общеобразовательная школа № 1621 «Школа лидерства Лаудер Эц Хайм»,sch1621.mskobr.ru,http://sch1621.mskobr.ru/files/%20%D0%BE%D1%82%D1%87%D0%B5%D1%82%2014-15.pdf,2015,,72,,,,,,73.3,,,,63.3,,60,,74.5,,,,53,,,,30,,74,,,,
Государственное бюджетное образовательное учреждение города Москвы средняя общеобразовательная школа № 1159,sch1159s.mskobr.ru,http://sch1159s.mskobr.ru/report/,2015,,x,,,,,,,,,,,,,,,,,,,,,,,,,,,,
Государственное бюджетное образовательное учреждение города Москвы средняя общеобразовательная школа № 1784 «Кадетская школа»,sch1784s.mskobr.ru,http://sch1784s.mskobr.ru/files/publik-doklad2014-2015.docx,2015,,45,,,,,,61,,,,49,,50,,54,,40,,35,,,,,,36,,,,
Государственное бюджетное образовательное учреждение города Москвы средняя общеобразовательная школа № 668 имени Героя Советского Союза В.П. Кислякова,sch668s.mskobr.ru,http://sch668s.mskobr.ru/files/00/publ_doc%2014-15.pdf,2015,,x,,,,,,,,,,,,,,,,,,,,,,,,,,,,
Государственное бюджетное образовательное учреждение города Москвы средняя общеобразовательная школа № 868,sch868.mskobr.ru,http://sch868.mskobr.ru/files/%20%D0%BE%D1%82%D1%87%D0%B5%D1%82%20%D0%B7%D0%B0%2020142015%20%D1%83%D1%87%D0%B5%D0%B1%D0%BD%D1%8B%D0%B9%20%D0%B3%D0%BE%D0%B4%281%29.docx,2015,,44,,,,,,67,,,,55,,,,42,,52,,56,,55,,56,,67,,,,
Государственное бюджетное образовательное учреждение города Москвы средняя общеобразовательная школа № 939,sch939u.mskobr.ru,http://sch939u.mskobr.ru/report/,2015,,59,,,,,,67,,69,,46,,,,45,,59,,40,,68,,78,,49,,,,
Государственное бюджетное образовательное учреждение города Москвы средняя общеобразовательная школа № 975,sch975u.mskobr.ru,http://sch975u.mskobr.ru/report/,2015,,,,,,,,66,,,,48,,,,44,,61,,,,71,,43,,48,,,,
Государственное бюджетное общеобразовательное учреждение города Москвы «Школа № 149»,sch149.mskobr.ru,http://sch149.mskobr.ru/files/Public_doklad/2014_2015/Publ_doklad_2014_2015.pdf,2015,,72,,,,,,71,,89,,64,,56,,43,,53,,59,,,,71,,58,,,,
Государственное бюджетное образовательное учреждение города Москвы средняя общеобразовательная школа № 1909 имени Героя Советского Союза А.К. Новикова,sch1909uv.mskobr.ru,http://sch1909uv.mskobr.ru/files/%201909_2015.pdf,2014,,64.04,,,,61.69,,65.9,,,,53.09,,58.4,,47.14,,,,50.9,,50,,53.1,,51.5,,,,
Государственное бюджетное образовательное учреждение города Москвы средняя общеобразовательная школа № 996,sch996.mskobr.ru,https://drive.google.com/file/d/0B8pXnmk-jTqXODQ1bzNlN3MyckE/edit,2014,,,,,,,,,,,,,,,,,,,,,,,,,,,,,,
Государственное бюджетное образовательное учреждение города Москвы средняя общеобразовательная школа № 1650,schec1650.mskobr.ru,http://schec1650.mskobr.ru/files/files/dok/lokal_akt/%D0%9F%D1%83%D0%B1%D0%BB%D0%B8%D1%8F%D0%BD%D1%8B%D0%B9%20%D0%B4%D0%BE%D0%BA%D0%BB%D0%B0%D0%B4%20%D0%A2.%20%D0%90..pdf,2015,,75,,,,,,73,,,,66,,,,51,,,,63,,61,,65,,49,,,,
Государственное бюджетное общеобразовательное учреждение города Москвы «Школа № 2113»,sch2113.mskobr.ru,http://sch2113.mskobr.ru/files/%20%D0%B7%D0%B0%202014-2015%20%28%D0%98.%D0%BE.%20%D0%B4%D0%B8%D1%80%D0%B5%D0%BA%D1%82%D0%BE%D1%80%D0%B0%20%D0%9F%D0%B0%D0%BB%D0%B5%D1%85%D0%BE%D0%B2%D0%B0%20%D0%98.%D0%92.%29%281%29.pdf,2015,,,,,,,,,,,,,,,,,,,,,,,,,,,,,,
Государственное бюджетное общеобразовательное учреждение города Москвы «Школа № 538 имени С.В. Гришина»,sch538uz.mskobr.ru,http://sch538uz.mskobr.ru/files/public_otchet_2013_2014.doc,2014,,61.2,,,,,,67.2,,,,58.8,,61,,63.5,,50,,46.8,,56.5,,65.6,,43.6,,,,
Государственное бюджетное общеобразовательное учреждение города Москвы «Школа № 1613»,sch1613uz.mskobr.ru,http://sch1613uz.mskobr.ru/report/,2015,,63,,,,,,74,,45,,59,,52,,56,,,,,,62,,68,,46,,,,
Государственное бюджетное общеобразовательное учреждение города Москвы «Школа № 2115»,sch2115.mskobr.ru,http://sch2115.mskobr.ru/files/%28%D0%9A%D0%9E%D0%9F%29%20%D0%9F%D1%83%D0%B1%D0%BB%D0%B8%D1%87%D0%BD%D1%8B%D0%B9%20%D0%B4%D0%BE%D0%BA%D0%BB%D0%B0%D0%B4%202015%20%D0%B3%D0%BE%D0%B4.docx,2015,,x,,,,,,,,,,,,,,,,,,,,,,,,,,,,
Государственное бюджетное общеобразовательное учреждение города Москвы «Школа № 2099»,sch2099.mskobr.ru,http://sch2099.mskobr.ru/report/publichnyj_otchet_gbou_shkola_2099_za_2014-2015_uchebnyj_god/,2015,,,,,,,,72,,,,,,44,,,,,,42,,,,,,,,,,
Государственное бюджетное общеобразовательное учреждение города Москвы «Школа с углубленным изучением экономики № 1301 имени Е.Т. Гайдара»,sch1301v.mskobr.ru,http://sch1301v.mskobr.ru/files/2014-2015/publichny_doklad%2014-15.pdf,2015,,59,,,,,,70,,,,58,,62,,55,,68,,42,,50,,46,,52,,,,
Государственное бюджетное общеобразовательное учреждение города Москвы «Школа № 362»,schv362.mskobr.ru,http://schv362.mskobr.ru/files/-2015-2016%281%29.pdf,2015,,64,,,,,,59,,58,,52,,48,,39,,,,38,,40,,46,,42,,,,
Государственное бюджетное общеобразовательное учреждение города Москвы «Школа № 1349»,schzv1349.mskobr.ru,http://schzv1349.mskobr.ru/files/publ14-15.pdf,2015,,x,,,,,,,,,,,,,,,,,,,,,,,,,,,,
Государственное бюджетное общеобразовательное учреждение города Москвы «Школа № 463 имени Героя Советского Союза Д.Н.Медведева»,schu463.mskobr.ru,http://schu463.mskobr.ru/files/publ_dokl_2015.pdf,2015,,,,,,,,74,,,,61,,,,61,,59,,49,,58,,61,,69,,,,
Государственное бюджетное общеобразовательное учреждение города Москвы «Школа Перспектива»,perspektiva.mskobr.ru,http://perspektiva.mskobr.ru/files/po_2014-2015.pdf,2015,,x,,,,,,,,,,,,,,,,,,,,,,,,,,,,
Государственное бюджетное общеобразовательное учреждение города Москвы «Школа № 439 «Инженерный лицей «Интеллект»,sch439uv.mskobr.ru,http://sch439uv.mskobr.ru/files/otchet_direktora_14-15.pdf,2015,,55,,,,,,68,,,,51,,59,,32,,50,,42,,44,,50,,56,,,,
Государственное бюджетное общеобразовательное учреждение города Москвы «Школа № 2111 «Новая волна»,sch2111.mskobr.ru,http://sch2111.mskobr.ru/files/publichnyj_doklad_3_str.pdf,2015,,,,,,,,70,,51,,50,,54,,39,,,,39,,74,,66,,50,,,,
Государственное бюджетное общеобразовательное учреждение города Москвы «Школа № 19»,schuzu19.mskobr.ru,http://schuzu19.mskobr.ru/report/,2015,,x,,,,,,,,,,,,,,,,,,,,,,,,,,,,
Государственное бюджетное общеобразовательное учреждение города Москвы «Школа № 810»,sch810v.mskobr.ru,http://sch810v.mskobr.ru/report/,2014,,x,,,,,,,,,,,,,,,,,,,,,,,,,,,,
Государственное бюджетное общеобразовательное учреждение города Москвы «Школа № 386»,sch386.mskobr.ru,http://sch386.mskobr.ru/report/,2015,,54,,,,,,75,,,,61,,54,,51,,60,,41,,38,,43,,52,,,,
Государственное бюджетное общеобразовательное учреждение города Москвы «Школа № 1022»,sch1022.mskobr.ru,http://sch1022.mskobr.ru/files/%D0%9F%D1%83%D0%B1%D0%BB%D0%B8%D1%87%D0%BD%D1%8B%D0%B9%20%D0%B4%D0%BE%D0%BA%D0%BB%D0%B0%D0%B4%20%D0%B4%D0%B8%D1%80%D0%B5%D0%BA%D1%82%D0%BE%D1%80%D0%B0/%D0%9F%D1%83%D0%B1%D0%BB%D0%B8%D1%87%D0%BD%D1%8B%D0%B9%20%D0%B4%D0%BE%D0%BA%D0%BB%D0%B0%D0%B4%20%D0%B4%D0%B8%D1%80%D0%B5%D0%BA%D1%82%D0%BE%D1%80%D0%B0%202014-2015.pdf,2015,,73,,,,,,68,,,,59,,,,48,,79,,57,,66,,60,,56,,,,
Государственное бюджетное общеобразовательное учреждение города Москвы «Школа № 856»,schu856.mskobr.ru,http://schu856.mskobr.ru/files/samoobsledovanie-pokazateli_2013-2014.pdf,2014,,x,,,,,,,,,,,,,,,,,,,,,,,,,,,,
Государственное бюджетное образовательное учреждение города Москвы «Школа № 920»,sch920v.mskobr.ru,http://sch920v.mskobr.ru/files/%20%D0%B4%D0%BE%D0%BA%D0%BB%D0%B0%D0%B4%202014-2015%20%D1%83%D1%87%D0%B5%D0%B1%D0%BD%D1%8B%D0%B9%20%D0%B3%D0%BE%D0%B4.pdf,2015,,64,,,,,,,,64,,57,,64,,46,,47,,,,57,,50,,47,,,,
Государственное бюджетное профессиональное образовательное учреждение города Москвы «Техникум сервиса и туризма № 29»,tsit29.mskobr.ru,http://tsit29.mskobr.ru/files/Publichnii_doklad/publichnyj_doklad_31_12_2013.pdf,2014,,x,,,,,,,,,,,,,,,,,,,,,,,,,,,,
Государственное бюджетное общеобразовательное учреждение города Москвы «Школа № 494 имени Героя Российской Федерации А.Н. Рожкова»,sch494.mskobr.ru,http://sch494.mskobr.ru/files/%20%D0%B4%D0%BE%D0%BA%D0%BB%D0%B0%D0%B4%202013-2014.pdf,2014,,x,,,,,,,,,,,,,,,,,,,,,,,,,,,,
Государственное бюджетное общеобразовательное учреждение города Москвы «Школа № 744 имени Петра Николаевича Еремеева»,sch744s.mskobr.ru,http://sch744s.mskobr.ru/files/%20%D0%BE%D1%82%D1%87%D0%B5%D1%82%202014-2015.pdf,2015,,,,,,,,73,,,,50,,56,,55,,,,36,,47,,62,,,,,,
Государственное бюджетное профессиональное образовательное учреждение города Москвы «Многопрофильный центр образования»,mco.mskobr.ru,x,,,,,,,,,,,,,,,,,,,,,,,,,,,,,,,
Государственное бюджетное общеобразовательное учреждение города Москвы «Школа № 842»,sch842zg.mskobr.ru,http://sch842zg.mskobr.ru/files/%20%D0%B4%D0%BE%D0%BA%D0%BB%D0%B0%D0%B4%20%D0%B8%D1%82%D0%BE%D0%B3.pdf,2015,,66,,,,,,65,,56,,56,,68,,57,,52,,39,,57,,62,,52,,,,
Государственное бюджетное общеобразовательное учреждение города Москвы «Школа № 492»,sch492u.mskobr.ru,http://sch492u.mskobr.ru/report/,2014,,x,,,,,,,,,,,,,,,,,,,,,,,,,,,,
Государственное бюджетное общеобразовательное учреждение города Москвы «Инженерно-техническая школа имени дважды Героя Советского Союза П.Р. Поповича»,sch1847s.mskobr.ru,http://itschool.mskobr.ru/files/%20%D0%B4%D0%BE%D0%BA%D0%BB%D0%B0%D0%B4%20227%282%29.pdf,2015,,65,,,,,,66,,60,,52,,58,,50,,,,37,,52,,45,,50,,,,
Государственное бюджетное общеобразовательное учреждение города Москвы «Центр образования» Бескудниковский»,schs849.mskobr.ru,http://cob.mskobr.ru/files/publichnyj_doklad_2014-2015.pdf,2015,,72,,,,,,70,,,,56,,59,,,,,,45,,,,,,55,,,,
Государственное бюджетное общеобразовательное учреждение города Москвы «Школа № 2048»,sch2048.mskobr.ru,http://sch2048.mskobr.ru/report/,2015,,x,,,,,,,,,,,,,,,,,,,,,,,,,,,,
Государственное бюджетное общеобразовательное учреждение города Москвы «Школа № 2129» имени Героя Советского Союза П.И. Романова,sch2056uv.mskobr.ru,http://sch2129uv.mskobr.ru/report/,2014,,47,,,,,,,,,,57,,,,58,,52,,45,,64,,64,,45,,,,
Государственное бюджетное общеобразовательное учреждение города Москвы «Гимназия № 2200»,sch1268.mskobr.ru,http://gymnasium2200.mskobr.ru/files/publichniy_doklad/%D0%9F%D0%A3%D0%91%D0%9B%D0%98%D0%A7%D0%9D%D0%AB%D0%99%20%D0%94%D0%9E%D0%9A%D0%9B%D0%90%D0%94%202014-2015%20%D0%BE%D1%82%2030%20%D0%B8%D1%8E%D0%BD%D1%8F%202015%20%D0%B3....pdf,2015,,83.7,,,,,,80,,55,,63,,,,59.3,,40,,42.6,,66.3,,63.8,,62.5,,,,
Государственное бюджетное общеобразовательное учреждение города Москвы «Школа № 734 «Школа самоопределения»,cog734.mskobr.ru,http://cog734.mskobr.ru/files/publichnyj_otchet_o_deyatel_nosti_gbou_co_734_2014-15_god.pdf,2015,,67,,,,,,69,,-,,54,,57,,53,,55,,54,,70,,59,,58,,,,
Государственное бюджетное профессиональное образовательное учреждение города Москвы «Западный комплекс непрерывного образования»,pk42.mskobr.ru,http://zkno.mskobr.ru/files/Pologenia/%D0%BF%D1%83%D0%B1%D0%BB%D0%B8%D1%87%D0%BD%D1%8B%D0%B9%20%D0%B4%D0%BE%D0%BA%D0%BB%D0%B0%D0%B4%202015.pdf,2015,,53,,,,,,65,,,,57,,,,52,,62,,45,,64,,53,,43,,,,
Государственное бюджетное образовательное учреждение города Москвы кадетская школа-интернат № 10 «Московский кадетский корпус полиции имени Героя Советского Союза А.И.Попрядухина»,mkkp10.mskobr.ru,http://mkkp10.mskobr.ru/files/%20%D0%9E%D0%A2%D0%A7%D0%95%D0%A2%202014-2015%20%D1%83%D1%87%D0%B5%D0%B1%D0%BD%D1%8B%D0%B9%20%D0%B3%D0%BE%D0%B4.docx,2015,,,,,,,,67,,,,57,,,,,,,,82,,,,,,,,,,
Государственное бюджетное общеобразовательное учреждение города Москвы «Школа № 1055»,schu1055.mskobr.ru,https://yadi.sk/d/H6NDMUhmiwcew,2015,,89,,,,,,75,,61,,51,,53,,47,,40,,36,,62,,59,,51,,,,
Государственное бюджетное общеобразовательное учреждение города Москвы «Первый Московский кадетский корпус»,kdsch1s.mskobr.ru,http://kdsch1s.mskobr.ru/files/folder/publichnyj_otchyot_za_2014-2015_uchebnyj_god_1.pdf,2015,,65.5,,,,,,67,,,,42,,65,,44,,64,,44,,,,,,56,,,,
Государственное бюджетное общеобразовательное учреждение города Москвы «Школа № 933»,sch933u.mskobr.ru,http://sch933u.mskobr.ru/files/%20%D0%B4%D0%BE%D0%BA%D0%BB%D0%B0%D0%B4.pdf,2014,,75,,,,,,65.7,,,,59.8,,62.5,,61,,58,,55.5,,57.8,,60.2,,47.6,,,,
Государственное бюджетное общеобразовательное учреждение города Москвы «Школа с углубленным изучением отдельных предметов № 415»,sch415uv.mskobr.ru,http://sch415uv.mskobr.ru/files/publichnyj_doklad_za_2014-2015.pdf,2015,,57.2,,,,,,67.1,,,,53.2,,,,56,,59,,43.3,,57.4,,53,,47.2,,,,
Государственное бюджетное образовательное учреждение города Москвы средняя общеобразовательная школа № 2088 «Грайвороново»,sch2088uv.mskobr.ru,http://sch2088uv.mskobr.ru/files/%20%D0%BE%D1%82%D1%87%D0%B5%D1%82%20%D0%93%D0%91%D0%9E%D0%A3%20%D0%A1%D0%9E%D0%A8%202088%20%D0%B2%202015%20%D0%B3%D0%BE%D0%B4%D1%83.pdf,2015,,x,,,,,,,,,,,,,,,,,,,,,,,,,,,,
Государственное бюджетное общеобразовательное учреждение города Москвы «Школа № 391»,sch391.mskobr.ru,http://sch391.mskobr.ru/files/publichnyj_otchet_1.pdf,2015,,69,,,,,,70,,,,51,,56,,45,,,,42,,51,,56,,56,,,,
Государственное бюджетное общеобразовательное учреждение города Москвы «Школа № 518»,schc518.mskobr.ru,http://schc518.mskobr.ru/files/document/proverki/publichnyj_doklad_za_2013-14.doc,2014,,,,,,,,70,,,,,,,,,,,,56,,,,,,,,,,
Государственное бюджетное общеобразовательное учреждение города Москвы «Школа № 686 «Класс-центр»,cos686.mskobr.ru,http://cos686.mskobr.ru/files/publichnyiy_otchet201314.docx,2014,,72,,,,,,79,,,,63,,66,,78,,57,,49,,69,,69,,,,,,
Государственное бюджетное общеобразовательное учреждение города Москвы «Гимназия № 1290»,gymv1290.mskobr.ru,http://gym1290.mskobr.ru/files/pd_1415_1.pdf,2015,,x,,,,,,,,,,,,,,,,,,,,,,,,,,,,
Государственное бюджетное общеобразовательное учреждение города Москвы «Школа № 572 «Возможности»,sch572uv.mskobr.ru,http://sch572uv.mskobr.ru/report/,2014,,x,,,,,,,,,,,,,,,,,,,,,,,,,,,,
Государственное бюджетное общеобразовательное учреждение города Москвы «Школа № 727»,sch727s.mskobr.ru,http://sch727s.mskobr.ru/files/%20%D0%B4%D0%BE%D0%BA%D0%BB%D0%B0%D0%B4%202014-2015_protected.pdf,2015,,x,,,,,,,,,,,,,,,,,,,,,,,,,,,,
Государственное бюджетное общеобразовательное учреждение города Москвы «Школа № 58»,schiuz58.mskobr.ru,http://schiuz58.mskobr.ru/files/publ_doklad/publichnyy_doklad_2013-14_s.pdf,2014,,59.5,,,,,,69.727,,,,47.285,,,,47.8,,,,44.364,,,,47,,70.5,,,,
